<?xml version='1.0' encoding='UTF-8'?>
<gpx xmlns="http://www.topografix.com/GPX/1/1" version="1.1" creator="HillGPX import_gpx.py">
  <metadata>
    <name>Hong Kong Trail Section 4</name>
    <desc>Imported from https://www.openstreetmap.org/relation/11814652 · ODbL © OpenStreetMap contributors</desc>
  </metadata>
  <trk>
    <name>Hong Kong Trail Section 4</name>
    <trkseg>
      <trkpt lat="22.2572016" lon="114.1921708"><ele>200.7</ele></trkpt>
      <trkpt lat="22.2572347" lon="114.1921578"><ele>201.4</ele></trkpt>
      <trkpt lat="22.2572421" lon="114.1921530"><ele>201.6</ele></trkpt>
      <trkpt lat="22.2572648" lon="114.1921383"><ele>202.1</ele></trkpt>
      <trkpt lat="22.2572910" lon="114.1921131"><ele>202.7</ele></trkpt>
      <trkpt lat="22.2573133" lon="114.1920816"><ele>203.2</ele></trkpt>
      <trkpt lat="22.2573295" lon="114.1920461"><ele>203.4</ele></trkpt>
      <trkpt lat="22.2573561" lon="114.1919440"><ele>203.1</ele></trkpt>
      <trkpt lat="22.2573878" lon="114.1918436"><ele>203.1</ele></trkpt>
      <trkpt lat="22.2574216" lon="114.1917525"><ele>203.3</ele></trkpt>
      <trkpt lat="22.2574596" lon="114.1916634"><ele>203.0</ele></trkpt>
      <trkpt lat="22.2574800" lon="114.1916370"><ele>203.1</ele></trkpt>
      <trkpt lat="22.2575057" lon="114.1916169"><ele>203.4</ele></trkpt>
      <trkpt lat="22.2575300" lon="114.1916060"><ele>203.9</ele></trkpt>
      <trkpt lat="22.2575557" lon="114.1916007"><ele>204.5</ele></trkpt>
      <trkpt lat="22.2575820" lon="114.1916012"><ele>205.3</ele></trkpt>
      <trkpt lat="22.2576706" lon="114.1916010"><ele>207.8</ele></trkpt>
      <trkpt lat="22.2577591" lon="114.1915946"><ele>210.2</ele></trkpt>
      <trkpt lat="22.2578470" lon="114.1915820"><ele>212.1</ele></trkpt>
      <trkpt lat="22.2579340" lon="114.1915633"><ele>213.6</ele></trkpt>
      <trkpt lat="22.2580182" lon="114.1915390"><ele>215.1</ele></trkpt>
      <trkpt lat="22.2581008" lon="114.1915089"><ele>216.4</ele></trkpt>
      <trkpt lat="22.2581814" lon="114.1914733"><ele>217.1</ele></trkpt>
      <trkpt lat="22.2582211" lon="114.1914471"><ele>217.3</ele></trkpt>
      <trkpt lat="22.2582421" lon="114.1914284"><ele>217.4</ele></trkpt>
      <trkpt lat="22.2582570" lon="114.1914152"><ele>217.5</ele></trkpt>
      <trkpt lat="22.2582885" lon="114.1913781"><ele>217.7</ele></trkpt>
      <trkpt lat="22.2583149" lon="114.1913367"><ele>218.4</ele></trkpt>
      <trkpt lat="22.2583356" lon="114.1912918"><ele>219.1</ele></trkpt>
      <trkpt lat="22.2583430" lon="114.1912680"><ele>219.4</ele></trkpt>
      <trkpt lat="22.2583504" lon="114.1912441"><ele>219.8</ele></trkpt>
      <trkpt lat="22.2583594" lon="114.1911892"><ele>220.4</ele></trkpt>
      <trkpt lat="22.2583604" lon="114.1911335"><ele>220.9</ele></trkpt>
      <trkpt lat="22.2583534" lon="114.1910782"><ele>221.2</ele></trkpt>
      <trkpt lat="22.2583477" lon="114.1910577"><ele>221.3</ele></trkpt>
      <trkpt lat="22.2583386" lon="114.1910248"><ele>221.5</ele></trkpt>
      <trkpt lat="22.2582896" lon="114.1909259"><ele>222.7</ele></trkpt>
      <trkpt lat="22.2582350" lon="114.1908305"><ele>223.5</ele></trkpt>
      <trkpt lat="22.2581792" lon="114.1907451"><ele>223.8</ele></trkpt>
      <trkpt lat="22.2581189" lon="114.1906634"><ele>223.3</ele></trkpt>
      <trkpt lat="22.2580922" lon="114.1906250"><ele>222.5</ele></trkpt>
      <trkpt lat="22.2580718" lon="114.1905823"><ele>222.0</ele></trkpt>
      <trkpt lat="22.2580582" lon="114.1905366"><ele>221.8</ele></trkpt>
      <trkpt lat="22.2580519" lon="114.1904891"><ele>222.0</ele></trkpt>
      <trkpt lat="22.2580523" lon="114.1904479"><ele>222.5</ele></trkpt>
      <trkpt lat="22.2580581" lon="114.1904073"><ele>223.2</ele></trkpt>
      <trkpt lat="22.2580692" lon="114.1903680"><ele>224.2</ele></trkpt>
      <trkpt lat="22.2580854" lon="114.1903308"><ele>225.0</ele></trkpt>
      <trkpt lat="22.2581146" lon="114.1902799"><ele>225.7</ele></trkpt>
      <trkpt lat="22.2581370" lon="114.1902476"><ele>226.3</ele></trkpt>
      <trkpt lat="22.2581478" lon="114.1902320"><ele>226.6</ele></trkpt>
      <trkpt lat="22.2581847" lon="114.1901873"><ele>227.7</ele></trkpt>
      <trkpt lat="22.2582374" lon="114.1901350"><ele>229.5</ele></trkpt>
      <trkpt lat="22.2582951" lon="114.1900894"><ele>231.8</ele></trkpt>
      <trkpt lat="22.2584776" lon="114.1899566"><ele>238.3</ele></trkpt>
      <trkpt lat="22.2585238" lon="114.1899178"><ele>239.3</ele></trkpt>
      <trkpt lat="22.2585344" lon="114.1899066"><ele>239.5</ele></trkpt>
      <trkpt lat="22.2585657" lon="114.1898735"><ele>240.1</ele></trkpt>
      <trkpt lat="22.2585963" lon="114.1898337"><ele>240.7</ele></trkpt>
      <trkpt lat="22.2586234" lon="114.1897910"><ele>241.2</ele></trkpt>
      <trkpt lat="22.2586948" lon="114.1896321"><ele>242.8</ele></trkpt>
      <trkpt lat="22.2587083" lon="114.1895907"><ele>243.2</ele></trkpt>
      <trkpt lat="22.2587159" lon="114.1895476"><ele>243.4</ele></trkpt>
      <trkpt lat="22.2587175" lon="114.1895100"><ele>243.2</ele></trkpt>
      <trkpt lat="22.2587147" lon="114.1894725"><ele>242.9</ele></trkpt>
      <trkpt lat="22.2586824" lon="114.1892499"><ele>242.2</ele></trkpt>
      <trkpt lat="22.2586688" lon="114.1892110"><ele>242.5</ele></trkpt>
      <trkpt lat="22.2586526" lon="114.1891734"><ele>242.8</ele></trkpt>
      <trkpt lat="22.2586392" lon="114.1891475"><ele>242.9</ele></trkpt>
      <trkpt lat="22.2586345" lon="114.1891385"><ele>243.0</ele></trkpt>
      <trkpt lat="22.2586141" lon="114.1891050"><ele>243.1</ele></trkpt>
      <trkpt lat="22.2584861" lon="114.1889079"><ele>244.8</ele></trkpt>
      <trkpt lat="22.2583311" lon="114.1886692"><ele>248.9</ele></trkpt>
      <trkpt lat="22.2583139" lon="114.1886493"><ele>249.2</ele></trkpt>
      <trkpt lat="22.2582933" lon="114.1886336"><ele>249.3</ele></trkpt>
      <trkpt lat="22.2582645" lon="114.1886211"><ele>249.1</ele></trkpt>
      <trkpt lat="22.2582337" lon="114.1886169"><ele>248.5</ele></trkpt>
      <trkpt lat="22.2581167" lon="114.1886134"><ele>245.6</ele></trkpt>
      <trkpt lat="22.2580581" lon="114.1886075"><ele>243.4</ele></trkpt>
      <trkpt lat="22.2579985" lon="114.1885900"><ele>241.7</ele></trkpt>
      <trkpt lat="22.2578657" lon="114.1885565"><ele>237.7</ele></trkpt>
      <trkpt lat="22.2578247" lon="114.1885337"><ele>236.9</ele></trkpt>
      <trkpt lat="22.2577949" lon="114.1884830"><ele>237.7</ele></trkpt>
      <trkpt lat="22.2577496" lon="114.1883720"><ele>239.9</ele></trkpt>
      <trkpt lat="22.2577230" lon="114.1883299"><ele>240.3</ele></trkpt>
      <trkpt lat="22.2577031" lon="114.1882749"><ele>241.5</ele></trkpt>
      <trkpt lat="22.2576944" lon="114.1882199"><ele>243.1</ele></trkpt>
      <trkpt lat="22.2576808" lon="114.1881730"><ele>244.2</ele></trkpt>
      <trkpt lat="22.2576435" lon="114.1881300"><ele>244.0</ele></trkpt>
      <trkpt lat="22.2576187" lon="114.1880952"><ele>244.2</ele></trkpt>
      <trkpt lat="22.2576050" lon="114.1880469"><ele>245.4</ele></trkpt>
      <trkpt lat="22.2576063" lon="114.1879892"><ele>247.7</ele></trkpt>
      <trkpt lat="22.2575901" lon="114.1879195"><ele>249.5</ele></trkpt>
      <trkpt lat="22.2575581" lon="114.1878761"><ele>249.3</ele></trkpt>
      <trkpt lat="22.2574356" lon="114.1877729"><ele>246.6</ele></trkpt>
      <trkpt lat="22.2573791" lon="114.1877197"><ele>245.4</ele></trkpt>
      <trkpt lat="22.2573605" lon="114.1876861"><ele>245.5</ele></trkpt>
      <trkpt lat="22.2573556" lon="114.1876513"><ele>246.4</ele></trkpt>
      <trkpt lat="22.2573643" lon="114.1876164"><ele>247.9</ele></trkpt>
      <trkpt lat="22.2573859" lon="114.1875825"><ele>250.1</ele></trkpt>
      <trkpt lat="22.2574443" lon="114.1875326"><ele>254.6</ele></trkpt>
      <trkpt lat="22.2574673" lon="114.1874950"><ele>257.0</ele></trkpt>
      <trkpt lat="22.2574757" lon="114.1874534"><ele>258.8</ele></trkpt>
      <trkpt lat="22.2574784" lon="114.1874219"><ele>260.0</ele></trkpt>
      <trkpt lat="22.2574632" lon="114.1873759"><ele>260.9</ele></trkpt>
      <trkpt lat="22.2574325" lon="114.1873455"><ele>260.5</ele></trkpt>
      <trkpt lat="22.2573847" lon="114.1872951"><ele>260.0</ele></trkpt>
      <trkpt lat="22.2573709" lon="114.1872586"><ele>260.7</ele></trkpt>
      <trkpt lat="22.2573622" lon="114.1871791"><ele>263.5</ele></trkpt>
      <trkpt lat="22.2573404" lon="114.1871386"><ele>264.1</ele></trkpt>
      <trkpt lat="22.2572042" lon="114.1869726"><ele>265.1</ele></trkpt>
      <trkpt lat="22.2571393" lon="114.1869113"><ele>265.0</ele></trkpt>
      <trkpt lat="22.2570890" lon="114.1868113"><ele>265.4</ele></trkpt>
      <trkpt lat="22.2570144" lon="114.1867363"><ele>264.0</ele></trkpt>
      <trkpt lat="22.2569829" lon="114.1866612"><ele>264.3</ele></trkpt>
      <trkpt lat="22.2569784" lon="114.1865788"><ele>266.0</ele></trkpt>
      <trkpt lat="22.2569814" lon="114.1864943"><ele>265.6</ele></trkpt>
      <trkpt lat="22.2570047" lon="114.1863914"><ele>266.0</ele></trkpt>
      <trkpt lat="22.2570257" lon="114.1863110"><ele>266.6</ele></trkpt>
      <trkpt lat="22.2570243" lon="114.1862667"><ele>266.2</ele></trkpt>
      <trkpt lat="22.2570334" lon="114.1861842"><ele>265.3</ele></trkpt>
      <trkpt lat="22.2570636" lon="114.1861401"><ele>266.0</ele></trkpt>
      <trkpt lat="22.2571210" lon="114.1861190"><ele>269.0</ele></trkpt>
      <trkpt lat="22.2571664" lon="114.1861205"><ele>271.7</ele></trkpt>
      <trkpt lat="22.2572111" lon="114.1861002"><ele>274.2</ele></trkpt>
      <trkpt lat="22.2573188" lon="114.1860146"><ele>279.9</ele></trkpt>
      <trkpt lat="22.2573561" lon="114.1859543"><ele>281.6</ele></trkpt>
      <trkpt lat="22.2575364" lon="114.1855801"><ele>288.2</ele></trkpt>
      <trkpt lat="22.2576212" lon="114.1851847"><ele>285.5</ele></trkpt>
      <trkpt lat="22.2576645" lon="114.1851048"><ele>286.5</ele></trkpt>
      <trkpt lat="22.2576921" lon="114.1850587"><ele>287.3</ele></trkpt>
      <trkpt lat="22.2577239" lon="114.1850215"><ele>288.6</ele></trkpt>
      <trkpt lat="22.2577372" lon="114.1849869"><ele>288.7</ele></trkpt>
      <trkpt lat="22.2577445" lon="114.1849426"><ele>288.1</ele></trkpt>
      <trkpt lat="22.2577592" lon="114.1849025"><ele>288.1</ele></trkpt>
      <trkpt lat="22.2577796" lon="114.1848709"><ele>288.7</ele></trkpt>
      <trkpt lat="22.2580259" lon="114.1846260"><ele>299.7</ele></trkpt>
      <trkpt lat="22.2580883" lon="114.1845423"><ele>301.6</ele></trkpt>
      <trkpt lat="22.2581220" lon="114.1844378"><ele>301.1</ele></trkpt>
      <trkpt lat="22.2581200" lon="114.1843720"><ele>299.3</ele></trkpt>
      <trkpt lat="22.2581415" lon="114.1843121"><ele>299.0</ele></trkpt>
      <trkpt lat="22.2581947" lon="114.1842308"><ele>300.1</ele></trkpt>
      <trkpt lat="22.2583063" lon="114.1841344"><ele>304.2</ele></trkpt>
      <trkpt lat="22.2583734" lon="114.1839837"><ele>304.6</ele></trkpt>
      <trkpt lat="22.2584252" lon="114.1839212"><ele>306.4</ele></trkpt>
      <trkpt lat="22.2584671" lon="114.1838342"><ele>306.9</ele></trkpt>
      <trkpt lat="22.2584937" lon="114.1837526"><ele>306.2</ele></trkpt>
      <trkpt lat="22.2585061" lon="114.1836006"><ele>302.6</ele></trkpt>
      <trkpt lat="22.2585003" lon="114.1835225"><ele>300.1</ele></trkpt>
      <trkpt lat="22.2584529" lon="114.1834217"><ele>295.0</ele></trkpt>
      <trkpt lat="22.2584511" lon="114.1833875"><ele>294.4</ele></trkpt>
      <trkpt lat="22.2584563" lon="114.1833384"><ele>294.0</ele></trkpt>
      <trkpt lat="22.2585767" lon="114.1830416"><ele>297.6</ele></trkpt>
      <trkpt lat="22.2586095" lon="114.1828468"><ele>298.1</ele></trkpt>
      <trkpt lat="22.2586678" lon="114.1827347"><ele>300.8</ele></trkpt>
      <trkpt lat="22.2586957" lon="114.1826000"><ele>301.7</ele></trkpt>
      <trkpt lat="22.2586929" lon="114.1825426"><ele>301.3</ele></trkpt>
      <trkpt lat="22.2587214" lon="114.1824907"><ele>302.5</ele></trkpt>
      <trkpt lat="22.2587419" lon="114.1824400"><ele>303.3</ele></trkpt>
      <trkpt lat="22.2587438" lon="114.1823250"><ele>303.4</ele></trkpt>
      <trkpt lat="22.2587586" lon="114.1822410"><ele>304.2</ele></trkpt>
      <trkpt lat="22.2587493" lon="114.1822113"><ele>303.7</ele></trkpt>
      <trkpt lat="22.2586837" lon="114.1821174"><ele>301.0</ele></trkpt>
      <trkpt lat="22.2586574" lon="114.1820590"><ele>299.8</ele></trkpt>
      <trkpt lat="22.2586433" lon="114.1819775"><ele>298.9</ele></trkpt>
      <trkpt lat="22.2586502" lon="114.1819489"><ele>299.1</ele></trkpt>
      <trkpt lat="22.2586559" lon="114.1819250"><ele>299.2</ele></trkpt>
      <trkpt lat="22.2587039" lon="114.1818340"><ele>300.5</ele></trkpt>
      <trkpt lat="22.2588418" lon="114.1816943"><ele>304.2</ele></trkpt>
      <trkpt lat="22.2588884" lon="114.1815641"><ele>303.6</ele></trkpt>
      <trkpt lat="22.2589127" lon="114.1814629"><ele>302.7</ele></trkpt>
      <trkpt lat="22.2589324" lon="114.1813935"><ele>302.0</ele></trkpt>
      <trkpt lat="22.2590326" lon="114.1812179"><ele>302.0</ele></trkpt>
      <trkpt lat="22.2590337" lon="114.1811632"><ele>300.4</ele></trkpt>
      <trkpt lat="22.2589632" lon="114.1809348"><ele>289.4</ele></trkpt>
      <trkpt lat="22.2589717" lon="114.1808855"><ele>288.1</ele></trkpt>
      <trkpt lat="22.2589899" lon="114.1808548"><ele>287.8</ele></trkpt>
      <trkpt lat="22.2590182" lon="114.1808276"><ele>288.1</ele></trkpt>
      <trkpt lat="22.2593600" lon="114.1806551"><ele>295.2</ele></trkpt>
      <trkpt lat="22.2595874" lon="114.1804540"><ele>293.9</ele></trkpt>
      <trkpt lat="22.2598325" lon="114.1801705"><ele>287.3</ele></trkpt>
      <trkpt lat="22.2599416" lon="114.1800663"><ele>285.6</ele></trkpt>
      <trkpt lat="22.2600106" lon="114.1799731"><ele>284.0</ele></trkpt>
      <trkpt lat="22.2600744" lon="114.1798970"><ele>282.3</ele></trkpt>
      <trkpt lat="22.2601636" lon="114.1798214"><ele>281.2</ele></trkpt>
      <trkpt lat="22.2602202" lon="114.1797678"><ele>280.6</ele></trkpt>
      <trkpt lat="22.2602769" lon="114.1797066"><ele>280.1</ele></trkpt>
      <trkpt lat="22.2603215" lon="114.1796337"><ele>279.2</ele></trkpt>
      <trkpt lat="22.2605640" lon="114.1794583"><ele>277.3</ele></trkpt>
      <trkpt lat="22.2607227" lon="114.1793411"><ele>276.1</ele></trkpt>
      <trkpt lat="22.2607682" lon="114.1793076"><ele>275.6</ele></trkpt>
      <trkpt lat="22.2608516" lon="114.1792795"><ele>275.3</ele></trkpt>
      <trkpt lat="22.2609488" lon="114.1792539"><ele>275.5</ele></trkpt>
      <trkpt lat="22.2609483" lon="114.1792029"><ele>276.5</ele></trkpt>
      <trkpt lat="22.2609341" lon="114.1791767"><ele>276.9</ele></trkpt>
      <trkpt lat="22.2609206" lon="114.1791536"><ele>277.2</ele></trkpt>
      <trkpt lat="22.2609114" lon="114.1791020"><ele>277.8</ele></trkpt>
      <trkpt lat="22.2608977" lon="114.1790802"><ele>277.9</ele></trkpt>
      <trkpt lat="22.2608633" lon="114.1790391"><ele>277.5</ele></trkpt>
      <trkpt lat="22.2608473" lon="114.1789445"><ele>277.5</ele></trkpt>
      <trkpt lat="22.2609320" lon="114.1787840"><ele>282.2</ele></trkpt>
      <trkpt lat="22.2609320" lon="114.1786280"><ele>283.0</ele></trkpt>
      <trkpt lat="22.2608500" lon="114.1782460"><ele>274.6</ele></trkpt>
      <trkpt lat="22.2609170" lon="114.1781580"><ele>277.3</ele></trkpt>
      <trkpt lat="22.2610070" lon="114.1777520"><ele>277.3</ele></trkpt>
      <trkpt lat="22.2609649" lon="114.1776176"><ele>275.3</ele></trkpt>
      <trkpt lat="22.2609783" lon="114.1774762"><ele>279.4</ele></trkpt>
      <trkpt lat="22.2609760" lon="114.1774394"><ele>280.4</ele></trkpt>
      <trkpt lat="22.2609723" lon="114.1774157"><ele>280.9</ele></trkpt>
      <trkpt lat="22.2609610" lon="114.1774064"><ele>281.0</ele></trkpt>
      <trkpt lat="22.2609269" lon="114.1774078"><ele>280.4</ele></trkpt>
      <trkpt lat="22.2608626" lon="114.1774183"><ele>279.0</ele></trkpt>
      <trkpt lat="22.2608089" lon="114.1774454"><ele>277.1</ele></trkpt>
      <trkpt lat="22.2607668" lon="114.1774519"><ele>276.1</ele></trkpt>
      <trkpt lat="22.2607107" lon="114.1774336"><ele>275.8</ele></trkpt>
      <trkpt lat="22.2606954" lon="114.1774043"><ele>276.8</ele></trkpt>
      <trkpt lat="22.2606776" lon="114.1773883"><ele>277.3</ele></trkpt>
      <trkpt lat="22.2606483" lon="114.1773864"><ele>276.9</ele></trkpt>
      <trkpt lat="22.2606067" lon="114.1773946"><ele>275.8</ele></trkpt>
      <trkpt lat="22.2605009" lon="114.1774352"><ele>271.7</ele></trkpt>
      <trkpt lat="22.2604323" lon="114.1774561"><ele>269.1</ele></trkpt>
      <trkpt lat="22.2603825" lon="114.1774823"><ele>266.4</ele></trkpt>
      <trkpt lat="22.2603270" lon="114.1774967"><ele>264.2</ele></trkpt>
      <trkpt lat="22.2602625" lon="114.1775017"><ele>262.5</ele></trkpt>
      <trkpt lat="22.2601999" lon="114.1774936"><ele>261.6</ele></trkpt>
      <trkpt lat="22.2601691" lon="114.1774759"><ele>262.1</ele></trkpt>
      <trkpt lat="22.2601462" lon="114.1774341"><ele>264.3</ele></trkpt>
      <trkpt lat="22.2601255" lon="114.1774232"><ele>264.5</ele></trkpt>
      <trkpt lat="22.2600596" lon="114.1774489"><ele>261.4</ele></trkpt>
      <trkpt lat="22.2600225" lon="114.1774474"><ele>260.7</ele></trkpt>
      <trkpt lat="22.2599903" lon="114.1774119"><ele>262.0</ele></trkpt>
      <trkpt lat="22.2599613" lon="114.1774038"><ele>261.7</ele></trkpt>
      <trkpt lat="22.2598837" lon="114.1774115"><ele>259.1</ele></trkpt>
      <trkpt lat="22.2598570" lon="114.1774360"><ele>257.1</ele></trkpt>
      <trkpt lat="22.2598346" lon="114.1774173"><ele>257.5</ele></trkpt>
      <trkpt lat="22.2598071" lon="114.1773751"><ele>258.8</ele></trkpt>
      <trkpt lat="22.2597750" lon="114.1773614"><ele>258.5</ele></trkpt>
      <trkpt lat="22.2596813" lon="114.1773524"><ele>256.1</ele></trkpt>
      <trkpt lat="22.2596519" lon="114.1773442"><ele>255.6</ele></trkpt>
      <trkpt lat="22.2595850" lon="114.1772898"><ele>255.6</ele></trkpt>
      <trkpt lat="22.2595379" lon="114.1772955"><ele>253.9</ele></trkpt>
      <trkpt lat="22.2594345" lon="114.1772290"><ele>252.7</ele></trkpt>
      <trkpt lat="22.2594043" lon="114.1771592"><ele>253.7</ele></trkpt>
      <trkpt lat="22.2593782" lon="114.1770056"><ele>257.0</ele></trkpt>
      <trkpt lat="22.2593787" lon="114.1769493"><ele>258.7</ele></trkpt>
      <trkpt lat="22.2593961" lon="114.1768356"><ele>262.9</ele></trkpt>
      <trkpt lat="22.2594084" lon="114.1767915"><ele>264.9</ele></trkpt>
      <trkpt lat="22.2593581" lon="114.1767181"><ele>264.1</ele></trkpt>
      <trkpt lat="22.2593601" lon="114.1766417"><ele>266.3</ele></trkpt>
      <trkpt lat="22.2593470" lon="114.1766247"><ele>266.0</ele></trkpt>
      <trkpt lat="22.2592428" lon="114.1765759"><ele>260.5</ele></trkpt>
      <trkpt lat="22.2592074" lon="114.1764766"><ele>260.2</ele></trkpt>
      <trkpt lat="22.2591455" lon="114.1764314"><ele>257.0</ele></trkpt>
      <trkpt lat="22.2590993" lon="114.1763484"><ele>255.4</ele></trkpt>
      <trkpt lat="22.2590953" lon="114.1762819"><ele>256.4</ele></trkpt>
      <trkpt lat="22.2590733" lon="114.1762279"><ele>256.7</ele></trkpt>
      <trkpt lat="22.2590433" lon="114.1762081"><ele>256.0</ele></trkpt>
      <trkpt lat="22.2590050" lon="114.1761203"><ele>257.5</ele></trkpt>
      <trkpt lat="22.2590094" lon="114.1760154"><ele>261.8</ele></trkpt>
      <trkpt lat="22.2590176" lon="114.1758972"><ele>267.6</ele></trkpt>
      <trkpt lat="22.2590410" lon="114.1758103"><ele>274.0</ele></trkpt>
      <trkpt lat="22.2590436" lon="114.1757982"><ele>274.9</ele></trkpt>
      <trkpt lat="22.2590410" lon="114.1757945"><ele>275.0</ele></trkpt>
      <trkpt lat="22.2590293" lon="114.1757876"><ele>274.9</ele></trkpt>
      <trkpt lat="22.2590252" lon="114.1757723"><ele>275.7</ele></trkpt>
      <trkpt lat="22.2589890" lon="114.1757478"><ele>275.9</ele></trkpt>
      <trkpt lat="22.2589088" lon="114.1757151"><ele>274.9</ele></trkpt>
      <trkpt lat="22.2588585" lon="114.1756890"><ele>274.7</ele></trkpt>
      <trkpt lat="22.2588221" lon="114.1756767"><ele>274.2</ele></trkpt>
      <trkpt lat="22.2587473" lon="114.1756777"><ele>271.3</ele></trkpt>
      <trkpt lat="22.2585199" lon="114.1757553"><ele>258.4</ele></trkpt>
      <trkpt lat="22.2584522" lon="114.1757621"><ele>255.7</ele></trkpt>
      <trkpt lat="22.2583781" lon="114.1757532"><ele>256.0</ele></trkpt>
      <trkpt lat="22.2583082" lon="114.1757190"><ele>258.2</ele></trkpt>
      <trkpt lat="22.2581679" lon="114.1757132"><ele>258.9</ele></trkpt>
      <trkpt lat="22.2581164" lon="114.1757193"><ele>258.7</ele></trkpt>
      <trkpt lat="22.2580536" lon="114.1757621"><ele>257.4</ele></trkpt>
      <trkpt lat="22.2579724" lon="114.1758348"><ele>254.7</ele></trkpt>
      <trkpt lat="22.2579341" lon="114.1758523"><ele>254.4</ele></trkpt>
      <trkpt lat="22.2578682" lon="114.1758576"><ele>255.1</ele></trkpt>
      <trkpt lat="22.2578258" lon="114.1758526"><ele>256.1</ele></trkpt>
      <trkpt lat="22.2577855" lon="114.1758243"><ele>258.1</ele></trkpt>
      <trkpt lat="22.2577540" lon="114.1757800"><ele>260.6</ele></trkpt>
      <trkpt lat="22.2577249" lon="114.1757726"><ele>260.9</ele></trkpt>
      <trkpt lat="22.2576383" lon="114.1758061"><ele>258.6</ele></trkpt>
      <trkpt lat="22.2575706" lon="114.1757966"><ele>258.9</ele></trkpt>
      <trkpt lat="22.2574790" lon="114.1758096"><ele>257.6</ele></trkpt>
      <trkpt lat="22.2573986" lon="114.1758330"><ele>255.1</ele></trkpt>
      <trkpt lat="22.2573377" lon="114.1758949"><ele>250.7</ele></trkpt>
      <trkpt lat="22.2572750" lon="114.1759201"><ele>248.6</ele></trkpt>
      <trkpt lat="22.2571595" lon="114.1759980"><ele>242.2</ele></trkpt>
      <trkpt lat="22.2571188" lon="114.1759904"><ele>242.6</ele></trkpt>
      <trkpt lat="22.2570717" lon="114.1759655"><ele>243.9</ele></trkpt>
      <trkpt lat="22.2570044" lon="114.1759378"><ele>245.0</ele></trkpt>
      <trkpt lat="22.2569664" lon="114.1759400"><ele>244.6</ele></trkpt>
      <trkpt lat="22.2569194" lon="114.1759520"><ele>243.6</ele></trkpt>
      <trkpt lat="22.2568282" lon="114.1760039"><ele>240.3</ele></trkpt>
      <trkpt lat="22.2567417" lon="114.1760368"><ele>237.4</ele></trkpt>
      <trkpt lat="22.2567156" lon="114.1760399"><ele>236.8</ele></trkpt>
      <trkpt lat="22.2566892" lon="114.1760481"><ele>236.0</ele></trkpt>
      <trkpt lat="22.2566536" lon="114.1760275"><ele>236.0</ele></trkpt>
      <trkpt lat="22.2566179" lon="114.1759939"><ele>236.3</ele></trkpt>
      <trkpt lat="22.2565929" lon="114.1759575"><ele>236.8</ele></trkpt>
      <trkpt lat="22.2565379" lon="114.1757864"><ele>236.6</ele></trkpt>
      <trkpt lat="22.2565676" lon="114.1757036"><ele>238.1</ele></trkpt>
      <trkpt lat="22.2566404" lon="114.1755540"><ele>241.5</ele></trkpt>
      <trkpt lat="22.2566858" lon="114.1754546"><ele>242.0</ele></trkpt>
      <trkpt lat="22.2567706" lon="114.1754111"><ele>245.5</ele></trkpt>
      <trkpt lat="22.2568751" lon="114.1753355"><ele>249.6</ele></trkpt>
      <trkpt lat="22.2569417" lon="114.1752356"><ele>251.7</ele></trkpt>
      <trkpt lat="22.2569909" lon="114.1751090"><ele>249.7</ele></trkpt>
      <trkpt lat="22.2571184" lon="114.1749218"><ele>250.0</ele></trkpt>
      <trkpt lat="22.2575210" lon="114.1743850"><ele>253.6</ele></trkpt>
      <trkpt lat="22.2577941" lon="114.1740880"><ele>255.6</ele></trkpt>
      <trkpt lat="22.2580620" lon="114.1737917"><ele>250.5</ele></trkpt>
      <trkpt lat="22.2581373" lon="114.1737231"><ele>250.8</ele></trkpt>
      <trkpt lat="22.2582155" lon="114.1736818"><ele>253.8</ele></trkpt>
      <trkpt lat="22.2583122" lon="114.1735768"><ele>256.3</ele></trkpt>
      <trkpt lat="22.2583243" lon="114.1735498"><ele>256.2</ele></trkpt>
      <trkpt lat="22.2583279" lon="114.1735158"><ele>255.4</ele></trkpt>
      <trkpt lat="22.2583157" lon="114.1734630"><ele>253.3</ele></trkpt>
      <trkpt lat="22.2583130" lon="114.1734358"><ele>252.5</ele></trkpt>
      <trkpt lat="22.2583206" lon="114.1733720"><ele>251.6</ele></trkpt>
      <trkpt lat="22.2583385" lon="114.1733360"><ele>252.3</ele></trkpt>
      <trkpt lat="22.2583592" lon="114.1733071"><ele>253.4</ele></trkpt>
      <trkpt lat="22.2583916" lon="114.1732736"><ele>255.5</ele></trkpt>
      <trkpt lat="22.2584016" lon="114.1732438"><ele>255.8</ele></trkpt>
      <trkpt lat="22.2584057" lon="114.1732019"><ele>255.4</ele></trkpt>
      <trkpt lat="22.2584004" lon="114.1731813"><ele>254.5</ele></trkpt>
      <trkpt lat="22.2583967" lon="114.1731041"><ele>252.0</ele></trkpt>
      <trkpt lat="22.2584231" lon="114.1730367"><ele>252.4</ele></trkpt>
      <trkpt lat="22.2583821" lon="114.1729068"><ele>245.1</ele></trkpt>
      <trkpt lat="22.2583865" lon="114.1728038"><ele>242.7</ele></trkpt>
      <trkpt lat="22.2584114" lon="114.1726810"><ele>241.7</ele></trkpt>
      <trkpt lat="22.2584552" lon="114.1725494"><ele>241.8</ele></trkpt>
      <trkpt lat="22.2585334" lon="114.1723729"><ele>243.7</ele></trkpt>
      <trkpt lat="22.2587520" lon="114.1719730"><ele>250.5</ele></trkpt>
      <trkpt lat="22.2588770" lon="114.1717920"><ele>254.5</ele></trkpt>
      <trkpt lat="22.2589555" lon="114.1717039"><ele>256.6</ele></trkpt>
      <trkpt lat="22.2590410" lon="114.1715711"><ele>256.5</ele></trkpt>
      <trkpt lat="22.2590971" lon="114.1715191"><ele>257.2</ele></trkpt>
      <trkpt lat="22.2591718" lon="114.1714679"><ele>258.1</ele></trkpt>
      <trkpt lat="22.2592464" lon="114.1714312"><ele>259.4</ele></trkpt>
      <trkpt lat="22.2592971" lon="114.1713689"><ele>258.4</ele></trkpt>
      <trkpt lat="22.2593854" lon="114.1712253"><ele>254.2</ele></trkpt>
      <trkpt lat="22.2594457" lon="114.1711520"><ele>251.7</ele></trkpt>
      <trkpt lat="22.2594095" lon="114.1711427"><ele>250.4</ele></trkpt>
      <trkpt lat="22.2593460" lon="114.1711409"><ele>248.6</ele></trkpt>
      <trkpt lat="22.2592908" lon="114.1711094"><ele>245.7</ele></trkpt>
      <trkpt lat="22.2592682" lon="114.1710729"><ele>244.0</ele></trkpt>
      <trkpt lat="22.2592594" lon="114.1710216"><ele>242.3</ele></trkpt>
      <trkpt lat="22.2592636" lon="114.1708903"><ele>238.5</ele></trkpt>
      <trkpt lat="22.2592064" lon="114.1707134"><ele>233.3</ele></trkpt>
      <trkpt lat="22.2591687" lon="114.1706884"><ele>232.6</ele></trkpt>
      <trkpt lat="22.2590856" lon="114.1706872"><ele>232.2</ele></trkpt>
      <trkpt lat="22.2590062" lon="114.1706929"><ele>231.3</ele></trkpt>
      <trkpt lat="22.2589437" lon="114.1707199"><ele>230.9</ele></trkpt>
      <trkpt lat="22.2588407" lon="114.1707880"><ele>230.4</ele></trkpt>
      <trkpt lat="22.2588408" lon="114.1707210"><ele>229.5</ele></trkpt>
      <trkpt lat="22.2588769" lon="114.1706753"><ele>229.3</ele></trkpt>
      <trkpt lat="22.2589159" lon="114.1706581"><ele>229.6</ele></trkpt>
      <trkpt lat="22.2589814" lon="114.1706042"><ele>229.4</ele></trkpt>
      <trkpt lat="22.2590244" lon="114.1705625"><ele>229.1</ele></trkpt>
      <trkpt lat="22.2590001" lon="114.1705208"><ele>228.1</ele></trkpt>
      <trkpt lat="22.2589645" lon="114.1705142"><ele>227.7</ele></trkpt>
      <trkpt lat="22.2587985" lon="114.1705342"><ele>226.5</ele></trkpt>
      <trkpt lat="22.2586640" lon="114.1705890"><ele>224.0</ele></trkpt>
      <trkpt lat="22.2585347" lon="114.1706918"><ele>221.2</ele></trkpt>
      <trkpt lat="22.2584513" lon="114.1706918"><ele>218.6</ele></trkpt>
      <trkpt lat="22.2584293" lon="114.1706925"><ele>218.0</ele></trkpt>
      <trkpt lat="22.2584052" lon="114.1706944"><ele>217.3</ele></trkpt>
      <trkpt lat="22.2583904" lon="114.1706966"><ele>216.9</ele></trkpt>
      <trkpt lat="22.2583761" lon="114.1707010"><ele>216.5</ele></trkpt>
      <trkpt lat="22.2583634" lon="114.1707062"><ele>216.1</ele></trkpt>
      <trkpt lat="22.2583519" lon="114.1707124"><ele>215.9</ele></trkpt>
      <trkpt lat="22.2583409" lon="114.1707197"><ele>215.6</ele></trkpt>
      <trkpt lat="22.2583281" lon="114.1707307"><ele>215.4</ele></trkpt>
      <trkpt lat="22.2583067" lon="114.1707519"><ele>215.0</ele></trkpt>
      <trkpt lat="22.2582799" lon="114.1707806"><ele>214.5</ele></trkpt>
      <trkpt lat="22.2582582" lon="114.1708067"><ele>214.0</ele></trkpt>
      <trkpt lat="22.2582316" lon="114.1708414"><ele>213.5</ele></trkpt>
      <trkpt lat="22.2582169" lon="114.1708633"><ele>213.2</ele></trkpt>
      <trkpt lat="22.2582038" lon="114.1708848"><ele>212.9</ele></trkpt>
      <trkpt lat="22.2581917" lon="114.1709075"><ele>212.7</ele></trkpt>
      <trkpt lat="22.2581834" lon="114.1709254"><ele>212.6</ele></trkpt>
      <trkpt lat="22.2581768" lon="114.1709439"><ele>212.5</ele></trkpt>
      <trkpt lat="22.2581718" lon="114.1709625"><ele>212.4</ele></trkpt>
      <trkpt lat="22.2581631" lon="114.1710024"><ele>212.4</ele></trkpt>
      <trkpt lat="22.2581557" lon="114.1710241"><ele>212.3</ele></trkpt>
      <trkpt lat="22.2581463" lon="114.1710439"><ele>212.2</ele></trkpt>
      <trkpt lat="22.2581286" lon="114.1710726"><ele>211.9</ele></trkpt>
      <trkpt lat="22.2581061" lon="114.1711037"><ele>211.5</ele></trkpt>
      <trkpt lat="22.2580546" lon="114.1711689"><ele>209.9</ele></trkpt>
      <trkpt lat="22.2580360" lon="114.1711897"><ele>209.2</ele></trkpt>
      <trkpt lat="22.2580182" lon="114.1712065"><ele>208.6</ele></trkpt>
      <trkpt lat="22.2579974" lon="114.1712221"><ele>207.8</ele></trkpt>
      <trkpt lat="22.2579742" lon="114.1712360"><ele>207.1</ele></trkpt>
      <trkpt lat="22.2579461" lon="114.1712494"><ele>206.1</ele></trkpt>
      <trkpt lat="22.2579190" lon="114.1712591"><ele>205.3</ele></trkpt>
      <trkpt lat="22.2578961" lon="114.1712649"><ele>204.5</ele></trkpt>
      <trkpt lat="22.2576893" lon="114.1712983"><ele>197.2</ele></trkpt>
      <trkpt lat="22.2576707" lon="114.1712996"><ele>196.5</ele></trkpt>
      <trkpt lat="22.2576516" lon="114.1712998"><ele>195.8</ele></trkpt>
      <trkpt lat="22.2576282" lon="114.1712978"><ele>194.9</ele></trkpt>
      <trkpt lat="22.2576129" lon="114.1712952"><ele>194.3</ele></trkpt>
      <trkpt lat="22.2575973" lon="114.1712915"><ele>193.8</ele></trkpt>
      <trkpt lat="22.2575857" lon="114.1712879"><ele>193.3</ele></trkpt>
      <trkpt lat="22.2575485" lon="114.1712744"><ele>191.9</ele></trkpt>
      <trkpt lat="22.2575289" lon="114.1712680"><ele>191.1</ele></trkpt>
      <trkpt lat="22.2575087" lon="114.1712624"><ele>190.3</ele></trkpt>
      <trkpt lat="22.2574876" lon="114.1712571"><ele>189.5</ele></trkpt>
      <trkpt lat="22.2574637" lon="114.1712527"><ele>188.5</ele></trkpt>
      <trkpt lat="22.2574484" lon="114.1712516"><ele>187.9</ele></trkpt>
      <trkpt lat="22.2574302" lon="114.1712533"><ele>187.1</ele></trkpt>
      <trkpt lat="22.2574158" lon="114.1712580"><ele>186.6</ele></trkpt>
      <trkpt lat="22.2574019" lon="114.1712644"><ele>186.0</ele></trkpt>
      <trkpt lat="22.2573885" lon="114.1712734"><ele>185.6</ele></trkpt>
      <trkpt lat="22.2573719" lon="114.1712886"><ele>185.0</ele></trkpt>
      <trkpt lat="22.2573560" lon="114.1713060"><ele>184.5</ele></trkpt>
      <trkpt lat="22.2573414" lon="114.1713238"><ele>184.1</ele></trkpt>
      <trkpt lat="22.2573085" lon="114.1713668"><ele>183.4</ele></trkpt>
      <trkpt lat="22.2572951" lon="114.1713873"><ele>183.1</ele></trkpt>
      <trkpt lat="22.2572868" lon="114.1714020"><ele>183.0</ele></trkpt>
      <trkpt lat="22.2572792" lon="114.1714188"><ele>182.9</ele></trkpt>
      <trkpt lat="22.2572726" lon="114.1714383"><ele>183.0</ele></trkpt>
      <trkpt lat="22.2572507" lon="114.1715145"><ele>182.5</ele></trkpt>
      <trkpt lat="22.2572428" lon="114.1715382"><ele>182.2</ele></trkpt>
      <trkpt lat="22.2572336" lon="114.1715601"><ele>181.9</ele></trkpt>
      <trkpt lat="22.2572239" lon="114.1715794"><ele>181.6</ele></trkpt>
      <trkpt lat="22.2572134" lon="114.1715977"><ele>181.2</ele></trkpt>
      <trkpt lat="22.2571996" lon="114.1716162"><ele>180.8</ele></trkpt>
      <trkpt lat="22.2571876" lon="114.1716293"><ele>180.5</ele></trkpt>
      <trkpt lat="22.2571712" lon="114.1716435"><ele>180.1</ele></trkpt>
      <trkpt lat="22.2571534" lon="114.1716561"><ele>179.6</ele></trkpt>
      <trkpt lat="22.2571326" lon="114.1716678"><ele>178.9</ele></trkpt>
      <trkpt lat="22.2571082" lon="114.1716797"><ele>178.1</ele></trkpt>
      <trkpt lat="22.2570246" lon="114.1717143"><ele>175.6</ele></trkpt>
      <trkpt lat="22.2569945" lon="114.1717285"><ele>174.7</ele></trkpt>
      <trkpt lat="22.2569483" lon="114.1717531"><ele>173.5</ele></trkpt>
      <trkpt lat="22.2568787" lon="114.1717927"><ele>171.7</ele></trkpt>
      <trkpt lat="22.2568665" lon="114.1717968"><ele>171.4</ele></trkpt>
      <trkpt lat="22.2568566" lon="114.1717970"><ele>171.1</ele></trkpt>
      <trkpt lat="22.2568465" lon="114.1717943"><ele>170.8</ele></trkpt>
      <trkpt lat="22.2568369" lon="114.1717891"><ele>170.3</ele></trkpt>
      <trkpt lat="22.2568293" lon="114.1717800"><ele>169.9</ele></trkpt>
      <trkpt lat="22.2568244" lon="114.1717670"><ele>169.6</ele></trkpt>
      <trkpt lat="22.2568206" lon="114.1717478"><ele>169.3</ele></trkpt>
      <trkpt lat="22.2568212" lon="114.1717253"><ele>169.2</ele></trkpt>
      <trkpt lat="22.2568242" lon="114.1717068"><ele>169.1</ele></trkpt>
      <trkpt lat="22.2568292" lon="114.1716871"><ele>169.2</ele></trkpt>
      <trkpt lat="22.2568362" lon="114.1716710"><ele>169.3</ele></trkpt>
      <trkpt lat="22.2568456" lon="114.1716566"><ele>169.5</ele></trkpt>
      <trkpt lat="22.2568572" lon="114.1716440"><ele>169.8</ele></trkpt>
      <trkpt lat="22.2568703" lon="114.1716335"><ele>170.2</ele></trkpt>
      <trkpt lat="22.2568851" lon="114.1716234"><ele>170.6</ele></trkpt>
      <trkpt lat="22.2569007" lon="114.1716154"><ele>171.0</ele></trkpt>
      <trkpt lat="22.2569229" lon="114.1716064"><ele>171.7</ele></trkpt>
      <trkpt lat="22.2569345" lon="114.1716007"><ele>172.1</ele></trkpt>
      <trkpt lat="22.2569450" lon="114.1715932"><ele>172.4</ele></trkpt>
      <trkpt lat="22.2569588" lon="114.1715806"><ele>172.8</ele></trkpt>
      <trkpt lat="22.2569704" lon="114.1715665"><ele>173.1</ele></trkpt>
      <trkpt lat="22.2569784" lon="114.1715525"><ele>173.3</ele></trkpt>
      <trkpt lat="22.2569851" lon="114.1715370"><ele>173.5</ele></trkpt>
      <trkpt lat="22.2569895" lon="114.1715215"><ele>173.6</ele></trkpt>
      <trkpt lat="22.2569921" lon="114.1715030"><ele>173.6</ele></trkpt>
      <trkpt lat="22.2569925" lon="114.1714819"><ele>173.5</ele></trkpt>
      <trkpt lat="22.2569911" lon="114.1714485"><ele>173.0</ele></trkpt>
      <trkpt lat="22.2569919" lon="114.1714271"><ele>172.6</ele></trkpt>
      <trkpt lat="22.2570020" lon="114.1713471"><ele>171.3</ele></trkpt>
      <trkpt lat="22.2570025" lon="114.1713380"><ele>171.2</ele></trkpt>
      <trkpt lat="22.2570018" lon="114.1713301"><ele>171.0</ele></trkpt>
      <trkpt lat="22.2569996" lon="114.1713237"><ele>170.7</ele></trkpt>
      <trkpt lat="22.2569964" lon="114.1713191"><ele>170.5</ele></trkpt>
      <trkpt lat="22.2569900" lon="114.1713149"><ele>170.2</ele></trkpt>
      <trkpt lat="22.2569805" lon="114.1713129"><ele>169.7</ele></trkpt>
      <trkpt lat="22.2569723" lon="114.1713143"><ele>169.4</ele></trkpt>
      <trkpt lat="22.2569640" lon="114.1713181"><ele>169.2</ele></trkpt>
      <trkpt lat="22.2569571" lon="114.1713241"><ele>169.0</ele></trkpt>
      <trkpt lat="22.2569512" lon="114.1713328"><ele>169.0</ele></trkpt>
      <trkpt lat="22.2569463" lon="114.1713430"><ele>169.0</ele></trkpt>
      <trkpt lat="22.2569357" lon="114.1713702"><ele>169.2</ele></trkpt>
      <trkpt lat="22.2569250" lon="114.1714023"><ele>169.5</ele></trkpt>
      <trkpt lat="22.2569105" lon="114.1714512"><ele>170.0</ele></trkpt>
      <trkpt lat="22.2569031" lon="114.1714672"><ele>170.0</ele></trkpt>
      <trkpt lat="22.2568944" lon="114.1714791"><ele>169.8</ele></trkpt>
      <trkpt lat="22.2568853" lon="114.1714875"><ele>169.5</ele></trkpt>
      <trkpt lat="22.2568748" lon="114.1714935"><ele>169.2</ele></trkpt>
      <trkpt lat="22.2568635" lon="114.1714974"><ele>168.8</ele></trkpt>
      <trkpt lat="22.2568498" lon="114.1714995"><ele>168.3</ele></trkpt>
      <trkpt lat="22.2568340" lon="114.1715005"><ele>167.8</ele></trkpt>
      <trkpt lat="22.2568122" lon="114.1715001"><ele>167.0</ele></trkpt>
      <trkpt lat="22.2567905" lon="114.1714982"><ele>166.2</ele></trkpt>
      <trkpt lat="22.2567586" lon="114.1714940"><ele>165.1</ele></trkpt>
      <trkpt lat="22.2567361" lon="114.1714923"><ele>164.3</ele></trkpt>
      <trkpt lat="22.2567089" lon="114.1714921"><ele>163.3</ele></trkpt>
      <trkpt lat="22.2566880" lon="114.1714930"><ele>162.6</ele></trkpt>
      <trkpt lat="22.2566734" lon="114.1714957"><ele>162.1</ele></trkpt>
      <trkpt lat="22.2566619" lon="114.1714994"><ele>161.7</ele></trkpt>
      <trkpt lat="22.2566495" lon="114.1715058"><ele>161.3</ele></trkpt>
      <trkpt lat="22.2566359" lon="114.1715148"><ele>160.8</ele></trkpt>
      <trkpt lat="22.2566180" lon="114.1715295"><ele>160.3</ele></trkpt>
      <trkpt lat="22.2565994" lon="114.1715464"><ele>159.7</ele></trkpt>
      <trkpt lat="22.2565813" lon="114.1715646"><ele>159.1</ele></trkpt>
      <trkpt lat="22.2565656" lon="114.1715822"><ele>158.6</ele></trkpt>
      <trkpt lat="22.2565547" lon="114.1715965"><ele>158.2</ele></trkpt>
      <trkpt lat="22.2565449" lon="114.1716114"><ele>157.9</ele></trkpt>
      <trkpt lat="22.2565382" lon="114.1716244"><ele>157.7</ele></trkpt>
      <trkpt lat="22.2565324" lon="114.1716393"><ele>157.5</ele></trkpt>
      <trkpt lat="22.2565265" lon="114.1716574"><ele>157.3</ele></trkpt>
      <trkpt lat="22.2565218" lon="114.1716762"><ele>157.2</ele></trkpt>
      <trkpt lat="22.2565181" lon="114.1716984"><ele>157.1</ele></trkpt>
      <trkpt lat="22.2565156" lon="114.1717213"><ele>157.1</ele></trkpt>
      <trkpt lat="22.2565147" lon="114.1717452"><ele>157.1</ele></trkpt>
      <trkpt lat="22.2565138" lon="114.1717567"><ele>157.1</ele></trkpt>
      <trkpt lat="22.2565117" lon="114.1717678"><ele>157.0</ele></trkpt>
      <trkpt lat="22.2565074" lon="114.1717800"><ele>156.9</ele></trkpt>
      <trkpt lat="22.2565005" lon="114.1717936"><ele>156.6</ele></trkpt>
      <trkpt lat="22.2564916" lon="114.1718068"><ele>156.2</ele></trkpt>
      <trkpt lat="22.2564820" lon="114.1718180"><ele>155.8</ele></trkpt>
      <trkpt lat="22.2564599" lon="114.1718410"><ele>154.6</ele></trkpt>
      <trkpt lat="22.2564444" lon="114.1718588"><ele>153.9</ele></trkpt>
      <trkpt lat="22.2564308" lon="114.1718761"><ele>153.2</ele></trkpt>
      <trkpt lat="22.2564148" lon="114.1718980"><ele>152.4</ele></trkpt>
      <trkpt lat="22.2564043" lon="114.1719134"><ele>151.9</ele></trkpt>
      <trkpt lat="22.2563827" lon="114.1719473"><ele>150.8</ele></trkpt>
      <trkpt lat="22.2563671" lon="114.1719693"><ele>150.1</ele></trkpt>
      <trkpt lat="22.2563507" lon="114.1719908"><ele>149.4</ele></trkpt>
      <trkpt lat="22.2563313" lon="114.1720136"><ele>148.5</ele></trkpt>
      <trkpt lat="22.2563133" lon="114.1720312"><ele>147.8</ele></trkpt>
      <trkpt lat="22.2562968" lon="114.1720452"><ele>147.1</ele></trkpt>
      <trkpt lat="22.2562769" lon="114.1720600"><ele>146.4</ele></trkpt>
      <trkpt lat="22.2562574" lon="114.1720725"><ele>145.6</ele></trkpt>
      <trkpt lat="22.2562167" lon="114.1720952"><ele>144.1</ele></trkpt>
      <trkpt lat="22.2561984" lon="114.1721071"><ele>143.7</ele></trkpt>
      <trkpt lat="22.2561831" lon="114.1721179"><ele>143.5</ele></trkpt>
      <trkpt lat="22.2561647" lon="114.1721325"><ele>143.2</ele></trkpt>
      <trkpt lat="22.2561485" lon="114.1721468"><ele>143.0</ele></trkpt>
      <trkpt lat="22.2561328" lon="114.1721626"><ele>142.7</ele></trkpt>
      <trkpt lat="22.2561176" lon="114.1721802"><ele>142.4</ele></trkpt>
      <trkpt lat="22.2561042" lon="114.1721973"><ele>142.1</ele></trkpt>
      <trkpt lat="22.2559840" lon="114.1723720"><ele>139.3</ele></trkpt>
      <trkpt lat="22.2559460" lon="114.1725360"><ele>137.4</ele></trkpt>
      <trkpt lat="22.2559084" lon="114.1727556"><ele>133.6</ele></trkpt>
      <trkpt lat="22.2558690" lon="114.1727640"><ele>132.6</ele></trkpt>
      <trkpt lat="22.2558276" lon="114.1727627"><ele>131.8</ele></trkpt>
      <trkpt lat="22.2558058" lon="114.1727812"><ele>131.1</ele></trkpt>
      <trkpt lat="22.2557869" lon="114.1727973"><ele>130.4</ele></trkpt>
      <trkpt lat="22.2556770" lon="114.1727711"><ele>128.7</ele></trkpt>
      <trkpt lat="22.2552203" lon="114.1728181"><ele>122.8</ele></trkpt>
      <trkpt lat="22.2548017" lon="114.1729351"><ele>120.0</ele></trkpt>
      <trkpt lat="22.2545756" lon="114.1729023"><ele>120.1</ele></trkpt>
      <trkpt lat="22.2545476" lon="114.1728986"><ele>120.3</ele></trkpt>
      <trkpt lat="22.2544686" lon="114.1728900"><ele>120.8</ele></trkpt>
      <trkpt lat="22.2544474" lon="114.1728880"><ele>120.9</ele></trkpt>
      <trkpt lat="22.2543626" lon="114.1728822"><ele>121.3</ele></trkpt>
      <trkpt lat="22.2543529" lon="114.1728810"><ele>121.3</ele></trkpt>
      <trkpt lat="22.2543316" lon="114.1728770"><ele>121.5</ele></trkpt>
      <trkpt lat="22.2542684" lon="114.1728636"><ele>121.9</ele></trkpt>
      <trkpt lat="22.2542552" lon="114.1728602"><ele>121.9</ele></trkpt>
      <trkpt lat="22.2542431" lon="114.1728566"><ele>122.0</ele></trkpt>
      <trkpt lat="22.2542297" lon="114.1728521"><ele>122.1</ele></trkpt>
      <trkpt lat="22.2542167" lon="114.1728470"><ele>122.2</ele></trkpt>
      <trkpt lat="22.2542071" lon="114.1728429"><ele>122.3</ele></trkpt>
      <trkpt lat="22.2541984" lon="114.1728387"><ele>122.3</ele></trkpt>
      <trkpt lat="22.2541916" lon="114.1728346"><ele>122.3</ele></trkpt>
      <trkpt lat="22.2541850" lon="114.1728297"><ele>122.3</ele></trkpt>
      <trkpt lat="22.2541785" lon="114.1728237"><ele>122.4</ele></trkpt>
      <trkpt lat="22.2541724" lon="114.1728172"><ele>122.4</ele></trkpt>
      <trkpt lat="22.2541662" lon="114.1728091"><ele>122.4</ele></trkpt>
      <trkpt lat="22.2541604" lon="114.1727999"><ele>122.5</ele></trkpt>
      <trkpt lat="22.2541558" lon="114.1727910"><ele>122.5</ele></trkpt>
      <trkpt lat="22.2541522" lon="114.1727824"><ele>122.5</ele></trkpt>
      <trkpt lat="22.2541490" lon="114.1727734"><ele>122.6</ele></trkpt>
      <trkpt lat="22.2541464" lon="114.1727638"><ele>122.6</ele></trkpt>
      <trkpt lat="22.2541445" lon="114.1727538"><ele>122.7</ele></trkpt>
      <trkpt lat="22.2541436" lon="114.1727472"><ele>122.8</ele></trkpt>
      <trkpt lat="22.2541422" lon="114.1727314"><ele>122.9</ele></trkpt>
      <trkpt lat="22.2541417" lon="114.1727118"><ele>123.0</ele></trkpt>
      <trkpt lat="22.2541420" lon="114.1727011"><ele>123.1</ele></trkpt>
      <trkpt lat="22.2541432" lon="114.1726885"><ele>123.3</ele></trkpt>
      <trkpt lat="22.2541450" lon="114.1726743"><ele>123.4</ele></trkpt>
      <trkpt lat="22.2541481" lon="114.1726582"><ele>123.6</ele></trkpt>
      <trkpt lat="22.2541505" lon="114.1726476"><ele>123.7</ele></trkpt>
      <trkpt lat="22.2541530" lon="114.1726387"><ele>123.8</ele></trkpt>
      <trkpt lat="22.2541567" lon="114.1726275"><ele>124.0</ele></trkpt>
      <trkpt lat="22.2541615" lon="114.1726157"><ele>124.2</ele></trkpt>
      <trkpt lat="22.2541657" lon="114.1726068"><ele>124.4</ele></trkpt>
      <trkpt lat="22.2541704" lon="114.1725984"><ele>124.5</ele></trkpt>
      <trkpt lat="22.2541768" lon="114.1725886"><ele>124.8</ele></trkpt>
      <trkpt lat="22.2541902" lon="114.1725718"><ele>125.2</ele></trkpt>
      <trkpt lat="22.2542058" lon="114.1725539"><ele>125.8</ele></trkpt>
      <trkpt lat="22.2542149" lon="114.1725449"><ele>126.1</ele></trkpt>
      <trkpt lat="22.2542232" lon="114.1725373"><ele>126.4</ele></trkpt>
      <trkpt lat="22.2542348" lon="114.1725278"><ele>126.8</ele></trkpt>
      <trkpt lat="22.2542459" lon="114.1725198"><ele>127.1</ele></trkpt>
      <trkpt lat="22.2542552" lon="114.1725134"><ele>127.4</ele></trkpt>
      <trkpt lat="22.2542828" lon="114.1724963"><ele>128.4</ele></trkpt>
      <trkpt lat="22.2542899" lon="114.1724910"><ele>128.5</ele></trkpt>
      <trkpt lat="22.2542965" lon="114.1724853"><ele>128.6</ele></trkpt>
      <trkpt lat="22.2543049" lon="114.1724771"><ele>128.7</ele></trkpt>
      <trkpt lat="22.2543158" lon="114.1724656"><ele>128.6</ele></trkpt>
      <trkpt lat="22.2543215" lon="114.1724585"><ele>128.6</ele></trkpt>
      <trkpt lat="22.2543268" lon="114.1724509"><ele>128.6</ele></trkpt>
      <trkpt lat="22.2543366" lon="114.1724352"><ele>128.5</ele></trkpt>
      <trkpt lat="22.2543433" lon="114.1724255"><ele>128.4</ele></trkpt>
      <trkpt lat="22.2543524" lon="114.1724139"><ele>128.4</ele></trkpt>
      <trkpt lat="22.2543705" lon="114.1723928"><ele>128.4</ele></trkpt>
      <trkpt lat="22.2543821" lon="114.1723809"><ele>128.5</ele></trkpt>
      <trkpt lat="22.2543951" lon="114.1723686"><ele>128.6</ele></trkpt>
      <trkpt lat="22.2544053" lon="114.1723597"><ele>128.7</ele></trkpt>
      <trkpt lat="22.2544163" lon="114.1723509"><ele>128.8</ele></trkpt>
      <trkpt lat="22.2544294" lon="114.1723416"><ele>128.9</ele></trkpt>
      <trkpt lat="22.2544417" lon="114.1723338"><ele>129.1</ele></trkpt>
      <trkpt lat="22.2544547" lon="114.1723260"><ele>129.3</ele></trkpt>
      <trkpt lat="22.2544699" lon="114.1723180"><ele>129.5</ele></trkpt>
      <trkpt lat="22.2544826" lon="114.1723118"><ele>129.7</ele></trkpt>
      <trkpt lat="22.2544979" lon="114.1723050"><ele>130.0</ele></trkpt>
      <trkpt lat="22.2545227" lon="114.1722957"><ele>130.5</ele></trkpt>
      <trkpt lat="22.2545357" lon="114.1722914"><ele>130.7</ele></trkpt>
      <trkpt lat="22.2545468" lon="114.1722880"><ele>131.0</ele></trkpt>
      <trkpt lat="22.2546329" lon="114.1722651"><ele>132.8</ele></trkpt>
      <trkpt lat="22.2546704" lon="114.1722531"><ele>133.4</ele></trkpt>
      <trkpt lat="22.2546830" lon="114.1722486"><ele>133.6</ele></trkpt>
      <trkpt lat="22.2546999" lon="114.1722413"><ele>133.9</ele></trkpt>
      <trkpt lat="22.2547520" lon="114.1722157"><ele>134.9</ele></trkpt>
      <trkpt lat="22.2548410" lon="114.1721655"><ele>136.9</ele></trkpt>
      <trkpt lat="22.2548509" lon="114.1721604"><ele>137.2</ele></trkpt>
      <trkpt lat="22.2549125" lon="114.1721314"><ele>137.8</ele></trkpt>
      <trkpt lat="22.2549341" lon="114.1721205"><ele>138.0</ele></trkpt>
      <trkpt lat="22.2549418" lon="114.1721160"><ele>138.0</ele></trkpt>
      <trkpt lat="22.2549565" lon="114.1721066"><ele>137.8</ele></trkpt>
      <trkpt lat="22.2549644" lon="114.1721025"><ele>137.7</ele></trkpt>
      <trkpt lat="22.2549719" lon="114.1720995"><ele>137.6</ele></trkpt>
      <trkpt lat="22.2549803" lon="114.1720971"><ele>137.6</ele></trkpt>
      <trkpt lat="22.2549898" lon="114.1720952"><ele>137.5</ele></trkpt>
      <trkpt lat="22.2550060" lon="114.1720940"><ele>137.5</ele></trkpt>
      <trkpt lat="22.2550181" lon="114.1720945"><ele>137.5</ele></trkpt>
      <trkpt lat="22.2550325" lon="114.1720964"><ele>137.6</ele></trkpt>
      <trkpt lat="22.2550856" lon="114.1721069"><ele>137.9</ele></trkpt>
      <trkpt lat="22.2550964" lon="114.1721085"><ele>137.9</ele></trkpt>
      <trkpt lat="22.2551088" lon="114.1721092"><ele>138.0</ele></trkpt>
      <trkpt lat="22.2551200" lon="114.1721091"><ele>138.0</ele></trkpt>
      <trkpt lat="22.2551314" lon="114.1721084"><ele>138.0</ele></trkpt>
      <trkpt lat="22.2551431" lon="114.1721066"><ele>137.9</ele></trkpt>
      <trkpt lat="22.2551557" lon="114.1721039"><ele>137.9</ele></trkpt>
      <trkpt lat="22.2551647" lon="114.1721013"><ele>137.8</ele></trkpt>
      <trkpt lat="22.2551748" lon="114.1720977"><ele>137.8</ele></trkpt>
      <trkpt lat="22.2551860" lon="114.1720927"><ele>137.7</ele></trkpt>
      <trkpt lat="22.2551938" lon="114.1720887"><ele>137.6</ele></trkpt>
      <trkpt lat="22.2552015" lon="114.1720840"><ele>137.5</ele></trkpt>
      <trkpt lat="22.2552082" lon="114.1720791"><ele>137.4</ele></trkpt>
      <trkpt lat="22.2552153" lon="114.1720728"><ele>137.3</ele></trkpt>
      <trkpt lat="22.2552221" lon="114.1720658"><ele>137.2</ele></trkpt>
      <trkpt lat="22.2552290" lon="114.1720576"><ele>137.0</ele></trkpt>
      <trkpt lat="22.2552353" lon="114.1720484"><ele>136.8</ele></trkpt>
      <trkpt lat="22.2552418" lon="114.1720365"><ele>136.6</ele></trkpt>
      <trkpt lat="22.2552487" lon="114.1720189"><ele>136.2</ele></trkpt>
      <trkpt lat="22.2552562" lon="114.1719976"><ele>135.8</ele></trkpt>
      <trkpt lat="22.2552594" lon="114.1719888"><ele>135.6</ele></trkpt>
      <trkpt lat="22.2552690" lon="114.1719648"><ele>135.1</ele></trkpt>
      <trkpt lat="22.2552733" lon="114.1719543"><ele>134.9</ele></trkpt>
      <trkpt lat="22.2552848" lon="114.1719286"><ele>134.3</ele></trkpt>
      <trkpt lat="22.2552887" lon="114.1719208"><ele>134.2</ele></trkpt>
      <trkpt lat="22.2552924" lon="114.1719141"><ele>134.0</ele></trkpt>
      <trkpt lat="22.2552965" lon="114.1719074"><ele>133.9</ele></trkpt>
      <trkpt lat="22.2553031" lon="114.1718978"><ele>133.7</ele></trkpt>
      <trkpt lat="22.2553107" lon="114.1718882"><ele>133.4</ele></trkpt>
      <trkpt lat="22.2553169" lon="114.1718813"><ele>133.3</ele></trkpt>
      <trkpt lat="22.2553234" lon="114.1718746"><ele>133.1</ele></trkpt>
      <trkpt lat="22.2553321" lon="114.1718671"><ele>132.9</ele></trkpt>
      <trkpt lat="22.2553402" lon="114.1718606"><ele>132.8</ele></trkpt>
      <trkpt lat="22.2553806" lon="114.1718303"><ele>132.0</ele></trkpt>
      <trkpt lat="22.2553862" lon="114.1718253"><ele>131.9</ele></trkpt>
      <trkpt lat="22.2553916" lon="114.1718196"><ele>131.8</ele></trkpt>
      <trkpt lat="22.2553970" lon="114.1718122"><ele>131.6</ele></trkpt>
      <trkpt lat="22.2554000" lon="114.1718060"><ele>131.5</ele></trkpt>
      <trkpt lat="22.2554020" lon="114.1717990"><ele>131.3</ele></trkpt>
      <trkpt lat="22.2554037" lon="114.1717918"><ele>131.2</ele></trkpt>
      <trkpt lat="22.2554125" lon="114.1717438"><ele>130.2</ele></trkpt>
      <trkpt lat="22.2554153" lon="114.1717324"><ele>130.0</ele></trkpt>
      <trkpt lat="22.2554347" lon="114.1716630"><ele>128.8</ele></trkpt>
      <trkpt lat="22.2554382" lon="114.1716519"><ele>128.6</ele></trkpt>
      <trkpt lat="22.2554428" lon="114.1716395"><ele>128.4</ele></trkpt>
      <trkpt lat="22.2554474" lon="114.1716284"><ele>128.2</ele></trkpt>
      <trkpt lat="22.2554529" lon="114.1716164"><ele>128.0</ele></trkpt>
      <trkpt lat="22.2554708" lon="114.1715840"><ele>127.6</ele></trkpt>
      <trkpt lat="22.2554738" lon="114.1715768"><ele>127.5</ele></trkpt>
      <trkpt lat="22.2554763" lon="114.1715672"><ele>127.4</ele></trkpt>
      <trkpt lat="22.2554780" lon="114.1715576"><ele>127.2</ele></trkpt>
      <trkpt lat="22.2554920" lon="114.1714345"><ele>125.8</ele></trkpt>
      <trkpt lat="22.2554937" lon="114.1714228"><ele>125.8</ele></trkpt>
      <trkpt lat="22.2555051" lon="114.1713506"><ele>125.9</ele></trkpt>
      <trkpt lat="22.2555094" lon="114.1713290"><ele>125.9</ele></trkpt>
      <trkpt lat="22.2555434" lon="114.1711993"><ele>126.7</ele></trkpt>
      <trkpt lat="22.2555519" lon="114.1711762"><ele>127.0</ele></trkpt>
      <trkpt lat="22.2555612" lon="114.1711555"><ele>127.4</ele></trkpt>
      <trkpt lat="22.2555668" lon="114.1711441"><ele>127.6</ele></trkpt>
      <trkpt lat="22.2555739" lon="114.1711316"><ele>127.8</ele></trkpt>
      <trkpt lat="22.2556280" lon="114.1710483"><ele>128.6</ele></trkpt>
      <trkpt lat="22.2556726" lon="114.1709895"><ele>129.1</ele></trkpt>
      <trkpt lat="22.2557186" lon="114.1709428"><ele>129.7</ele></trkpt>
      <trkpt lat="22.2557861" lon="114.1708935"><ele>130.8</ele></trkpt>
      <trkpt lat="22.2558125" lon="114.1708783"><ele>131.2</ele></trkpt>
      <trkpt lat="22.2558701" lon="114.1708512"><ele>132.2</ele></trkpt>
      <trkpt lat="22.2558940" lon="114.1708425"><ele>132.7</ele></trkpt>
      <trkpt lat="22.2559909" lon="114.1708163"><ele>133.7</ele></trkpt>
      <trkpt lat="22.2560128" lon="114.1708089"><ele>133.9</ele></trkpt>
      <trkpt lat="22.2560374" lon="114.1707990"><ele>134.1</ele></trkpt>
      <trkpt lat="22.2560532" lon="114.1707910"><ele>134.2</ele></trkpt>
      <trkpt lat="22.2560629" lon="114.1707846"><ele>134.2</ele></trkpt>
      <trkpt lat="22.2560839" lon="114.1707684"><ele>134.1</ele></trkpt>
      <trkpt lat="22.2560907" lon="114.1707617"><ele>134.1</ele></trkpt>
      <trkpt lat="22.2560967" lon="114.1707540"><ele>134.0</ele></trkpt>
      <trkpt lat="22.2561019" lon="114.1707458"><ele>133.9</ele></trkpt>
      <trkpt lat="22.2561197" lon="114.1707142"><ele>133.4</ele></trkpt>
      <trkpt lat="22.2561211" lon="114.1707106"><ele>133.4</ele></trkpt>
      <trkpt lat="22.2561218" lon="114.1707065"><ele>133.3</ele></trkpt>
      <trkpt lat="22.2561218" lon="114.1707025"><ele>133.2</ele></trkpt>
      <trkpt lat="22.2561119" lon="114.1706289"><ele>131.5</ele></trkpt>
      <trkpt lat="22.2561060" lon="114.1705972"><ele>130.7</ele></trkpt>
      <trkpt lat="22.2560999" lon="114.1705726"><ele>130.1</ele></trkpt>
      <trkpt lat="22.2560969" lon="114.1705637"><ele>129.9</ele></trkpt>
      <trkpt lat="22.2560935" lon="114.1705549"><ele>129.6</ele></trkpt>
      <trkpt lat="22.2560844" lon="114.1705350"><ele>129.1</ele></trkpt>
      <trkpt lat="22.2560744" lon="114.1705161"><ele>128.5</ele></trkpt>
      <trkpt lat="22.2560430" lon="114.1704578"><ele>126.8</ele></trkpt>
      <trkpt lat="22.2560379" lon="114.1704469"><ele>126.5</ele></trkpt>
      <trkpt lat="22.2560277" lon="114.1704235"><ele>125.7</ele></trkpt>
      <trkpt lat="22.2560240" lon="114.1704129"><ele>125.4</ele></trkpt>
      <trkpt lat="22.2560229" lon="114.1704072"><ele>125.3</ele></trkpt>
      <trkpt lat="22.2560223" lon="114.1704006"><ele>125.1</ele></trkpt>
      <trkpt lat="22.2560224" lon="114.1703943"><ele>124.9</ele></trkpt>
      <trkpt lat="22.2560232" lon="114.1703839"><ele>124.7</ele></trkpt>
      <trkpt lat="22.2560246" lon="114.1703739"><ele>124.5</ele></trkpt>
      <trkpt lat="22.2560261" lon="114.1703666"><ele>124.3</ele></trkpt>
      <trkpt lat="22.2560277" lon="114.1703611"><ele>124.2</ele></trkpt>
      <trkpt lat="22.2560318" lon="114.1703495"><ele>124.0</ele></trkpt>
      <trkpt lat="22.2560339" lon="114.1703449"><ele>124.0</ele></trkpt>
      <trkpt lat="22.2560444" lon="114.1703264"><ele>123.7</ele></trkpt>
      <trkpt lat="22.2560474" lon="114.1703216"><ele>123.7</ele></trkpt>
      <trkpt lat="22.2560516" lon="114.1703160"><ele>123.6</ele></trkpt>
      <trkpt lat="22.2560567" lon="114.1703104"><ele>123.6</ele></trkpt>
      <trkpt lat="22.2560610" lon="114.1703067"><ele>123.6</ele></trkpt>
      <trkpt lat="22.2560658" lon="114.1703032"><ele>123.6</ele></trkpt>
      <trkpt lat="22.2560714" lon="114.1702997"><ele>123.6</ele></trkpt>
      <trkpt lat="22.2560778" lon="114.1702968"><ele>123.7</ele></trkpt>
      <trkpt lat="22.2560839" lon="114.1702946"><ele>123.8</ele></trkpt>
      <trkpt lat="22.2560904" lon="114.1702931"><ele>123.9</ele></trkpt>
      <trkpt lat="22.2560989" lon="114.1702930"><ele>124.1</ele></trkpt>
      <trkpt lat="22.2561213" lon="114.1702944"><ele>124.6</ele></trkpt>
      <trkpt lat="22.2561370" lon="114.1702966"><ele>124.9</ele></trkpt>
      <trkpt lat="22.2561554" lon="114.1703004"><ele>125.4</ele></trkpt>
      <trkpt lat="22.2561765" lon="114.1703071"><ele>126.0</ele></trkpt>
      <trkpt lat="22.2562087" lon="114.1703195"><ele>126.8</ele></trkpt>
      <trkpt lat="22.2562183" lon="114.1703240"><ele>127.2</ele></trkpt>
      <trkpt lat="22.2562984" lon="114.1703660"><ele>130.3</ele></trkpt>
      <trkpt lat="22.2563155" lon="114.1703404"><ele>130.4</ele></trkpt>
      <trkpt lat="22.2563247" lon="114.1703241"><ele>130.4</ele></trkpt>
      <trkpt lat="22.2563366" lon="114.1703020"><ele>130.4</ele></trkpt>
      <trkpt lat="22.2563470" lon="114.1702810"><ele>130.4</ele></trkpt>
      <trkpt lat="22.2563832" lon="114.1702012"><ele>130.4</ele></trkpt>
      <trkpt lat="22.2564041" lon="114.1701522"><ele>130.4</ele></trkpt>
      <trkpt lat="22.2565635" lon="114.1697558"><ele>130.7</ele></trkpt>
      <trkpt lat="22.2565675" lon="114.1697478"><ele>130.8</ele></trkpt>
      <trkpt lat="22.2565811" lon="114.1697274"><ele>131.0</ele></trkpt>
      <trkpt lat="22.2567489" lon="114.1696111"><ele>137.3</ele></trkpt>
      <trkpt lat="22.2567971" lon="114.1692673"><ele>132.5</ele></trkpt>
      <trkpt lat="22.2568418" lon="114.1691251"><ele>131.2</ele></trkpt>
      <trkpt lat="22.2569560" lon="114.1689562"><ele>135.0</ele></trkpt>
      <trkpt lat="22.2571390" lon="114.1688120"><ele>141.2</ele></trkpt>
      <trkpt lat="22.2572234" lon="114.1685986"><ele>139.9</ele></trkpt>
      <trkpt lat="22.2572201" lon="114.1685947"><ele>139.8</ele></trkpt>
      <trkpt lat="22.2571272" lon="114.1684854"><ele>136.4</ele></trkpt>
      <trkpt lat="22.2567675" lon="114.1684028"><ele>129.4</ele></trkpt>
      <trkpt lat="22.2565344" lon="114.1683182"><ele>127.1</ele></trkpt>
      <trkpt lat="22.2564130" lon="114.1682979"><ele>125.7</ele></trkpt>
      <trkpt lat="22.2563200" lon="114.1682513"><ele>125.7</ele></trkpt>
      <trkpt lat="22.2563228" lon="114.1681702"><ele>128.0</ele></trkpt>
      <trkpt lat="22.2563242" lon="114.1681289"><ele>129.2</ele></trkpt>
      <trkpt lat="22.2565218" lon="114.1681390"><ele>130.1</ele></trkpt>
      <trkpt lat="22.2566538" lon="114.1680986"><ele>130.9</ele></trkpt>
      <trkpt lat="22.2568651" lon="114.1680757"><ele>131.1</ele></trkpt>
      <trkpt lat="22.2573367" lon="114.1678851"><ele>130.7</ele></trkpt>
      <trkpt lat="22.2574386" lon="114.1678948"><ele>130.2</ele></trkpt>
      <trkpt lat="22.2575639" lon="114.1679165"><ele>130.2</ele></trkpt>
      <trkpt lat="22.2576645" lon="114.1680076"><ele>131.6</ele></trkpt>
      <trkpt lat="22.2577148" lon="114.1682520"><ele>137.4</ele></trkpt>
      <trkpt lat="22.2577163" lon="114.1683623"><ele>140.1</ele></trkpt>
      <trkpt lat="22.2576990" lon="114.1684609"><ele>143.5</ele></trkpt>
      <trkpt lat="22.2577787" lon="114.1685522"><ele>147.9</ele></trkpt>
      <trkpt lat="22.2578203" lon="114.1685841"><ele>149.5</ele></trkpt>
      <trkpt lat="22.2578527" lon="114.1686111"><ele>150.8</ele></trkpt>
      <trkpt lat="22.2579106" lon="114.1686619"><ele>152.9</ele></trkpt>
      <trkpt lat="22.2579269" lon="114.1686780"><ele>153.5</ele></trkpt>
      <trkpt lat="22.2579459" lon="114.1687003"><ele>154.3</ele></trkpt>
      <trkpt lat="22.2579942" lon="114.1687657"><ele>157.0</ele></trkpt>
      <trkpt lat="22.2580041" lon="114.1687773"><ele>157.5</ele></trkpt>
      <trkpt lat="22.2580173" lon="114.1687905"><ele>158.1</ele></trkpt>
      <trkpt lat="22.2580319" lon="114.1688029"><ele>158.6</ele></trkpt>
      <trkpt lat="22.2580422" lon="114.1688100"><ele>158.9</ele></trkpt>
      <trkpt lat="22.2580521" lon="114.1688153"><ele>159.1</ele></trkpt>
      <trkpt lat="22.2580679" lon="114.1688204"><ele>159.2</ele></trkpt>
      <trkpt lat="22.2581231" lon="114.1688272"><ele>159.4</ele></trkpt>
      <trkpt lat="22.2581380" lon="114.1688322"><ele>159.7</ele></trkpt>
      <trkpt lat="22.2581519" lon="114.1688392"><ele>160.0</ele></trkpt>
      <trkpt lat="22.2581659" lon="114.1688489"><ele>160.5</ele></trkpt>
      <trkpt lat="22.2581798" lon="114.1688607"><ele>161.0</ele></trkpt>
      <trkpt lat="22.2581917" lon="114.1688728"><ele>161.5</ele></trkpt>
      <trkpt lat="22.2582256" lon="114.1689150"><ele>163.1</ele></trkpt>
      <trkpt lat="22.2582447" lon="114.1689413"><ele>164.1</ele></trkpt>
      <trkpt lat="22.2582602" lon="114.1689674"><ele>164.9</ele></trkpt>
      <trkpt lat="22.2582852" lon="114.1690205"><ele>166.6</ele></trkpt>
      <trkpt lat="22.2582929" lon="114.1690356"><ele>167.0</ele></trkpt>
      <trkpt lat="22.2583018" lon="114.1690499"><ele>167.4</ele></trkpt>
      <trkpt lat="22.2583139" lon="114.1690649"><ele>167.8</ele></trkpt>
      <trkpt lat="22.2583345" lon="114.1690851"><ele>168.6</ele></trkpt>
      <trkpt lat="22.2583547" lon="114.1691013"><ele>169.1</ele></trkpt>
      <trkpt lat="22.2583680" lon="114.1691080"><ele>169.3</ele></trkpt>
      <trkpt lat="22.2583822" lon="114.1691108"><ele>169.3</ele></trkpt>
      <trkpt lat="22.2583954" lon="114.1691100"><ele>169.2</ele></trkpt>
      <trkpt lat="22.2584558" lon="114.1690875"><ele>168.4</ele></trkpt>
      <trkpt lat="22.2584610" lon="114.1690790"><ele>168.1</ele></trkpt>
      <trkpt lat="22.2584655" lon="114.1690613"><ele>167.6</ele></trkpt>
      <trkpt lat="22.2584690" lon="114.1690361"><ele>167.1</ele></trkpt>
      <trkpt lat="22.2584695" lon="114.1690110"><ele>166.5</ele></trkpt>
      <trkpt lat="22.2584674" lon="114.1689500"><ele>165.1</ele></trkpt>
      <trkpt lat="22.2584623" lon="114.1689006"><ele>163.9</ele></trkpt>
      <trkpt lat="22.2584561" lon="114.1688724"><ele>163.1</ele></trkpt>
      <trkpt lat="22.2584488" lon="114.1688487"><ele>162.3</ele></trkpt>
      <trkpt lat="22.2584374" lon="114.1688187"><ele>161.3</ele></trkpt>
      <trkpt lat="22.2584278" lon="114.1687897"><ele>160.5</ele></trkpt>
      <trkpt lat="22.2584126" lon="114.1687348"><ele>159.0</ele></trkpt>
      <trkpt lat="22.2584060" lon="114.1687167"><ele>158.5</ele></trkpt>
      <trkpt lat="22.2583838" lon="114.1686689"><ele>157.4</ele></trkpt>
      <trkpt lat="22.2583698" lon="114.1686439"><ele>156.8</ele></trkpt>
      <trkpt lat="22.2583545" lon="114.1686213"><ele>156.1</ele></trkpt>
      <trkpt lat="22.2583388" lon="114.1686005"><ele>155.5</ele></trkpt>
      <trkpt lat="22.2583095" lon="114.1685659"><ele>154.2</ele></trkpt>
      <trkpt lat="22.2582980" lon="114.1685498"><ele>153.7</ele></trkpt>
      <trkpt lat="22.2582892" lon="114.1685321"><ele>153.1</ele></trkpt>
      <trkpt lat="22.2582823" lon="114.1685118"><ele>152.5</ele></trkpt>
      <trkpt lat="22.2582769" lon="114.1684866"><ele>151.8</ele></trkpt>
      <trkpt lat="22.2582750" lon="114.1684620"><ele>151.3</ele></trkpt>
      <trkpt lat="22.2582760" lon="114.1684409"><ele>150.8</ele></trkpt>
      <trkpt lat="22.2582813" lon="114.1684085"><ele>150.3</ele></trkpt>
      <trkpt lat="22.2582882" lon="114.1683775"><ele>149.8</ele></trkpt>
      <trkpt lat="22.2582973" lon="114.1683484"><ele>149.4</ele></trkpt>
      <trkpt lat="22.2583095" lon="114.1683221"><ele>149.2</ele></trkpt>
      <trkpt lat="22.2583226" lon="114.1682995"><ele>149.2</ele></trkpt>
      <trkpt lat="22.2584932" lon="114.1680931"><ele>149.7</ele></trkpt>
      <trkpt lat="22.2586010" lon="114.1679790"><ele>149.0</ele></trkpt>
      <trkpt lat="22.2587971" lon="114.1680214"><ele>155.4</ele></trkpt>
      <trkpt lat="22.2589730" lon="114.1680410"><ele>160.1</ele></trkpt>
      <trkpt lat="22.2592709" lon="114.1680785"><ele>168.2</ele></trkpt>
      <trkpt lat="22.2595353" lon="114.1678339"><ele>162.9</ele></trkpt>
      <trkpt lat="22.2596790" lon="114.1678360"><ele>165.6</ele></trkpt>
      <trkpt lat="22.2599248" lon="114.1679019"><ele>172.3</ele></trkpt>
      <trkpt lat="22.2599806" lon="114.1678729"><ele>172.5</ele></trkpt>
      <trkpt lat="22.2600111" lon="114.1678169"><ele>171.4</ele></trkpt>
      <trkpt lat="22.2599561" lon="114.1675655"><ele>163.7</ele></trkpt>
      <trkpt lat="22.2599050" lon="114.1674070"><ele>158.6</ele></trkpt>
      <trkpt lat="22.2599390" lon="114.1673020"><ele>157.0</ele></trkpt>
      <trkpt lat="22.2599743" lon="114.1672113"><ele>155.5</ele></trkpt>
      <trkpt lat="22.2601679" lon="114.1670921"><ele>157.1</ele></trkpt>
      <trkpt lat="22.2603535" lon="114.1671259"><ele>162.7</ele></trkpt>
      <trkpt lat="22.2605064" lon="114.1671016"><ele>164.9</ele></trkpt>
      <trkpt lat="22.2606733" lon="114.1668745"><ele>160.2</ele></trkpt>
      <trkpt lat="22.2607071" lon="114.1666732"><ele>153.1</ele></trkpt>
      <trkpt lat="22.2608190" lon="114.1665500"><ele>151.1</ele></trkpt>
      <trkpt lat="22.2610110" lon="114.1663570"><ele>145.7</ele></trkpt>
      <trkpt lat="22.2611360" lon="114.1663830"><ele>144.2</ele></trkpt>
      <trkpt lat="22.2612040" lon="114.1664940"><ele>146.4</ele></trkpt>
      <trkpt lat="22.2614014" lon="114.1669032"><ele>157.3</ele></trkpt>
      <trkpt lat="22.2614445" lon="114.1670726"><ele>163.5</ele></trkpt>
      <trkpt lat="22.2615773" lon="114.1672941"><ele>171.0</ele></trkpt>
      <trkpt lat="22.2616859" lon="114.1673960"><ele>174.1</ele></trkpt>
      <trkpt lat="22.2618091" lon="114.1674706"><ele>175.4</ele></trkpt>
      <trkpt lat="22.2620554" lon="114.1673071"><ele>169.2</ele></trkpt>
      <trkpt lat="22.2622745" lon="114.1672864"><ele>170.5</ele></trkpt>
      <trkpt lat="22.2624280" lon="114.1674254"><ele>176.8</ele></trkpt>
      <trkpt lat="22.2624950" lon="114.1674860"><ele>179.4</ele></trkpt>
      <trkpt lat="22.2625604" lon="114.1670235"><ele>173.1</ele></trkpt>
      <trkpt lat="22.2627024" lon="114.1669442"><ele>171.6</ele></trkpt>
      <trkpt lat="22.2628502" lon="114.1669860"><ele>174.0</ele></trkpt>
      <trkpt lat="22.2630491" lon="114.1669671"><ele>170.5</ele></trkpt>
      <trkpt lat="22.2633559" lon="114.1670283"><ele>166.6</ele></trkpt>
      <trkpt lat="22.2635202" lon="114.1670348"><ele>161.9</ele></trkpt>
      <trkpt lat="22.2636758" lon="114.1672530"><ele>170.0</ele></trkpt>
      <trkpt lat="22.2639805" lon="114.1674832"><ele>172.1</ele></trkpt>
      <trkpt lat="22.2641587" lon="114.1676100"><ele>173.8</ele></trkpt>
      <trkpt lat="22.2643938" lon="114.1677478"><ele>176.1</ele></trkpt>
      <trkpt lat="22.2645509" lon="114.1679273"><ele>180.2</ele></trkpt>
      <trkpt lat="22.2645359" lon="114.1680857"><ele>187.4</ele></trkpt>
      <trkpt lat="22.2645504" lon="114.1683326"><ele>199.1</ele></trkpt>
      <trkpt lat="22.2647853" lon="114.1682958"><ele>191.5</ele></trkpt>
      <trkpt lat="22.2650419" lon="114.1682704"><ele>187.1</ele></trkpt>
      <trkpt lat="22.2651127" lon="114.1682838"><ele>187.2</ele></trkpt>
      <trkpt lat="22.2652845" lon="114.1683890"><ele>193.8</ele></trkpt>
      <trkpt lat="22.2653945" lon="114.1684407"><ele>197.1</ele></trkpt>
      <trkpt lat="22.2655408" lon="114.1686030"><ele>205.3</ele></trkpt>
      <trkpt lat="22.2656649" lon="114.1687376"><ele>209.5</ele></trkpt>
      <trkpt lat="22.2658660" lon="114.1687479"><ele>210.7</ele></trkpt>
      <trkpt lat="22.2658734" lon="114.1686728"><ele>209.5</ele></trkpt>
      <trkpt lat="22.2658099" lon="114.1685272"><ele>206.1</ele></trkpt>
      <trkpt lat="22.2657965" lon="114.1684716"><ele>204.8</ele></trkpt>
      <trkpt lat="22.2656450" lon="114.1684100"><ele>199.8</ele></trkpt>
      <trkpt lat="22.2654070" lon="114.1680450"><ele>184.6</ele></trkpt>
      <trkpt lat="22.2653530" lon="114.1678840"><ele>184.7</ele></trkpt>
      <trkpt lat="22.2651660" lon="114.1676560"><ele>178.5</ele></trkpt>
      <trkpt lat="22.2650780" lon="114.1674990"><ele>180.1</ele></trkpt>
      <trkpt lat="22.2651220" lon="114.1673600"><ele>187.2</ele></trkpt>
      <trkpt lat="22.2650160" lon="114.1673340"><ele>182.7</ele></trkpt>
      <trkpt lat="22.2648150" lon="114.1671880"><ele>176.4</ele></trkpt>
      <trkpt lat="22.2648050" lon="114.1670370"><ele>179.9</ele></trkpt>
      <trkpt lat="22.2648634" lon="114.1668407"><ele>186.1</ele></trkpt>
      <trkpt lat="22.2649250" lon="114.1666952"><ele>190.5</ele></trkpt>
      <trkpt lat="22.2649390" lon="114.1666233"><ele>191.0</ele></trkpt>
      <trkpt lat="22.2649344" lon="114.1665762"><ele>190.2</ele></trkpt>
      <trkpt lat="22.2649196" lon="114.1665404"><ele>189.3</ele></trkpt>
      <trkpt lat="22.2648627" lon="114.1664982"><ele>186.9</ele></trkpt>
      <trkpt lat="22.2648400" lon="114.1664675"><ele>185.9</ele></trkpt>
      <trkpt lat="22.2648298" lon="114.1664297"><ele>185.4</ele></trkpt>
      <trkpt lat="22.2648196" lon="114.1663392"><ele>184.7</ele></trkpt>
      <trkpt lat="22.2647977" lon="114.1662800"><ele>183.9</ele></trkpt>
      <trkpt lat="22.2647927" lon="114.1662344"><ele>183.5</ele></trkpt>
      <trkpt lat="22.2647888" lon="114.1661196"><ele>182.8</ele></trkpt>
    </trkseg>
  </trk>
</gpx>