<?xml version='1.0' encoding='UTF-8'?>
<gpx xmlns="http://www.topografix.com/GPX/1/1" version="1.1" creator="HillGPX import_gpx.py">
  <metadata>
    <name>Hong Kong Trail Section 2</name>
    <desc>Imported from https://www.openstreetmap.org/relation/11814654 · ODbL © OpenStreetMap contributors</desc>
  </metadata>
  <trk>
    <name>Hong Kong Trail Section 2</name>
    <trkseg>
      <trkpt lat="22.2663766" lon="114.1426556"><ele>231.2</ele></trkpt>
      <trkpt lat="22.2663501" lon="114.1426439"><ele>231.2</ele></trkpt>
      <trkpt lat="22.2663199" lon="114.1426197"><ele>230.9</ele></trkpt>
      <trkpt lat="22.2662608" lon="114.1425618"><ele>229.9</ele></trkpt>
      <trkpt lat="22.2662278" lon="114.1425319"><ele>229.4</ele></trkpt>
      <trkpt lat="22.2661644" lon="114.1424808"><ele>228.7</ele></trkpt>
      <trkpt lat="22.2661380" lon="114.1424628"><ele>228.5</ele></trkpt>
      <trkpt lat="22.2661126" lon="114.1424485"><ele>228.4</ele></trkpt>
      <trkpt lat="22.2660921" lon="114.1424411"><ele>228.4</ele></trkpt>
      <trkpt lat="22.2660703" lon="114.1424376"><ele>228.7</ele></trkpt>
      <trkpt lat="22.2660478" lon="114.1424365"><ele>229.1</ele></trkpt>
      <trkpt lat="22.2660257" lon="114.1424392"><ele>229.7</ele></trkpt>
      <trkpt lat="22.2660038" lon="114.1424459"><ele>230.5</ele></trkpt>
      <trkpt lat="22.2659838" lon="114.1424557"><ele>231.4</ele></trkpt>
      <trkpt lat="22.2659359" lon="114.1424848"><ele>233.6</ele></trkpt>
      <trkpt lat="22.2659151" lon="114.1424925"><ele>234.4</ele></trkpt>
      <trkpt lat="22.2658960" lon="114.1424945"><ele>235.0</ele></trkpt>
      <trkpt lat="22.2658784" lon="114.1424918"><ele>235.3</ele></trkpt>
      <trkpt lat="22.2658642" lon="114.1424847"><ele>235.3</ele></trkpt>
      <trkpt lat="22.2658511" lon="114.1424751"><ele>235.3</ele></trkpt>
      <trkpt lat="22.2658400" lon="114.1424598"><ele>234.9</ele></trkpt>
      <trkpt lat="22.2658284" lon="114.1424373"><ele>234.3</ele></trkpt>
      <trkpt lat="22.2658165" lon="114.1424086"><ele>233.4</ele></trkpt>
      <trkpt lat="22.2657500" lon="114.1422255"><ele>228.0</ele></trkpt>
      <trkpt lat="22.2657338" lon="114.1421856"><ele>227.3</ele></trkpt>
      <trkpt lat="22.2657169" lon="114.1421502"><ele>226.9</ele></trkpt>
      <trkpt lat="22.2656957" lon="114.1421127"><ele>226.5</ele></trkpt>
      <trkpt lat="22.2656740" lon="114.1420807"><ele>226.4</ele></trkpt>
      <trkpt lat="22.2656533" lon="114.1420546"><ele>226.4</ele></trkpt>
      <trkpt lat="22.2655853" lon="114.1419818"><ele>226.9</ele></trkpt>
      <trkpt lat="22.2655653" lon="114.1419625"><ele>227.1</ele></trkpt>
      <trkpt lat="22.2655464" lon="114.1419474"><ele>227.4</ele></trkpt>
      <trkpt lat="22.2655276" lon="114.1419352"><ele>227.8</ele></trkpt>
      <trkpt lat="22.2655069" lon="114.1419246"><ele>228.5</ele></trkpt>
      <trkpt lat="22.2654858" lon="114.1419172"><ele>229.2</ele></trkpt>
      <trkpt lat="22.2654627" lon="114.1419131"><ele>230.1</ele></trkpt>
      <trkpt lat="22.2654394" lon="114.1419123"><ele>231.0</ele></trkpt>
      <trkpt lat="22.2653991" lon="114.1419147"><ele>233.0</ele></trkpt>
      <trkpt lat="22.2653753" lon="114.1419137"><ele>234.1</ele></trkpt>
      <trkpt lat="22.2653524" lon="114.1419084"><ele>235.2</ele></trkpt>
      <trkpt lat="22.2653290" lon="114.1418998"><ele>236.2</ele></trkpt>
      <trkpt lat="22.2653055" lon="114.1418881"><ele>237.1</ele></trkpt>
      <trkpt lat="22.2652591" lon="114.1418582"><ele>238.8</ele></trkpt>
      <trkpt lat="22.2651857" lon="114.1418058"><ele>241.2</ele></trkpt>
      <trkpt lat="22.2651527" lon="114.1417854"><ele>242.4</ele></trkpt>
      <trkpt lat="22.2651163" lon="114.1417653"><ele>243.6</ele></trkpt>
      <trkpt lat="22.2650933" lon="114.1417494"><ele>244.1</ele></trkpt>
      <trkpt lat="22.2650788" lon="114.1417313"><ele>244.2</ele></trkpt>
      <trkpt lat="22.2650710" lon="114.1417099"><ele>244.0</ele></trkpt>
      <trkpt lat="22.2650710" lon="114.1416859"><ele>243.4</ele></trkpt>
      <trkpt lat="22.2650792" lon="114.1416638"><ele>242.7</ele></trkpt>
      <trkpt lat="22.2651000" lon="114.1416360"><ele>241.3</ele></trkpt>
      <trkpt lat="22.2651275" lon="114.1416089"><ele>239.5</ele></trkpt>
      <trkpt lat="22.2652960" lon="114.1414691"><ele>230.2</ele></trkpt>
      <trkpt lat="22.2653247" lon="114.1414482"><ele>228.8</ele></trkpt>
      <trkpt lat="22.2653468" lon="114.1414353"><ele>227.8</ele></trkpt>
      <trkpt lat="22.2653671" lon="114.1414257"><ele>226.9</ele></trkpt>
      <trkpt lat="22.2653896" lon="114.1414180"><ele>225.9</ele></trkpt>
      <trkpt lat="22.2654107" lon="114.1414138"><ele>225.1</ele></trkpt>
      <trkpt lat="22.2654326" lon="114.1414122"><ele>224.2</ele></trkpt>
      <trkpt lat="22.2654601" lon="114.1414140"><ele>223.3</ele></trkpt>
      <trkpt lat="22.2654849" lon="114.1414185"><ele>222.6</ele></trkpt>
      <trkpt lat="22.2655103" lon="114.1414256"><ele>221.8</ele></trkpt>
      <trkpt lat="22.2656042" lon="114.1414571"><ele>218.9</ele></trkpt>
      <trkpt lat="22.2656264" lon="114.1414632"><ele>218.2</ele></trkpt>
      <trkpt lat="22.2656506" lon="114.1414670"><ele>217.4</ele></trkpt>
      <trkpt lat="22.2656737" lon="114.1414669"><ele>216.6</ele></trkpt>
      <trkpt lat="22.2656964" lon="114.1414642"><ele>215.9</ele></trkpt>
      <trkpt lat="22.2657242" lon="114.1414568"><ele>214.9</ele></trkpt>
      <trkpt lat="22.2657522" lon="114.1414464"><ele>214.0</ele></trkpt>
      <trkpt lat="22.2657776" lon="114.1414322"><ele>213.2</ele></trkpt>
      <trkpt lat="22.2658017" lon="114.1414155"><ele>212.5</ele></trkpt>
      <trkpt lat="22.2658254" lon="114.1413937"><ele>211.8</ele></trkpt>
      <trkpt lat="22.2658451" lon="114.1413718"><ele>211.2</ele></trkpt>
      <trkpt lat="22.2658604" lon="114.1413483"><ele>210.7</ele></trkpt>
      <trkpt lat="22.2658744" lon="114.1413226"><ele>210.2</ele></trkpt>
      <trkpt lat="22.2658845" lon="114.1412955"><ele>209.7</ele></trkpt>
      <trkpt lat="22.2658916" lon="114.1412661"><ele>209.4</ele></trkpt>
      <trkpt lat="22.2658952" lon="114.1412344"><ele>209.4</ele></trkpt>
      <trkpt lat="22.2658942" lon="114.1412017"><ele>209.6</ele></trkpt>
      <trkpt lat="22.2658883" lon="114.1411673"><ele>209.9</ele></trkpt>
      <trkpt lat="22.2658760" lon="114.1411297"><ele>210.5</ele></trkpt>
      <trkpt lat="22.2658630" lon="114.1410996"><ele>211.1</ele></trkpt>
      <trkpt lat="22.2658248" lon="114.1410228"><ele>212.7</ele></trkpt>
      <trkpt lat="22.2658137" lon="114.1409971"><ele>213.2</ele></trkpt>
      <trkpt lat="22.2658069" lon="114.1409694"><ele>213.6</ele></trkpt>
      <trkpt lat="22.2658060" lon="114.1409443"><ele>213.8</ele></trkpt>
      <trkpt lat="22.2658077" lon="114.1409181"><ele>214.0</ele></trkpt>
      <trkpt lat="22.2658124" lon="114.1408978"><ele>213.9</ele></trkpt>
      <trkpt lat="22.2658302" lon="114.1408546"><ele>213.2</ele></trkpt>
      <trkpt lat="22.2658374" lon="114.1408276"><ele>212.8</ele></trkpt>
      <trkpt lat="22.2658417" lon="114.1407956"><ele>212.6</ele></trkpt>
      <trkpt lat="22.2658430" lon="114.1407701"><ele>212.4</ele></trkpt>
      <trkpt lat="22.2658411" lon="114.1407451"><ele>212.4</ele></trkpt>
      <trkpt lat="22.2658353" lon="114.1407213"><ele>212.6</ele></trkpt>
      <trkpt lat="22.2658279" lon="114.1406969"><ele>212.8</ele></trkpt>
      <trkpt lat="22.2658164" lon="114.1406715"><ele>213.2</ele></trkpt>
      <trkpt lat="22.2658022" lon="114.1406482"><ele>213.7</ele></trkpt>
      <trkpt lat="22.2657520" lon="114.1405870"><ele>215.7</ele></trkpt>
      <trkpt lat="22.2656461" lon="114.1404388"><ele>216.0</ele></trkpt>
      <trkpt lat="22.2654769" lon="114.1405834"><ele>222.8</ele></trkpt>
      <trkpt lat="22.2651804" lon="114.1407405"><ele>227.9</ele></trkpt>
      <trkpt lat="22.2650894" lon="114.1407436"><ele>229.4</ele></trkpt>
      <trkpt lat="22.2650251" lon="114.1409142"><ele>232.5</ele></trkpt>
      <trkpt lat="22.2647739" lon="114.1410934"><ele>243.2</ele></trkpt>
      <trkpt lat="22.2647628" lon="114.1411029"><ele>243.8</ele></trkpt>
      <trkpt lat="22.2647558" lon="114.1411121"><ele>244.2</ele></trkpt>
      <trkpt lat="22.2647506" lon="114.1411226"><ele>244.5</ele></trkpt>
      <trkpt lat="22.2647471" lon="114.1411338"><ele>244.9</ele></trkpt>
      <trkpt lat="22.2647437" lon="114.1411558"><ele>245.4</ele></trkpt>
      <trkpt lat="22.2647405" lon="114.1411643"><ele>245.7</ele></trkpt>
      <trkpt lat="22.2647348" lon="114.1411723"><ele>246.1</ele></trkpt>
      <trkpt lat="22.2647273" lon="114.1411794"><ele>246.4</ele></trkpt>
      <trkpt lat="22.2647172" lon="114.1411861"><ele>246.9</ele></trkpt>
      <trkpt lat="22.2647054" lon="114.1411908"><ele>247.3</ele></trkpt>
      <trkpt lat="22.2646928" lon="114.1411941"><ele>247.8</ele></trkpt>
      <trkpt lat="22.2646677" lon="114.1411986"><ele>248.7</ele></trkpt>
      <trkpt lat="22.2646546" lon="114.1412016"><ele>249.1</ele></trkpt>
      <trkpt lat="22.2646390" lon="114.1412068"><ele>249.7</ele></trkpt>
      <trkpt lat="22.2646232" lon="114.1412142"><ele>250.4</ele></trkpt>
      <trkpt lat="22.2646079" lon="114.1412232"><ele>251.1</ele></trkpt>
      <trkpt lat="22.2645734" lon="114.1412477"><ele>252.7</ele></trkpt>
      <trkpt lat="22.2645563" lon="114.1412583"><ele>253.5</ele></trkpt>
      <trkpt lat="22.2645320" lon="114.1412712"><ele>254.4</ele></trkpt>
      <trkpt lat="22.2644989" lon="114.1412858"><ele>255.5</ele></trkpt>
      <trkpt lat="22.2644598" lon="114.1412867"><ele>256.4</ele></trkpt>
      <trkpt lat="22.2644184" lon="114.1413398"><ele>257.2</ele></trkpt>
      <trkpt lat="22.2644006" lon="114.1413616"><ele>257.5</ele></trkpt>
      <trkpt lat="22.2643824" lon="114.1413863"><ele>258.0</ele></trkpt>
      <trkpt lat="22.2643650" lon="114.1414066"><ele>258.3</ele></trkpt>
      <trkpt lat="22.2643449" lon="114.1414271"><ele>258.7</ele></trkpt>
      <trkpt lat="22.2643248" lon="114.1414450"><ele>259.1</ele></trkpt>
      <trkpt lat="22.2642974" lon="114.1414661"><ele>259.7</ele></trkpt>
      <trkpt lat="22.2642954" lon="114.1414677"><ele>259.7</ele></trkpt>
      <trkpt lat="22.2642495" lon="114.1414980"><ele>260.6</ele></trkpt>
      <trkpt lat="22.2640038" lon="114.1416535"><ele>264.3</ele></trkpt>
      <trkpt lat="22.2639812" lon="114.1416663"><ele>264.5</ele></trkpt>
      <trkpt lat="22.2639418" lon="114.1416863"><ele>264.9</ele></trkpt>
      <trkpt lat="22.2638937" lon="114.1417067"><ele>265.3</ele></trkpt>
      <trkpt lat="22.2638430" lon="114.1417250"><ele>265.7</ele></trkpt>
      <trkpt lat="22.2637879" lon="114.1417417"><ele>265.8</ele></trkpt>
      <trkpt lat="22.2637328" lon="114.1417553"><ele>265.9</ele></trkpt>
      <trkpt lat="22.2636573" lon="114.1417708"><ele>266.0</ele></trkpt>
      <trkpt lat="22.2635516" lon="114.1417888"><ele>266.1</ele></trkpt>
      <trkpt lat="22.2635334" lon="114.1417913"><ele>266.1</ele></trkpt>
      <trkpt lat="22.2635177" lon="114.1417918"><ele>266.1</ele></trkpt>
      <trkpt lat="22.2635022" lon="114.1417908"><ele>265.8</ele></trkpt>
      <trkpt lat="22.2634844" lon="114.1417873"><ele>265.4</ele></trkpt>
      <trkpt lat="22.2634677" lon="114.1417819"><ele>265.0</ele></trkpt>
      <trkpt lat="22.2634536" lon="114.1417748"><ele>264.7</ele></trkpt>
      <trkpt lat="22.2634385" lon="114.1417645"><ele>264.4</ele></trkpt>
      <trkpt lat="22.2634236" lon="114.1417512"><ele>264.1</ele></trkpt>
      <trkpt lat="22.2634089" lon="114.1417343"><ele>263.7</ele></trkpt>
      <trkpt lat="22.2633937" lon="114.1417135"><ele>263.4</ele></trkpt>
      <trkpt lat="22.2633063" lon="114.1415926"><ele>261.6</ele></trkpt>
      <trkpt lat="22.2632902" lon="114.1415703"><ele>261.2</ele></trkpt>
      <trkpt lat="22.2632653" lon="114.1415327"><ele>260.6</ele></trkpt>
      <trkpt lat="22.2631408" lon="114.1413262"><ele>258.2</ele></trkpt>
      <trkpt lat="22.2631224" lon="114.1413003"><ele>257.8</ele></trkpt>
      <trkpt lat="22.2631021" lon="114.1412747"><ele>257.4</ele></trkpt>
      <trkpt lat="22.2630793" lon="114.1412499"><ele>257.0</ele></trkpt>
      <trkpt lat="22.2630586" lon="114.1412323"><ele>256.7</ele></trkpt>
      <trkpt lat="22.2630346" lon="114.1412148"><ele>256.3</ele></trkpt>
      <trkpt lat="22.2623519" lon="114.1408911"><ele>246.0</ele></trkpt>
      <trkpt lat="22.2619778" lon="114.1406460"><ele>240.3</ele></trkpt>
      <trkpt lat="22.2618957" lon="114.1406009"><ele>238.8</ele></trkpt>
      <trkpt lat="22.2618032" lon="114.1405639"><ele>237.4</ele></trkpt>
      <trkpt lat="22.2617117" lon="114.1405528"><ele>236.2</ele></trkpt>
      <trkpt lat="22.2616554" lon="114.1405429"><ele>235.4</ele></trkpt>
      <trkpt lat="22.2616028" lon="114.1405154"><ele>234.6</ele></trkpt>
      <trkpt lat="22.2615678" lon="114.1404819"><ele>234.1</ele></trkpt>
      <trkpt lat="22.2615831" lon="114.1405234"><ele>234.5</ele></trkpt>
      <trkpt lat="22.2615851" lon="114.1405814"><ele>235.0</ele></trkpt>
      <trkpt lat="22.2615675" lon="114.1406382"><ele>235.8</ele></trkpt>
      <trkpt lat="22.2615437" lon="114.1406802"><ele>236.3</ele></trkpt>
      <trkpt lat="22.2615108" lon="114.1407022"><ele>236.6</ele></trkpt>
      <trkpt lat="22.2614387" lon="114.1407280"><ele>236.7</ele></trkpt>
      <trkpt lat="22.2613461" lon="114.1407279"><ele>236.4</ele></trkpt>
      <trkpt lat="22.2611459" lon="114.1407020"><ele>234.8</ele></trkpt>
      <trkpt lat="22.2609329" lon="114.1406872"><ele>232.7</ele></trkpt>
      <trkpt lat="22.2608788" lon="114.1406885"><ele>231.4</ele></trkpt>
      <trkpt lat="22.2608122" lon="114.1407043"><ele>229.9</ele></trkpt>
      <trkpt lat="22.2607858" lon="114.1407340"><ele>229.1</ele></trkpt>
      <trkpt lat="22.2607648" lon="114.1407790"><ele>228.4</ele></trkpt>
      <trkpt lat="22.2607613" lon="114.1408121"><ele>228.0</ele></trkpt>
      <trkpt lat="22.2608038" lon="114.1410368"><ele>228.7</ele></trkpt>
      <trkpt lat="22.2608411" lon="114.1411597"><ele>230.0</ele></trkpt>
      <trkpt lat="22.2608989" lon="114.1412445"><ele>232.4</ele></trkpt>
      <trkpt lat="22.2609558" lon="114.1413112"><ele>235.4</ele></trkpt>
      <trkpt lat="22.2610685" lon="114.1413728"><ele>240.6</ele></trkpt>
      <trkpt lat="22.2610987" lon="114.1414178"><ele>242.4</ele></trkpt>
      <trkpt lat="22.2611101" lon="114.1414627"><ele>243.6</ele></trkpt>
      <trkpt lat="22.2610928" lon="114.1415390"><ele>243.9</ele></trkpt>
      <trkpt lat="22.2609932" lon="114.1418619"><ele>242.8</ele></trkpt>
      <trkpt lat="22.2610034" lon="114.1421039"><ele>248.6</ele></trkpt>
      <trkpt lat="22.2609463" lon="114.1425480"><ele>260.7</ele></trkpt>
      <trkpt lat="22.2609264" lon="114.1425878"><ele>261.5</ele></trkpt>
      <trkpt lat="22.2608788" lon="114.1426403"><ele>261.5</ele></trkpt>
      <trkpt lat="22.2608273" lon="114.1426573"><ele>259.9</ele></trkpt>
      <trkpt lat="22.2605281" lon="114.1426175"><ele>250.1</ele></trkpt>
      <trkpt lat="22.2601211" lon="114.1424701"><ele>242.1</ele></trkpt>
      <trkpt lat="22.2599490" lon="114.1424236"><ele>239.9</ele></trkpt>
      <trkpt lat="22.2599211" lon="114.1424331"><ele>239.3</ele></trkpt>
      <trkpt lat="22.2598991" lon="114.1424763"><ele>238.9</ele></trkpt>
      <trkpt lat="22.2598824" lon="114.1425838"><ele>238.4</ele></trkpt>
      <trkpt lat="22.2598803" lon="114.1426253"><ele>238.3</ele></trkpt>
      <trkpt lat="22.2598862" lon="114.1427303"><ele>237.8</ele></trkpt>
      <trkpt lat="22.2599155" lon="114.1427890"><ele>238.2</ele></trkpt>
      <trkpt lat="22.2601531" lon="114.1430002"><ele>245.1</ele></trkpt>
      <trkpt lat="22.2601887" lon="114.1430185"><ele>246.4</ele></trkpt>
      <trkpt lat="22.2602018" lon="114.1430256"><ele>246.8</ele></trkpt>
      <trkpt lat="22.2602132" lon="114.1430306"><ele>247.2</ele></trkpt>
      <trkpt lat="22.2602245" lon="114.1430344"><ele>247.6</ele></trkpt>
      <trkpt lat="22.2602654" lon="114.1430454"><ele>248.9</ele></trkpt>
      <trkpt lat="22.2602840" lon="114.1430508"><ele>249.5</ele></trkpt>
      <trkpt lat="22.2603085" lon="114.1430595"><ele>250.3</ele></trkpt>
      <trkpt lat="22.2603476" lon="114.1430757"><ele>251.6</ele></trkpt>
      <trkpt lat="22.2603659" lon="114.1430850"><ele>252.3</ele></trkpt>
      <trkpt lat="22.2603821" lon="114.1430951"><ele>252.9</ele></trkpt>
      <trkpt lat="22.2604006" lon="114.1431093"><ele>253.6</ele></trkpt>
      <trkpt lat="22.2604279" lon="114.1431339"><ele>254.6</ele></trkpt>
      <trkpt lat="22.2604577" lon="114.1431638"><ele>255.8</ele></trkpt>
      <trkpt lat="22.2604796" lon="114.1431883"><ele>256.6</ele></trkpt>
      <trkpt lat="22.2604975" lon="114.1432106"><ele>257.3</ele></trkpt>
      <trkpt lat="22.2605140" lon="114.1432332"><ele>257.9</ele></trkpt>
      <trkpt lat="22.2605284" lon="114.1432550"><ele>258.5</ele></trkpt>
      <trkpt lat="22.2605361" lon="114.1432688"><ele>258.8</ele></trkpt>
      <trkpt lat="22.2605419" lon="114.1432822"><ele>259.1</ele></trkpt>
      <trkpt lat="22.2605460" lon="114.1432963"><ele>259.3</ele></trkpt>
      <trkpt lat="22.2605474" lon="114.1433099"><ele>259.4</ele></trkpt>
      <trkpt lat="22.2605465" lon="114.1433254"><ele>259.7</ele></trkpt>
      <trkpt lat="22.2605437" lon="114.1433403"><ele>259.9</ele></trkpt>
      <trkpt lat="22.2605390" lon="114.1433553"><ele>260.1</ele></trkpt>
      <trkpt lat="22.2605372" lon="114.1433588"><ele>260.1</ele></trkpt>
      <trkpt lat="22.2605321" lon="114.1433690"><ele>260.2</ele></trkpt>
      <trkpt lat="22.2605230" lon="114.1433816"><ele>260.3</ele></trkpt>
      <trkpt lat="22.2605176" lon="114.1433873"><ele>260.3</ele></trkpt>
      <trkpt lat="22.2605122" lon="114.1433929"><ele>260.4</ele></trkpt>
      <trkpt lat="22.2605005" lon="114.1434020"><ele>260.4</ele></trkpt>
      <trkpt lat="22.2604889" lon="114.1434084"><ele>260.3</ele></trkpt>
      <trkpt lat="22.2604764" lon="114.1434127"><ele>260.2</ele></trkpt>
      <trkpt lat="22.2604662" lon="114.1434145"><ele>260.1</ele></trkpt>
      <trkpt lat="22.2604554" lon="114.1434149"><ele>260.0</ele></trkpt>
      <trkpt lat="22.2604256" lon="114.1434141"><ele>259.5</ele></trkpt>
      <trkpt lat="22.2604096" lon="114.1434146"><ele>259.2</ele></trkpt>
      <trkpt lat="22.2603904" lon="114.1434172"><ele>259.0</ele></trkpt>
      <trkpt lat="22.2603513" lon="114.1434252"><ele>258.7</ele></trkpt>
      <trkpt lat="22.2602512" lon="114.1434501"><ele>257.4</ele></trkpt>
      <trkpt lat="22.2602293" lon="114.1434549"><ele>257.1</ele></trkpt>
      <trkpt lat="22.2601749" lon="114.1434640"><ele>256.2</ele></trkpt>
      <trkpt lat="22.2601601" lon="114.1434671"><ele>256.0</ele></trkpt>
      <trkpt lat="22.2601471" lon="114.1434711"><ele>255.9</ele></trkpt>
      <trkpt lat="22.2601350" lon="114.1434766"><ele>255.9</ele></trkpt>
      <trkpt lat="22.2601235" lon="114.1434833"><ele>255.9</ele></trkpt>
      <trkpt lat="22.2601124" lon="114.1434910"><ele>255.9</ele></trkpt>
      <trkpt lat="22.2600872" lon="114.1435104"><ele>256.2</ele></trkpt>
      <trkpt lat="22.2600635" lon="114.1435270"><ele>256.4</ele></trkpt>
      <trkpt lat="22.2600357" lon="114.1435449"><ele>256.6</ele></trkpt>
      <trkpt lat="22.2600142" lon="114.1435577"><ele>256.4</ele></trkpt>
      <trkpt lat="22.2599922" lon="114.1435696"><ele>255.8</ele></trkpt>
      <trkpt lat="22.2599671" lon="114.1435817"><ele>255.2</ele></trkpt>
      <trkpt lat="22.2599365" lon="114.1435950"><ele>254.3</ele></trkpt>
      <trkpt lat="22.2599241" lon="114.1436009"><ele>254.0</ele></trkpt>
      <trkpt lat="22.2599148" lon="114.1436060"><ele>253.7</ele></trkpt>
      <trkpt lat="22.2599058" lon="114.1436117"><ele>253.5</ele></trkpt>
      <trkpt lat="22.2598976" lon="114.1436178"><ele>253.4</ele></trkpt>
      <trkpt lat="22.2598897" lon="114.1436252"><ele>253.3</ele></trkpt>
      <trkpt lat="22.2598814" lon="114.1436339"><ele>253.2</ele></trkpt>
      <trkpt lat="22.2598743" lon="114.1436424"><ele>253.2</ele></trkpt>
      <trkpt lat="22.2598674" lon="114.1436527"><ele>253.3</ele></trkpt>
      <trkpt lat="22.2598615" lon="114.1436645"><ele>253.5</ele></trkpt>
      <trkpt lat="22.2598567" lon="114.1436773"><ele>253.7</ele></trkpt>
      <trkpt lat="22.2598533" lon="114.1436881"><ele>253.9</ele></trkpt>
      <trkpt lat="22.2598501" lon="114.1437001"><ele>254.2</ele></trkpt>
      <trkpt lat="22.2598431" lon="114.1437356"><ele>255.2</ele></trkpt>
      <trkpt lat="22.2598411" lon="114.1437496"><ele>255.6</ele></trkpt>
      <trkpt lat="22.2598379" lon="114.1437822"><ele>256.6</ele></trkpt>
      <trkpt lat="22.2598356" lon="114.1437952"><ele>257.0</ele></trkpt>
      <trkpt lat="22.2598321" lon="114.1438069"><ele>257.2</ele></trkpt>
      <trkpt lat="22.2598270" lon="114.1438180"><ele>257.4</ele></trkpt>
      <trkpt lat="22.2598194" lon="114.1438281"><ele>257.3</ele></trkpt>
      <trkpt lat="22.2598091" lon="114.1438366"><ele>257.2</ele></trkpt>
      <trkpt lat="22.2597985" lon="114.1438439"><ele>256.9</ele></trkpt>
      <trkpt lat="22.2597846" lon="114.1438517"><ele>256.5</ele></trkpt>
      <trkpt lat="22.2597367" lon="114.1438756"><ele>255.0</ele></trkpt>
      <trkpt lat="22.2597109" lon="114.1438911"><ele>254.3</ele></trkpt>
      <trkpt lat="22.2596842" lon="114.1439091"><ele>253.2</ele></trkpt>
      <trkpt lat="22.2596626" lon="114.1439252"><ele>252.3</ele></trkpt>
      <trkpt lat="22.2596397" lon="114.1439438"><ele>251.4</ele></trkpt>
      <trkpt lat="22.2596300" lon="114.1439533"><ele>251.1</ele></trkpt>
      <trkpt lat="22.2596217" lon="114.1439630"><ele>250.9</ele></trkpt>
      <trkpt lat="22.2596158" lon="114.1439725"><ele>250.9</ele></trkpt>
      <trkpt lat="22.2596110" lon="114.1439829"><ele>250.9</ele></trkpt>
      <trkpt lat="22.2596078" lon="114.1439934"><ele>251.1</ele></trkpt>
      <trkpt lat="22.2596060" lon="114.1440042"><ele>251.3</ele></trkpt>
      <trkpt lat="22.2596053" lon="114.1440183"><ele>251.5</ele></trkpt>
      <trkpt lat="22.2596061" lon="114.1440330"><ele>251.8</ele></trkpt>
      <trkpt lat="22.2596163" lon="114.1441588"><ele>254.9</ele></trkpt>
      <trkpt lat="22.2596169" lon="114.1441748"><ele>255.2</ele></trkpt>
      <trkpt lat="22.2596158" lon="114.1441929"><ele>255.5</ele></trkpt>
      <trkpt lat="22.2596130" lon="114.1442098"><ele>255.6</ele></trkpt>
      <trkpt lat="22.2596083" lon="114.1442261"><ele>255.7</ele></trkpt>
      <trkpt lat="22.2596029" lon="114.1442405"><ele>255.6</ele></trkpt>
      <trkpt lat="22.2595967" lon="114.1442540"><ele>255.6</ele></trkpt>
      <trkpt lat="22.2595905" lon="114.1442650"><ele>255.5</ele></trkpt>
      <trkpt lat="22.2595822" lon="114.1442772"><ele>255.3</ele></trkpt>
      <trkpt lat="22.2595718" lon="114.1442897"><ele>255.0</ele></trkpt>
      <trkpt lat="22.2595402" lon="114.1443226"><ele>254.0</ele></trkpt>
      <trkpt lat="22.2595307" lon="114.1443338"><ele>253.8</ele></trkpt>
      <trkpt lat="22.2595228" lon="114.1443450"><ele>253.6</ele></trkpt>
      <trkpt lat="22.2595166" lon="114.1443565"><ele>253.5</ele></trkpt>
      <trkpt lat="22.2595129" lon="114.1443658"><ele>253.5</ele></trkpt>
      <trkpt lat="22.2595099" lon="114.1443752"><ele>253.5</ele></trkpt>
      <trkpt lat="22.2595084" lon="114.1443854"><ele>253.5</ele></trkpt>
      <trkpt lat="22.2595085" lon="114.1443986"><ele>253.7</ele></trkpt>
      <trkpt lat="22.2595108" lon="114.1444122"><ele>254.1</ele></trkpt>
      <trkpt lat="22.2595148" lon="114.1444269"><ele>254.5</ele></trkpt>
      <trkpt lat="22.2595201" lon="114.1444402"><ele>254.9</ele></trkpt>
      <trkpt lat="22.2595278" lon="114.1444540"><ele>255.5</ele></trkpt>
      <trkpt lat="22.2596260" lon="114.1446065"><ele>262.3</ele></trkpt>
      <trkpt lat="22.2596355" lon="114.1446225"><ele>262.9</ele></trkpt>
      <trkpt lat="22.2596431" lon="114.1446368"><ele>263.5</ele></trkpt>
      <trkpt lat="22.2596599" lon="114.1446716"><ele>264.6</ele></trkpt>
      <trkpt lat="22.2596645" lon="114.1446828"><ele>265.0</ele></trkpt>
      <trkpt lat="22.2596673" lon="114.1446953"><ele>265.4</ele></trkpt>
      <trkpt lat="22.2596683" lon="114.1447071"><ele>265.8</ele></trkpt>
      <trkpt lat="22.2596678" lon="114.1447202"><ele>266.1</ele></trkpt>
      <trkpt lat="22.2596662" lon="114.1447319"><ele>266.4</ele></trkpt>
      <trkpt lat="22.2596632" lon="114.1447422"><ele>266.6</ele></trkpt>
      <trkpt lat="22.2596589" lon="114.1447521"><ele>266.7</ele></trkpt>
      <trkpt lat="22.2596524" lon="114.1447633"><ele>266.7</ele></trkpt>
      <trkpt lat="22.2596434" lon="114.1447751"><ele>266.7</ele></trkpt>
      <trkpt lat="22.2596332" lon="114.1447848"><ele>266.5</ele></trkpt>
      <trkpt lat="22.2596205" lon="114.1447937"><ele>266.2</ele></trkpt>
      <trkpt lat="22.2596016" lon="114.1448049"><ele>265.7</ele></trkpt>
      <trkpt lat="22.2595919" lon="114.1448118"><ele>265.5</ele></trkpt>
      <trkpt lat="22.2595831" lon="114.1448189"><ele>265.3</ele></trkpt>
      <trkpt lat="22.2595757" lon="114.1448263"><ele>265.2</ele></trkpt>
      <trkpt lat="22.2595681" lon="114.1448354"><ele>265.1</ele></trkpt>
      <trkpt lat="22.2595613" lon="114.1448451"><ele>265.1</ele></trkpt>
      <trkpt lat="22.2595555" lon="114.1448550"><ele>265.1</ele></trkpt>
      <trkpt lat="22.2595505" lon="114.1448653"><ele>265.2</ele></trkpt>
      <trkpt lat="22.2595464" lon="114.1448765"><ele>265.3</ele></trkpt>
      <trkpt lat="22.2595435" lon="114.1448877"><ele>265.5</ele></trkpt>
      <trkpt lat="22.2595414" lon="114.1448992"><ele>265.8</ele></trkpt>
      <trkpt lat="22.2595384" lon="114.1449386"><ele>266.8</ele></trkpt>
      <trkpt lat="22.2595365" lon="114.1449518"><ele>267.1</ele></trkpt>
      <trkpt lat="22.2595339" lon="114.1449644"><ele>267.4</ele></trkpt>
      <trkpt lat="22.2595299" lon="114.1449800"><ele>267.6</ele></trkpt>
      <trkpt lat="22.2595245" lon="114.1449958"><ele>267.9</ele></trkpt>
      <trkpt lat="22.2595188" lon="114.1450100"><ele>268.0</ele></trkpt>
      <trkpt lat="22.2595118" lon="114.1450244"><ele>268.1</ele></trkpt>
      <trkpt lat="22.2594986" lon="114.1450477"><ele>268.6</ele></trkpt>
      <trkpt lat="22.2593972" lon="114.1451962"><ele>271.5</ele></trkpt>
      <trkpt lat="22.2593841" lon="114.1452122"><ele>271.6</ele></trkpt>
      <trkpt lat="22.2593706" lon="114.1452249"><ele>271.5</ele></trkpt>
      <trkpt lat="22.2593554" lon="114.1452355"><ele>271.2</ele></trkpt>
      <trkpt lat="22.2593389" lon="114.1452439"><ele>270.8</ele></trkpt>
      <trkpt lat="22.2593210" lon="114.1452513"><ele>270.2</ele></trkpt>
      <trkpt lat="22.2590947" lon="114.1453320"><ele>261.5</ele></trkpt>
      <trkpt lat="22.2590705" lon="114.1453423"><ele>260.6</ele></trkpt>
      <trkpt lat="22.2590501" lon="114.1453523"><ele>259.9</ele></trkpt>
      <trkpt lat="22.2590311" lon="114.1453630"><ele>259.4</ele></trkpt>
      <trkpt lat="22.2590133" lon="114.1453747"><ele>259.0</ele></trkpt>
      <trkpt lat="22.2589939" lon="114.1453893"><ele>258.6</ele></trkpt>
      <trkpt lat="22.2589793" lon="114.1454017"><ele>258.4</ele></trkpt>
      <trkpt lat="22.2589649" lon="114.1454153"><ele>258.3</ele></trkpt>
      <trkpt lat="22.2589468" lon="114.1454343"><ele>258.2</ele></trkpt>
      <trkpt lat="22.2589307" lon="114.1454533"><ele>258.2</ele></trkpt>
      <trkpt lat="22.2588303" lon="114.1455832"><ele>258.4</ele></trkpt>
      <trkpt lat="22.2588137" lon="114.1456064"><ele>258.5</ele></trkpt>
      <trkpt lat="22.2588010" lon="114.1456268"><ele>258.7</ele></trkpt>
      <trkpt lat="22.2587891" lon="114.1456486"><ele>259.0</ele></trkpt>
      <trkpt lat="22.2587761" lon="114.1456767"><ele>259.4</ele></trkpt>
      <trkpt lat="22.2587674" lon="114.1456986"><ele>259.9</ele></trkpt>
      <trkpt lat="22.2587550" lon="114.1457377"><ele>261.0</ele></trkpt>
      <trkpt lat="22.2587514" lon="114.1457477"><ele>261.3</ele></trkpt>
      <trkpt lat="22.2587470" lon="114.1457563"><ele>261.5</ele></trkpt>
      <trkpt lat="22.2587413" lon="114.1457638"><ele>261.6</ele></trkpt>
      <trkpt lat="22.2587342" lon="114.1457717"><ele>261.6</ele></trkpt>
      <trkpt lat="22.2587237" lon="114.1457817"><ele>261.6</ele></trkpt>
      <trkpt lat="22.2587124" lon="114.1457900"><ele>261.4</ele></trkpt>
      <trkpt lat="22.2586757" lon="114.1458128"><ele>260.8</ele></trkpt>
      <trkpt lat="22.2586654" lon="114.1458200"><ele>260.7</ele></trkpt>
      <trkpt lat="22.2586567" lon="114.1458273"><ele>260.6</ele></trkpt>
      <trkpt lat="22.2586481" lon="114.1458363"><ele>260.7</ele></trkpt>
      <trkpt lat="22.2586394" lon="114.1458483"><ele>260.9</ele></trkpt>
      <trkpt lat="22.2586304" lon="114.1458630"><ele>261.3</ele></trkpt>
      <trkpt lat="22.2585838" lon="114.1459552"><ele>264.4</ele></trkpt>
      <trkpt lat="22.2585769" lon="114.1459660"><ele>264.8</ele></trkpt>
      <trkpt lat="22.2585702" lon="114.1459739"><ele>264.9</ele></trkpt>
      <trkpt lat="22.2585625" lon="114.1459810"><ele>265.0</ele></trkpt>
      <trkpt lat="22.2585530" lon="114.1459869"><ele>265.0</ele></trkpt>
      <trkpt lat="22.2585422" lon="114.1459914"><ele>264.8</ele></trkpt>
      <trkpt lat="22.2585338" lon="114.1459937"><ele>264.6</ele></trkpt>
      <trkpt lat="22.2585246" lon="114.1459950"><ele>264.3</ele></trkpt>
      <trkpt lat="22.2585153" lon="114.1459948"><ele>263.9</ele></trkpt>
      <trkpt lat="22.2585060" lon="114.1459931"><ele>263.4</ele></trkpt>
      <trkpt lat="22.2584620" lon="114.1459809"><ele>260.9</ele></trkpt>
      <trkpt lat="22.2584401" lon="114.1459765"><ele>259.7</ele></trkpt>
      <trkpt lat="22.2584177" lon="114.1459729"><ele>258.6</ele></trkpt>
      <trkpt lat="22.2583978" lon="114.1459714"><ele>257.8</ele></trkpt>
      <trkpt lat="22.2583804" lon="114.1459709"><ele>257.2</ele></trkpt>
      <trkpt lat="22.2583702" lon="114.1459716"><ele>256.9</ele></trkpt>
      <trkpt lat="22.2583610" lon="114.1459734"><ele>256.7</ele></trkpt>
      <trkpt lat="22.2583513" lon="114.1459762"><ele>256.5</ele></trkpt>
      <trkpt lat="22.2583426" lon="114.1459803"><ele>256.5</ele></trkpt>
      <trkpt lat="22.2583339" lon="114.1459861"><ele>256.5</ele></trkpt>
      <trkpt lat="22.2583266" lon="114.1459932"><ele>256.7</ele></trkpt>
      <trkpt lat="22.2583206" lon="114.1460015"><ele>257.1</ele></trkpt>
      <trkpt lat="22.2583159" lon="114.1460103"><ele>257.5</ele></trkpt>
      <trkpt lat="22.2583122" lon="114.1460198"><ele>258.0</ele></trkpt>
      <trkpt lat="22.2583080" lon="114.1460349"><ele>258.8</ele></trkpt>
      <trkpt lat="22.2583052" lon="114.1460514"><ele>259.8</ele></trkpt>
      <trkpt lat="22.2583033" lon="114.1460720"><ele>260.9</ele></trkpt>
      <trkpt lat="22.2583007" lon="114.1461457"><ele>264.8</ele></trkpt>
      <trkpt lat="22.2582991" lon="114.1461605"><ele>265.5</ele></trkpt>
      <trkpt lat="22.2582961" lon="114.1461718"><ele>266.0</ele></trkpt>
      <trkpt lat="22.2582917" lon="114.1461821"><ele>266.5</ele></trkpt>
      <trkpt lat="22.2582858" lon="114.1461934"><ele>266.9</ele></trkpt>
      <trkpt lat="22.2582791" lon="114.1462036"><ele>267.2</ele></trkpt>
      <trkpt lat="22.2582698" lon="114.1462149"><ele>267.5</ele></trkpt>
      <trkpt lat="22.2582603" lon="114.1462241"><ele>267.7</ele></trkpt>
      <trkpt lat="22.2582473" lon="114.1462349"><ele>267.8</ele></trkpt>
      <trkpt lat="22.2582292" lon="114.1462471"><ele>267.9</ele></trkpt>
      <trkpt lat="22.2581749" lon="114.1462796"><ele>267.9</ele></trkpt>
      <trkpt lat="22.2581623" lon="114.1462882"><ele>267.9</ele></trkpt>
      <trkpt lat="22.2581501" lon="114.1462993"><ele>268.2</ele></trkpt>
      <trkpt lat="22.2581395" lon="114.1463117"><ele>268.5</ele></trkpt>
      <trkpt lat="22.2581313" lon="114.1463229"><ele>268.9</ele></trkpt>
      <trkpt lat="22.2581198" lon="114.1463411"><ele>269.5</ele></trkpt>
      <trkpt lat="22.2581124" lon="114.1463507"><ele>269.8</ele></trkpt>
      <trkpt lat="22.2581036" lon="114.1463609"><ele>270.0</ele></trkpt>
      <trkpt lat="22.2580924" lon="114.1463721"><ele>270.2</ele></trkpt>
      <trkpt lat="22.2580816" lon="114.1463815"><ele>270.3</ele></trkpt>
      <trkpt lat="22.2580703" lon="114.1463897"><ele>270.3</ele></trkpt>
      <trkpt lat="22.2579989" lon="114.1464341"><ele>269.7</ele></trkpt>
      <trkpt lat="22.2579732" lon="114.1464516"><ele>269.4</ele></trkpt>
      <trkpt lat="22.2579512" lon="114.1464681"><ele>269.2</ele></trkpt>
      <trkpt lat="22.2579152" lon="114.1464977"><ele>269.0</ele></trkpt>
      <trkpt lat="22.2578520" lon="114.1465535"><ele>268.7</ele></trkpt>
      <trkpt lat="22.2578148" lon="114.1465879"><ele>268.5</ele></trkpt>
      <trkpt lat="22.2578022" lon="114.1466008"><ele>268.4</ele></trkpt>
      <trkpt lat="22.2577914" lon="114.1466134"><ele>268.5</ele></trkpt>
      <trkpt lat="22.2577832" lon="114.1466258"><ele>268.7</ele></trkpt>
      <trkpt lat="22.2577761" lon="114.1466388"><ele>269.0</ele></trkpt>
      <trkpt lat="22.2577622" lon="114.1466661"><ele>269.5</ele></trkpt>
      <trkpt lat="22.2577544" lon="114.1466796"><ele>269.8</ele></trkpt>
      <trkpt lat="22.2577460" lon="114.1466920"><ele>269.9</ele></trkpt>
      <trkpt lat="22.2577359" lon="114.1467047"><ele>270.1</ele></trkpt>
      <trkpt lat="22.2577246" lon="114.1467165"><ele>270.1</ele></trkpt>
      <trkpt lat="22.2577126" lon="114.1467280"><ele>270.1</ele></trkpt>
      <trkpt lat="22.2577037" lon="114.1467354"><ele>270.1</ele></trkpt>
      <trkpt lat="22.2576936" lon="114.1467431"><ele>270.1</ele></trkpt>
      <trkpt lat="22.2576761" lon="114.1467549"><ele>269.9</ele></trkpt>
      <trkpt lat="22.2576656" lon="114.1467623"><ele>269.9</ele></trkpt>
      <trkpt lat="22.2576553" lon="114.1467706"><ele>269.9</ele></trkpt>
      <trkpt lat="22.2576466" lon="114.1467788"><ele>269.9</ele></trkpt>
      <trkpt lat="22.2576398" lon="114.1467864"><ele>270.0</ele></trkpt>
      <trkpt lat="22.2576268" lon="114.1468039"><ele>270.3</ele></trkpt>
      <trkpt lat="22.2576198" lon="114.1468120"><ele>270.4</ele></trkpt>
      <trkpt lat="22.2576112" lon="114.1468205"><ele>270.4</ele></trkpt>
      <trkpt lat="22.2576007" lon="114.1468275"><ele>270.4</ele></trkpt>
      <trkpt lat="22.2575878" lon="114.1468350"><ele>270.2</ele></trkpt>
      <trkpt lat="22.2575746" lon="114.1468418"><ele>270.0</ele></trkpt>
      <trkpt lat="22.2575604" lon="114.1468481"><ele>269.8</ele></trkpt>
      <trkpt lat="22.2575438" lon="114.1468542"><ele>269.5</ele></trkpt>
      <trkpt lat="22.2575270" lon="114.1468592"><ele>269.1</ele></trkpt>
      <trkpt lat="22.2574771" lon="114.1468700"><ele>267.8</ele></trkpt>
      <trkpt lat="22.2574563" lon="114.1468760"><ele>267.5</ele></trkpt>
      <trkpt lat="22.2574310" lon="114.1468849"><ele>267.1</ele></trkpt>
      <trkpt lat="22.2574018" lon="114.1468966"><ele>266.8</ele></trkpt>
      <trkpt lat="22.2572930" lon="114.1469457"><ele>266.0</ele></trkpt>
      <trkpt lat="22.2572664" lon="114.1469571"><ele>265.8</ele></trkpt>
      <trkpt lat="22.2572452" lon="114.1469647"><ele>265.5</ele></trkpt>
      <trkpt lat="22.2571913" lon="114.1469799"><ele>264.8</ele></trkpt>
      <trkpt lat="22.2571788" lon="114.1469856"><ele>264.7</ele></trkpt>
      <trkpt lat="22.2571657" lon="114.1469931"><ele>264.7</ele></trkpt>
      <trkpt lat="22.2571537" lon="114.1470027"><ele>264.8</ele></trkpt>
      <trkpt lat="22.2571436" lon="114.1470126"><ele>264.9</ele></trkpt>
      <trkpt lat="22.2571333" lon="114.1470249"><ele>265.1</ele></trkpt>
      <trkpt lat="22.2571175" lon="114.1470462"><ele>265.6</ele></trkpt>
      <trkpt lat="22.2571072" lon="114.1470577"><ele>265.8</ele></trkpt>
      <trkpt lat="22.2570993" lon="114.1470644"><ele>265.9</ele></trkpt>
      <trkpt lat="22.2570914" lon="114.1470696"><ele>265.9</ele></trkpt>
      <trkpt lat="22.2570825" lon="114.1470741"><ele>265.9</ele></trkpt>
      <trkpt lat="22.2570697" lon="114.1470768"><ele>265.6</ele></trkpt>
      <trkpt lat="22.2570547" lon="114.1470770"><ele>265.2</ele></trkpt>
      <trkpt lat="22.2570405" lon="114.1470761"><ele>264.8</ele></trkpt>
      <trkpt lat="22.2570081" lon="114.1470711"><ele>263.6</ele></trkpt>
      <trkpt lat="22.2569971" lon="114.1470698"><ele>263.2</ele></trkpt>
      <trkpt lat="22.2569847" lon="114.1470694"><ele>262.9</ele></trkpt>
      <trkpt lat="22.2569708" lon="114.1470699"><ele>262.5</ele></trkpt>
      <trkpt lat="22.2569574" lon="114.1470719"><ele>262.2</ele></trkpt>
      <trkpt lat="22.2569431" lon="114.1470758"><ele>262.0</ele></trkpt>
      <trkpt lat="22.2569280" lon="114.1470814"><ele>261.8</ele></trkpt>
      <trkpt lat="22.2569055" lon="114.1470927"><ele>261.7</ele></trkpt>
      <trkpt lat="22.2568798" lon="114.1471070"><ele>261.6</ele></trkpt>
      <trkpt lat="22.2568558" lon="114.1471219"><ele>261.5</ele></trkpt>
      <trkpt lat="22.2568325" lon="114.1471385"><ele>261.6</ele></trkpt>
      <trkpt lat="22.2566591" lon="114.1472732"><ele>262.3</ele></trkpt>
      <trkpt lat="22.2566397" lon="114.1472874"><ele>262.3</ele></trkpt>
      <trkpt lat="22.2566144" lon="114.1473044"><ele>262.2</ele></trkpt>
      <trkpt lat="22.2565970" lon="114.1473148"><ele>262.1</ele></trkpt>
      <trkpt lat="22.2565772" lon="114.1473240"><ele>261.9</ele></trkpt>
      <trkpt lat="22.2565551" lon="114.1473311"><ele>261.5</ele></trkpt>
      <trkpt lat="22.2565343" lon="114.1473348"><ele>261.0</ele></trkpt>
      <trkpt lat="22.2564901" lon="114.1473379"><ele>260.6</ele></trkpt>
      <trkpt lat="22.2564692" lon="114.1473409"><ele>260.6</ele></trkpt>
      <trkpt lat="22.2564559" lon="114.1473444"><ele>260.6</ele></trkpt>
      <trkpt lat="22.2564422" lon="114.1473494"><ele>260.6</ele></trkpt>
      <trkpt lat="22.2563911" lon="114.1473701"><ele>261.0</ele></trkpt>
      <trkpt lat="22.2563756" lon="114.1473775"><ele>261.1</ele></trkpt>
      <trkpt lat="22.2563637" lon="114.1473849"><ele>261.3</ele></trkpt>
      <trkpt lat="22.2563533" lon="114.1473935"><ele>261.6</ele></trkpt>
      <trkpt lat="22.2563409" lon="114.1474059"><ele>262.0</ele></trkpt>
      <trkpt lat="22.2563096" lon="114.1474396"><ele>263.2</ele></trkpt>
      <trkpt lat="22.2562929" lon="114.1474557"><ele>264.0</ele></trkpt>
      <trkpt lat="22.2562668" lon="114.1474779"><ele>265.0</ele></trkpt>
      <trkpt lat="22.2562428" lon="114.1474965"><ele>265.9</ele></trkpt>
      <trkpt lat="22.2562214" lon="114.1475115"><ele>266.6</ele></trkpt>
      <trkpt lat="22.2561997" lon="114.1475252"><ele>267.6</ele></trkpt>
      <trkpt lat="22.2561858" lon="114.1475310"><ele>268.2</ele></trkpt>
      <trkpt lat="22.2561687" lon="114.1475330"><ele>268.7</ele></trkpt>
      <trkpt lat="22.2561545" lon="114.1475312"><ele>268.9</ele></trkpt>
      <trkpt lat="22.2561436" lon="114.1475263"><ele>268.8</ele></trkpt>
      <trkpt lat="22.2561312" lon="114.1475162"><ele>268.5</ele></trkpt>
      <trkpt lat="22.2561210" lon="114.1475047"><ele>268.1</ele></trkpt>
      <trkpt lat="22.2561118" lon="114.1474892"><ele>267.4</ele></trkpt>
      <trkpt lat="22.2560960" lon="114.1474524"><ele>265.6</ele></trkpt>
      <trkpt lat="22.2560721" lon="114.1474011"><ele>263.7</ele></trkpt>
      <trkpt lat="22.2560354" lon="114.1473307"><ele>261.6</ele></trkpt>
      <trkpt lat="22.2560284" lon="114.1473155"><ele>261.1</ele></trkpt>
      <trkpt lat="22.2560234" lon="114.1472989"><ele>260.5</ele></trkpt>
      <trkpt lat="22.2560199" lon="114.1472822"><ele>259.9</ele></trkpt>
      <trkpt lat="22.2560112" lon="114.1472287"><ele>257.9</ele></trkpt>
      <trkpt lat="22.2560051" lon="114.1471820"><ele>256.1</ele></trkpt>
      <trkpt lat="22.2560012" lon="114.1471424"><ele>254.5</ele></trkpt>
      <trkpt lat="22.2559979" lon="114.1471001"><ele>252.8</ele></trkpt>
      <trkpt lat="22.2559944" lon="114.1470380"><ele>251.0</ele></trkpt>
      <trkpt lat="22.2559906" lon="114.1469931"><ele>249.8</ele></trkpt>
      <trkpt lat="22.2559842" lon="114.1469435"><ele>248.5</ele></trkpt>
      <trkpt lat="22.2559780" lon="114.1469096"><ele>247.7</ele></trkpt>
      <trkpt lat="22.2559689" lon="114.1468682"><ele>246.7</ele></trkpt>
      <trkpt lat="22.2559592" lon="114.1468305"><ele>245.8</ele></trkpt>
      <trkpt lat="22.2559523" lon="114.1468092"><ele>245.4</ele></trkpt>
      <trkpt lat="22.2559441" lon="114.1467874"><ele>244.9</ele></trkpt>
      <trkpt lat="22.2559354" lon="114.1467698"><ele>244.7</ele></trkpt>
      <trkpt lat="22.2559238" lon="114.1467501"><ele>244.4</ele></trkpt>
      <trkpt lat="22.2559134" lon="114.1467362"><ele>244.3</ele></trkpt>
      <trkpt lat="22.2559019" lon="114.1467228"><ele>244.3</ele></trkpt>
      <trkpt lat="22.2558871" lon="114.1467083"><ele>244.5</ele></trkpt>
      <trkpt lat="22.2558735" lon="114.1466969"><ele>244.7</ele></trkpt>
      <trkpt lat="22.2558621" lon="114.1466894"><ele>244.9</ele></trkpt>
      <trkpt lat="22.2558487" lon="114.1466822"><ele>245.1</ele></trkpt>
      <trkpt lat="22.2558325" lon="114.1466746"><ele>245.4</ele></trkpt>
      <trkpt lat="22.2558118" lon="114.1466658"><ele>245.8</ele></trkpt>
      <trkpt lat="22.2557873" lon="114.1466563"><ele>246.3</ele></trkpt>
      <trkpt lat="22.2556866" lon="114.1466201"><ele>247.9</ele></trkpt>
      <trkpt lat="22.2556706" lon="114.1466139"><ele>248.1</ele></trkpt>
      <trkpt lat="22.2556542" lon="114.1466050"><ele>248.2</ele></trkpt>
      <trkpt lat="22.2556423" lon="114.1465971"><ele>248.3</ele></trkpt>
      <trkpt lat="22.2556297" lon="114.1465868"><ele>248.2</ele></trkpt>
      <trkpt lat="22.2556206" lon="114.1465775"><ele>248.1</ele></trkpt>
      <trkpt lat="22.2556110" lon="114.1465669"><ele>247.9</ele></trkpt>
      <trkpt lat="22.2555894" lon="114.1465404"><ele>247.3</ele></trkpt>
      <trkpt lat="22.2555741" lon="114.1465228"><ele>246.9</ele></trkpt>
      <trkpt lat="22.2555578" lon="114.1465052"><ele>246.2</ele></trkpt>
      <trkpt lat="22.2555429" lon="114.1464906"><ele>245.7</ele></trkpt>
      <trkpt lat="22.2555287" lon="114.1464782"><ele>245.2</ele></trkpt>
      <trkpt lat="22.2555155" lon="114.1464674"><ele>244.8</ele></trkpt>
      <trkpt lat="22.2554964" lon="114.1464532"><ele>244.2</ele></trkpt>
      <trkpt lat="22.2554857" lon="114.1464463"><ele>243.9</ele></trkpt>
      <trkpt lat="22.2554751" lon="114.1464408"><ele>243.7</ele></trkpt>
      <trkpt lat="22.2554634" lon="114.1464362"><ele>243.5</ele></trkpt>
      <trkpt lat="22.2554503" lon="114.1464329"><ele>243.3</ele></trkpt>
      <trkpt lat="22.2554384" lon="114.1464315"><ele>243.3</ele></trkpt>
      <trkpt lat="22.2554236" lon="114.1464316"><ele>243.3</ele></trkpt>
      <trkpt lat="22.2554085" lon="114.1464332"><ele>243.4</ele></trkpt>
      <trkpt lat="22.2553858" lon="114.1464365"><ele>243.6</ele></trkpt>
      <trkpt lat="22.2553355" lon="114.1464458"><ele>244.2</ele></trkpt>
      <trkpt lat="22.2553210" lon="114.1464472"><ele>244.3</ele></trkpt>
      <trkpt lat="22.2553060" lon="114.1464466"><ele>244.3</ele></trkpt>
      <trkpt lat="22.2552918" lon="114.1464449"><ele>244.2</ele></trkpt>
      <trkpt lat="22.2549707" lon="114.1463679"><ele>242.7</ele></trkpt>
      <trkpt lat="22.2549136" lon="114.1463559"><ele>243.2</ele></trkpt>
      <trkpt lat="22.2547672" lon="114.1463289"><ele>245.6</ele></trkpt>
      <trkpt lat="22.2547153" lon="114.1463211"><ele>246.6</ele></trkpt>
      <trkpt lat="22.2546452" lon="114.1463146"><ele>248.0</ele></trkpt>
      <trkpt lat="22.2546269" lon="114.1463113"><ele>248.3</ele></trkpt>
      <trkpt lat="22.2546130" lon="114.1463067"><ele>248.6</ele></trkpt>
      <trkpt lat="22.2545988" lon="114.1462991"><ele>248.8</ele></trkpt>
      <trkpt lat="22.2545854" lon="114.1462879"><ele>248.9</ele></trkpt>
      <trkpt lat="22.2545698" lon="114.1462720"><ele>249.0</ele></trkpt>
      <trkpt lat="22.2545319" lon="114.1462293"><ele>249.1</ele></trkpt>
      <trkpt lat="22.2545166" lon="114.1462098"><ele>249.1</ele></trkpt>
      <trkpt lat="22.2545088" lon="114.1461977"><ele>249.1</ele></trkpt>
      <trkpt lat="22.2545025" lon="114.1461839"><ele>249.0</ele></trkpt>
      <trkpt lat="22.2544987" lon="114.1461706"><ele>248.8</ele></trkpt>
      <trkpt lat="22.2544971" lon="114.1461557"><ele>248.6</ele></trkpt>
      <trkpt lat="22.2544988" lon="114.1461394"><ele>248.2</ele></trkpt>
      <trkpt lat="22.2545023" lon="114.1461226"><ele>247.8</ele></trkpt>
      <trkpt lat="22.2545128" lon="114.1460787"><ele>246.8</ele></trkpt>
      <trkpt lat="22.2545169" lon="114.1460564"><ele>246.3</ele></trkpt>
      <trkpt lat="22.2545205" lon="114.1460327"><ele>245.8</ele></trkpt>
      <trkpt lat="22.2545227" lon="114.1460085"><ele>245.3</ele></trkpt>
      <trkpt lat="22.2545230" lon="114.1459848"><ele>244.9</ele></trkpt>
      <trkpt lat="22.2545209" lon="114.1459631"><ele>244.5</ele></trkpt>
      <trkpt lat="22.2545171" lon="114.1459385"><ele>244.1</ele></trkpt>
      <trkpt lat="22.2545121" lon="114.1459190"><ele>243.8</ele></trkpt>
      <trkpt lat="22.2545053" lon="114.1458993"><ele>243.6</ele></trkpt>
      <trkpt lat="22.2544978" lon="114.1458812"><ele>243.3</ele></trkpt>
      <trkpt lat="22.2544886" lon="114.1458635"><ele>243.1</ele></trkpt>
      <trkpt lat="22.2544762" lon="114.1458451"><ele>243.0</ele></trkpt>
      <trkpt lat="22.2544627" lon="114.1458292"><ele>242.8</ele></trkpt>
      <trkpt lat="22.2544459" lon="114.1458133"><ele>242.7</ele></trkpt>
      <trkpt lat="22.2544274" lon="114.1457998"><ele>242.7</ele></trkpt>
      <trkpt lat="22.2544076" lon="114.1457885"><ele>242.6</ele></trkpt>
      <trkpt lat="22.2543886" lon="114.1457803"><ele>242.7</ele></trkpt>
      <trkpt lat="22.2543694" lon="114.1457744"><ele>242.8</ele></trkpt>
      <trkpt lat="22.2543472" lon="114.1457705"><ele>242.9</ele></trkpt>
      <trkpt lat="22.2543237" lon="114.1457687"><ele>243.2</ele></trkpt>
      <trkpt lat="22.2542978" lon="114.1457689"><ele>243.2</ele></trkpt>
      <trkpt lat="22.2542702" lon="114.1457712"><ele>243.0</ele></trkpt>
      <trkpt lat="22.2542453" lon="114.1457748"><ele>242.8</ele></trkpt>
      <trkpt lat="22.2542208" lon="114.1457802"><ele>242.8</ele></trkpt>
      <trkpt lat="22.2541966" lon="114.1457874"><ele>242.7</ele></trkpt>
      <trkpt lat="22.2541697" lon="114.1457978"><ele>242.8</ele></trkpt>
      <trkpt lat="22.2541488" lon="114.1458084"><ele>242.9</ele></trkpt>
      <trkpt lat="22.2541155" lon="114.1458285"><ele>243.3</ele></trkpt>
      <trkpt lat="22.2540921" lon="114.1458436"><ele>243.6</ele></trkpt>
      <trkpt lat="22.2540531" lon="114.1458706"><ele>244.2</ele></trkpt>
      <trkpt lat="22.2540336" lon="114.1458823"><ele>244.5</ele></trkpt>
      <trkpt lat="22.2540160" lon="114.1458906"><ele>244.7</ele></trkpt>
      <trkpt lat="22.2539977" lon="114.1458966"><ele>244.8</ele></trkpt>
      <trkpt lat="22.2539799" lon="114.1459002"><ele>244.7</ele></trkpt>
      <trkpt lat="22.2539597" lon="114.1459022"><ele>244.4</ele></trkpt>
      <trkpt lat="22.2539213" lon="114.1459042"><ele>243.8</ele></trkpt>
      <trkpt lat="22.2537691" lon="114.1459076"><ele>241.0</ele></trkpt>
      <trkpt lat="22.2537538" lon="114.1459096"><ele>240.8</ele></trkpt>
      <trkpt lat="22.2537405" lon="114.1459132"><ele>240.7</ele></trkpt>
      <trkpt lat="22.2537273" lon="114.1459189"><ele>240.7</ele></trkpt>
      <trkpt lat="22.2537152" lon="114.1459266"><ele>240.7</ele></trkpt>
      <trkpt lat="22.2537031" lon="114.1459358"><ele>240.9</ele></trkpt>
      <trkpt lat="22.2536924" lon="114.1459467"><ele>241.1</ele></trkpt>
      <trkpt lat="22.2536824" lon="114.1459590"><ele>241.3</ele></trkpt>
      <trkpt lat="22.2536533" lon="114.1459985"><ele>242.2</ele></trkpt>
      <trkpt lat="22.2536379" lon="114.1460178"><ele>242.5</ele></trkpt>
      <trkpt lat="22.2536237" lon="114.1460330"><ele>242.6</ele></trkpt>
      <trkpt lat="22.2536080" lon="114.1460476"><ele>242.7</ele></trkpt>
      <trkpt lat="22.2535886" lon="114.1460639"><ele>242.7</ele></trkpt>
      <trkpt lat="22.2535656" lon="114.1460802"><ele>242.4</ele></trkpt>
      <trkpt lat="22.2535416" lon="114.1460942"><ele>241.9</ele></trkpt>
      <trkpt lat="22.2535169" lon="114.1461064"><ele>241.4</ele></trkpt>
      <trkpt lat="22.2534843" lon="114.1461206"><ele>240.6</ele></trkpt>
      <trkpt lat="22.2534497" lon="114.1461342"><ele>239.7</ele></trkpt>
      <trkpt lat="22.2534063" lon="114.1461492"><ele>238.5</ele></trkpt>
      <trkpt lat="22.2533673" lon="114.1461605"><ele>237.3</ele></trkpt>
      <trkpt lat="22.2533342" lon="114.1461679"><ele>236.2</ele></trkpt>
      <trkpt lat="22.2532345" lon="114.1461839"><ele>232.7</ele></trkpt>
      <trkpt lat="22.2532089" lon="114.1461865"><ele>231.8</ele></trkpt>
      <trkpt lat="22.2531895" lon="114.1461857"><ele>231.1</ele></trkpt>
      <trkpt lat="22.2531589" lon="114.1461799"><ele>230.0</ele></trkpt>
      <trkpt lat="22.2530976" lon="114.1461604"><ele>228.1</ele></trkpt>
      <trkpt lat="22.2530494" lon="114.1461307"><ele>227.0</ele></trkpt>
      <trkpt lat="22.2530066" lon="114.1461023"><ele>226.0</ele></trkpt>
      <trkpt lat="22.2529036" lon="114.1460165"><ele>223.1</ele></trkpt>
      <trkpt lat="22.2528921" lon="114.1459733"><ele>222.5</ele></trkpt>
      <trkpt lat="22.2528886" lon="114.1459482"><ele>222.3</ele></trkpt>
      <trkpt lat="22.2528782" lon="114.1459253"><ele>221.9</ele></trkpt>
      <trkpt lat="22.2528723" lon="114.1459059"><ele>221.7</ele></trkpt>
      <trkpt lat="22.2528700" lon="114.1458732"><ele>221.5</ele></trkpt>
      <trkpt lat="22.2528912" lon="114.1457774"><ele>221.4</ele></trkpt>
      <trkpt lat="22.2528882" lon="114.1457126"><ele>220.9</ele></trkpt>
      <trkpt lat="22.2528670" lon="114.1456728"><ele>219.7</ele></trkpt>
      <trkpt lat="22.2528215" lon="114.1456459"><ele>218.8</ele></trkpt>
      <trkpt lat="22.2526500" lon="114.1456201"><ele>216.4</ele></trkpt>
      <trkpt lat="22.2526070" lon="114.1456061"><ele>215.3</ele></trkpt>
      <trkpt lat="22.2525733" lon="114.1455844"><ele>214.3</ele></trkpt>
      <trkpt lat="22.2525635" lon="114.1455781"><ele>214.0</ele></trkpt>
      <trkpt lat="22.2525319" lon="114.1455360"><ele>212.9</ele></trkpt>
      <trkpt lat="22.2525026" lon="114.1454848"><ele>211.9</ele></trkpt>
      <trkpt lat="22.2524761" lon="114.1453981"><ele>210.7</ele></trkpt>
      <trkpt lat="22.2524511" lon="114.1452016"><ele>205.2</ele></trkpt>
      <trkpt lat="22.2524130" lon="114.1449621"><ele>198.2</ele></trkpt>
      <trkpt lat="22.2523591" lon="114.1447504"><ele>191.9</ele></trkpt>
      <trkpt lat="22.2523241" lon="114.1446080"><ele>187.9</ele></trkpt>
      <trkpt lat="22.2522973" lon="114.1445447"><ele>186.2</ele></trkpt>
      <trkpt lat="22.2522554" lon="114.1444703"><ele>184.2</ele></trkpt>
      <trkpt lat="22.2521997" lon="114.1444567"><ele>183.5</ele></trkpt>
      <trkpt lat="22.2521777" lon="114.1444436"><ele>183.1</ele></trkpt>
      <trkpt lat="22.2521591" lon="114.1444378"><ele>182.9</ele></trkpt>
      <trkpt lat="22.2520899" lon="114.1444538"><ele>182.6</ele></trkpt>
      <trkpt lat="22.2520639" lon="114.1444704"><ele>182.0</ele></trkpt>
      <trkpt lat="22.2520396" lon="114.1444968"><ele>181.3</ele></trkpt>
      <trkpt lat="22.2520164" lon="114.1445147"><ele>180.4</ele></trkpt>
      <trkpt lat="22.2519854" lon="114.1445643"><ele>179.6</ele></trkpt>
      <trkpt lat="22.2519563" lon="114.1446247"><ele>178.9</ele></trkpt>
      <trkpt lat="22.2519263" lon="114.1447823"><ele>179.4</ele></trkpt>
      <trkpt lat="22.2518671" lon="114.1448997"><ele>177.6</ele></trkpt>
      <trkpt lat="22.2518347" lon="114.1450095"><ele>176.9</ele></trkpt>
      <trkpt lat="22.2518222" lon="114.1450790"><ele>176.8</ele></trkpt>
      <trkpt lat="22.2518098" lon="114.1451311"><ele>176.5</ele></trkpt>
      <trkpt lat="22.2517960" lon="114.1452300"><ele>176.3</ele></trkpt>
      <trkpt lat="22.2518025" lon="114.1452932"><ele>177.2</ele></trkpt>
      <trkpt lat="22.2518103" lon="114.1453597"><ele>178.3</ele></trkpt>
      <trkpt lat="22.2518057" lon="114.1454287"><ele>177.2</ele></trkpt>
      <trkpt lat="22.2517877" lon="114.1454684"><ele>175.1</ele></trkpt>
      <trkpt lat="22.2517550" lon="114.1455177"><ele>171.6</ele></trkpt>
      <trkpt lat="22.2517030" lon="114.1456790"><ele>163.9</ele></trkpt>
      <trkpt lat="22.2516912" lon="114.1457516"><ele>160.2</ele></trkpt>
      <trkpt lat="22.2516547" lon="114.1458449"><ele>151.9</ele></trkpt>
      <trkpt lat="22.2516420" lon="114.1458907"><ele>148.4</ele></trkpt>
      <trkpt lat="22.2516354" lon="114.1459291"><ele>145.8</ele></trkpt>
      <trkpt lat="22.2516397" lon="114.1459770"><ele>143.7</ele></trkpt>
      <trkpt lat="22.2516505" lon="114.1460214"><ele>142.3</ele></trkpt>
      <trkpt lat="22.2516310" lon="114.1460097"><ele>141.2</ele></trkpt>
      <trkpt lat="22.2516073" lon="114.1459875"><ele>140.3</ele></trkpt>
      <trkpt lat="22.2515673" lon="114.1459256"><ele>139.9</ele></trkpt>
      <trkpt lat="22.2515705" lon="114.1459711"><ele>137.9</ele></trkpt>
      <trkpt lat="22.2515921" lon="114.1460575"><ele>135.5</ele></trkpt>
      <trkpt lat="22.2516073" lon="114.1460809"><ele>135.4</ele></trkpt>
      <trkpt lat="22.2516672" lon="114.1461263"><ele>137.6</ele></trkpt>
      <trkpt lat="22.2517449" lon="114.1461732"><ele>140.9</ele></trkpt>
      <trkpt lat="22.2517750" lon="114.1462007"><ele>141.4</ele></trkpt>
      <trkpt lat="22.2517816" lon="114.1462139"><ele>141.1</ele></trkpt>
      <trkpt lat="22.2517722" lon="114.1462220"><ele>139.8</ele></trkpt>
      <trkpt lat="22.2517054" lon="114.1462068"><ele>135.6</ele></trkpt>
      <trkpt lat="22.2517167" lon="114.1462372"><ele>134.5</ele></trkpt>
      <trkpt lat="22.2517421" lon="114.1462698"><ele>134.3</ele></trkpt>
      <trkpt lat="22.2518072" lon="114.1463055"><ele>136.9</ele></trkpt>
      <trkpt lat="22.2518571" lon="114.1463309"><ele>139.0</ele></trkpt>
      <trkpt lat="22.2518778" lon="114.1463472"><ele>139.4</ele></trkpt>
      <trkpt lat="22.2519046" lon="114.1463767"><ele>139.4</ele></trkpt>
      <trkpt lat="22.2519253" lon="114.1464133"><ele>138.5</ele></trkpt>
      <trkpt lat="22.2519619" lon="114.1465119"><ele>135.2</ele></trkpt>
      <trkpt lat="22.2519789" lon="114.1465332"><ele>135.1</ele></trkpt>
      <trkpt lat="22.2520005" lon="114.1465393"><ele>136.3</ele></trkpt>
      <trkpt lat="22.2520184" lon="114.1465413"><ele>137.5</ele></trkpt>
      <trkpt lat="22.2520259" lon="114.1465546"><ele>137.2</ele></trkpt>
      <trkpt lat="22.2520269" lon="114.1465810"><ele>135.6</ele></trkpt>
      <trkpt lat="22.2520410" lon="114.1466023"><ele>135.3</ele></trkpt>
      <trkpt lat="22.2520692" lon="114.1466267"><ele>135.8</ele></trkpt>
      <trkpt lat="22.2520842" lon="114.1466501"><ele>135.3</ele></trkpt>
      <trkpt lat="22.2520899" lon="114.1466826"><ele>133.7</ele></trkpt>
      <trkpt lat="22.2520965" lon="114.1467253"><ele>131.4</ele></trkpt>
      <trkpt lat="22.2521040" lon="114.1467558"><ele>130.1</ele></trkpt>
      <trkpt lat="22.2521191" lon="114.1467819"><ele>130.1</ele></trkpt>
      <trkpt lat="22.2521365" lon="114.1468251"><ele>129.5</ele></trkpt>
      <trkpt lat="22.2522248" lon="114.1469495"><ele>130.3</ele></trkpt>
      <trkpt lat="22.2522446" lon="114.1470091"><ele>129.1</ele></trkpt>
      <trkpt lat="22.2522756" lon="114.1470582"><ele>129.1</ele></trkpt>
      <trkpt lat="22.2522432" lon="114.1470558"><ele>127.1</ele></trkpt>
      <trkpt lat="22.2522510" lon="114.1470920"><ele>126.1</ele></trkpt>
      <trkpt lat="22.2522819" lon="114.1471097"><ele>127.8</ele></trkpt>
      <trkpt lat="22.2522666" lon="114.1471263"><ele>126.4</ele></trkpt>
      <trkpt lat="22.2522651" lon="114.1471458"><ele>125.9</ele></trkpt>
      <trkpt lat="22.2522704" lon="114.1471628"><ele>125.9</ele></trkpt>
      <trkpt lat="22.2522329" lon="114.1472005"><ele>122.7</ele></trkpt>
      <trkpt lat="22.2522149" lon="114.1472186"><ele>121.2</ele></trkpt>
      <trkpt lat="22.2522113" lon="114.1472222"><ele>120.9</ele></trkpt>
      <trkpt lat="22.2522212" lon="114.1472421"><ele>121.1</ele></trkpt>
      <trkpt lat="22.2522264" lon="114.1472979"><ele>120.3</ele></trkpt>
      <trkpt lat="22.2522409" lon="114.1473419"><ele>120.3</ele></trkpt>
      <trkpt lat="22.2522599" lon="114.1473834"><ele>120.6</ele></trkpt>
      <trkpt lat="22.2522723" lon="114.1474251"><ele>120.5</ele></trkpt>
      <trkpt lat="22.2522722" lon="114.1474466"><ele>120.0</ele></trkpt>
      <trkpt lat="22.2523036" lon="114.1475823"><ele>118.1</ele></trkpt>
      <trkpt lat="22.2523091" lon="114.1476712"><ele>116.0</ele></trkpt>
      <trkpt lat="22.2523210" lon="114.1477385"><ele>114.8</ele></trkpt>
      <trkpt lat="22.2523265" lon="114.1478514"><ele>111.5</ele></trkpt>
      <trkpt lat="22.2523278" lon="114.1479998"><ele>106.5</ele></trkpt>
      <trkpt lat="22.2523385" lon="114.1480353"><ele>105.8</ele></trkpt>
      <trkpt lat="22.2523592" lon="114.1480700"><ele>105.7</ele></trkpt>
      <trkpt lat="22.2524321" lon="114.1481440"><ele>106.5</ele></trkpt>
      <trkpt lat="22.2524703" lon="114.1481614"><ele>107.5</ele></trkpt>
      <trkpt lat="22.2525865" lon="114.1481977"><ele>111.5</ele></trkpt>
      <trkpt lat="22.2526115" lon="114.1482044"><ele>112.5</ele></trkpt>
      <trkpt lat="22.2527434" lon="114.1481988"><ele>118.7</ele></trkpt>
      <trkpt lat="22.2527632" lon="114.1481996"><ele>119.4</ele></trkpt>
      <trkpt lat="22.2527745" lon="114.1482038"><ele>119.7</ele></trkpt>
      <trkpt lat="22.2527973" lon="114.1482158"><ele>120.0</ele></trkpt>
      <trkpt lat="22.2528125" lon="114.1482293"><ele>120.0</ele></trkpt>
      <trkpt lat="22.2528260" lon="114.1482508"><ele>119.6</ele></trkpt>
      <trkpt lat="22.2528447" lon="114.1483635"><ele>115.6</ele></trkpt>
      <trkpt lat="22.2528661" lon="114.1484049"><ele>114.6</ele></trkpt>
      <trkpt lat="22.2529044" lon="114.1484553"><ele>113.8</ele></trkpt>
      <trkpt lat="22.2529206" lon="114.1484819"><ele>113.4</ele></trkpt>
      <trkpt lat="22.2529505" lon="114.1485743"><ele>111.4</ele></trkpt>
      <trkpt lat="22.2530053" lon="114.1486408"><ele>111.2</ele></trkpt>
      <trkpt lat="22.2530890" lon="114.1487040"><ele>112.6</ele></trkpt>
      <trkpt lat="22.2532060" lon="114.1487840"><ele>114.8</ele></trkpt>
      <trkpt lat="22.2533163" lon="114.1488606"><ele>117.9</ele></trkpt>
      <trkpt lat="22.2533621" lon="114.1488848"><ele>119.8</ele></trkpt>
      <trkpt lat="22.2534252" lon="114.1488948"><ele>123.3</ele></trkpt>
      <trkpt lat="22.2534701" lon="114.1489081"><ele>125.7</ele></trkpt>
      <trkpt lat="22.2534797" lon="114.1489147"><ele>126.2</ele></trkpt>
      <trkpt lat="22.2534944" lon="114.1489249"><ele>126.9</ele></trkpt>
      <trkpt lat="22.2535142" lon="114.1489407"><ele>127.9</ele></trkpt>
      <trkpt lat="22.2535372" lon="114.1489668"><ele>129.0</ele></trkpt>
      <trkpt lat="22.2535519" lon="114.1489904"><ele>129.6</ele></trkpt>
      <trkpt lat="22.2535601" lon="114.1490269"><ele>129.8</ele></trkpt>
      <trkpt lat="22.2535631" lon="114.1490642"><ele>129.6</ele></trkpt>
      <trkpt lat="22.2535541" lon="114.1490994"><ele>128.8</ele></trkpt>
      <trkpt lat="22.2534788" lon="114.1492775"><ele>124.7</ele></trkpt>
      <trkpt lat="22.2534643" lon="114.1492980"><ele>123.8</ele></trkpt>
      <trkpt lat="22.2534476" lon="114.1493162"><ele>122.9</ele></trkpt>
      <trkpt lat="22.2534208" lon="114.1493270"><ele>121.2</ele></trkpt>
      <trkpt lat="22.2533865" lon="114.1493515"><ele>119.1</ele></trkpt>
      <trkpt lat="22.2533540" lon="114.1493925"><ele>117.0</ele></trkpt>
      <trkpt lat="22.2533425" lon="114.1494206"><ele>116.3</ele></trkpt>
      <trkpt lat="22.2533402" lon="114.1494719"><ele>116.1</ele></trkpt>
      <trkpt lat="22.2533451" lon="114.1495271"><ele>116.0</ele></trkpt>
      <trkpt lat="22.2534183" lon="114.1497240"><ele>119.0</ele></trkpt>
      <trkpt lat="22.2534520" lon="114.1497650"><ele>121.1</ele></trkpt>
      <trkpt lat="22.2534658" lon="114.1497898"><ele>121.9</ele></trkpt>
      <trkpt lat="22.2534746" lon="114.1498159"><ele>122.3</ele></trkpt>
      <trkpt lat="22.2534796" lon="114.1498420"><ele>122.3</ele></trkpt>
      <trkpt lat="22.2534857" lon="114.1499440"><ele>119.1</ele></trkpt>
      <trkpt lat="22.2535073" lon="114.1500142"><ele>118.2</ele></trkpt>
      <trkpt lat="22.2535390" lon="114.1500839"><ele>117.9</ele></trkpt>
      <trkpt lat="22.2536082" lon="114.1501825"><ele>119.3</ele></trkpt>
      <trkpt lat="22.2536433" lon="114.1502399"><ele>119.1</ele></trkpt>
      <trkpt lat="22.2536548" lon="114.1503174"><ele>116.1</ele></trkpt>
      <trkpt lat="22.2536584" lon="114.1503748"><ele>113.5</ele></trkpt>
      <trkpt lat="22.2536745" lon="114.1504436"><ele>111.2</ele></trkpt>
      <trkpt lat="22.2536882" lon="114.1504855"><ele>110.1</ele></trkpt>
      <trkpt lat="22.2537141" lon="114.1505220"><ele>110.0</ele></trkpt>
      <trkpt lat="22.2538994" lon="114.1507529"><ele>114.3</ele></trkpt>
      <trkpt lat="22.2539470" lon="114.1508035"><ele>115.6</ele></trkpt>
      <trkpt lat="22.2540323" lon="114.1508274"><ele>120.5</ele></trkpt>
      <trkpt lat="22.2540486" lon="114.1508369"><ele>121.3</ele></trkpt>
      <trkpt lat="22.2540611" lon="114.1508533"><ele>121.5</ele></trkpt>
      <trkpt lat="22.2540649" lon="114.1508738"><ele>121.2</ele></trkpt>
      <trkpt lat="22.2540697" lon="114.1509411"><ele>120.8</ele></trkpt>
      <trkpt lat="22.2540608" lon="114.1510296"><ele>119.2</ele></trkpt>
      <trkpt lat="22.2540650" lon="114.1511331"><ele>118.4</ele></trkpt>
      <trkpt lat="22.2541024" lon="114.1512894"><ele>119.7</ele></trkpt>
      <trkpt lat="22.2541090" lon="114.1513387"><ele>120.0</ele></trkpt>
      <trkpt lat="22.2541098" lon="114.1513923"><ele>120.0</ele></trkpt>
      <trkpt lat="22.2540928" lon="114.1514642"><ele>118.9</ele></trkpt>
      <trkpt lat="22.2540780" lon="114.1516586"><ele>115.6</ele></trkpt>
      <trkpt lat="22.2540809" lon="114.1517115"><ele>114.6</ele></trkpt>
      <trkpt lat="22.2541045" lon="114.1517800"><ele>114.2</ele></trkpt>
      <trkpt lat="22.2541516" lon="114.1518612"><ele>114.6</ele></trkpt>
      <trkpt lat="22.2542392" lon="114.1519560"><ele>115.0</ele></trkpt>
      <trkpt lat="22.2542699" lon="114.1519802"><ele>115.3</ele></trkpt>
      <trkpt lat="22.2543298" lon="114.1520151"><ele>115.9</ele></trkpt>
      <trkpt lat="22.2543890" lon="114.1520498"><ele>115.9</ele></trkpt>
      <trkpt lat="22.2544609" lon="114.1520918"><ele>115.9</ele></trkpt>
      <trkpt lat="22.2544946" lon="114.1520852"><ele>117.2</ele></trkpt>
      <trkpt lat="22.2545303" lon="114.1521082"><ele>117.0</ele></trkpt>
      <trkpt lat="22.2545360" lon="114.1521318"><ele>115.8</ele></trkpt>
      <trkpt lat="22.2545770" lon="114.1521653"><ele>115.1</ele></trkpt>
      <trkpt lat="22.2548158" lon="114.1522728"><ele>116.3</ele></trkpt>
      <trkpt lat="22.2549052" lon="114.1522914"><ele>118.1</ele></trkpt>
      <trkpt lat="22.2549650" lon="114.1522966"><ele>119.8</ele></trkpt>
      <trkpt lat="22.2550102" lon="114.1523082"><ele>121.1</ele></trkpt>
      <trkpt lat="22.2550563" lon="114.1523452"><ele>121.5</ele></trkpt>
      <trkpt lat="22.2550764" lon="114.1523794"><ele>120.9</ele></trkpt>
      <trkpt lat="22.2550849" lon="114.1524105"><ele>119.9</ele></trkpt>
      <trkpt lat="22.2550941" lon="114.1524925"><ele>117.0</ele></trkpt>
      <trkpt lat="22.2551689" lon="114.1526313"><ele>115.2</ele></trkpt>
      <trkpt lat="22.2553025" lon="114.1527992"><ele>116.7</ele></trkpt>
      <trkpt lat="22.2553960" lon="114.1529051"><ele>117.0</ele></trkpt>
      <trkpt lat="22.2555449" lon="114.1529955"><ele>119.6</ele></trkpt>
      <trkpt lat="22.2556018" lon="114.1530436"><ele>120.4</ele></trkpt>
      <trkpt lat="22.2557627" lon="114.1532213"><ele>121.6</ele></trkpt>
      <trkpt lat="22.2558137" lon="114.1532468"><ele>122.1</ele></trkpt>
      <trkpt lat="22.2558726" lon="114.1532766"><ele>122.6</ele></trkpt>
      <trkpt lat="22.2559529" lon="114.1533430"><ele>124.8</ele></trkpt>
      <trkpt lat="22.2560995" lon="114.1534449"><ele>128.0</ele></trkpt>
      <trkpt lat="22.2561760" lon="114.1534993"><ele>129.0</ele></trkpt>
      <trkpt lat="22.2562140" lon="114.1535290"><ele>129.2</ele></trkpt>
      <trkpt lat="22.2562350" lon="114.1535653"><ele>128.9</ele></trkpt>
      <trkpt lat="22.2562423" lon="114.1535868"><ele>128.7</ele></trkpt>
      <trkpt lat="22.2562497" lon="114.1536200"><ele>128.4</ele></trkpt>
      <trkpt lat="22.2562497" lon="114.1536680"><ele>128.7</ele></trkpt>
      <trkpt lat="22.2562342" lon="114.1537158"><ele>129.0</ele></trkpt>
      <trkpt lat="22.2562058" lon="114.1537569"><ele>129.2</ele></trkpt>
      <trkpt lat="22.2561706" lon="114.1537846"><ele>129.6</ele></trkpt>
      <trkpt lat="22.2561245" lon="114.1538048"><ele>129.9</ele></trkpt>
      <trkpt lat="22.2560824" lon="114.1538047"><ele>130.1</ele></trkpt>
      <trkpt lat="22.2560424" lon="114.1537929"><ele>129.9</ele></trkpt>
      <trkpt lat="22.2559957" lon="114.1537679"><ele>129.4</ele></trkpt>
      <trkpt lat="22.2556546" lon="114.1535805"><ele>124.1</ele></trkpt>
    </trkseg>
  </trk>
</gpx>