<?xml version='1.0' encoding='UTF-8'?>
<gpx xmlns="http://www.topografix.com/GPX/1/1" version="1.1" creator="HillGPX import_gpx.py">
  <metadata>
    <name>Hong Kong Trail Section 3</name>
    <desc>Imported from https://www.openstreetmap.org/relation/11814653 · ODbL © OpenStreetMap contributors</desc>
  </metadata>
  <trk>
    <name>Hong Kong Trail Section 3</name>
    <trkseg>
      <trkpt lat="22.2556546" lon="114.1535805"><ele>124.1</ele></trkpt>
      <trkpt lat="22.2556558" lon="114.1536006"><ele>124.5</ele></trkpt>
      <trkpt lat="22.2556614" lon="114.1536234"><ele>125.2</ele></trkpt>
      <trkpt lat="22.2556658" lon="114.1536377"><ele>125.9</ele></trkpt>
      <trkpt lat="22.2556874" lon="114.1537072"><ele>129.0</ele></trkpt>
      <trkpt lat="22.2557025" lon="114.1537423"><ele>130.5</ele></trkpt>
      <trkpt lat="22.2557225" lon="114.1537672"><ele>131.4</ele></trkpt>
      <trkpt lat="22.2557577" lon="114.1537929"><ele>132.0</ele></trkpt>
      <trkpt lat="22.2558855" lon="114.1538190"><ele>131.3</ele></trkpt>
      <trkpt lat="22.2559173" lon="114.1538310"><ele>131.5</ele></trkpt>
      <trkpt lat="22.2559794" lon="114.1538624"><ele>132.0</ele></trkpt>
      <trkpt lat="22.2560292" lon="114.1538970"><ele>132.5</ele></trkpt>
      <trkpt lat="22.2560789" lon="114.1539497"><ele>133.0</ele></trkpt>
      <trkpt lat="22.2561570" lon="114.1541282"><ele>137.4</ele></trkpt>
      <trkpt lat="22.2561877" lon="114.1541678"><ele>137.8</ele></trkpt>
      <trkpt lat="22.2562198" lon="114.1541945"><ele>137.8</ele></trkpt>
      <trkpt lat="22.2562567" lon="114.1542087"><ele>137.2</ele></trkpt>
      <trkpt lat="22.2563378" lon="114.1542219"><ele>135.4</ele></trkpt>
      <trkpt lat="22.2564143" lon="114.1542418"><ele>133.7</ele></trkpt>
      <trkpt lat="22.2564713" lon="114.1542730"><ele>132.5</ele></trkpt>
      <trkpt lat="22.2565082" lon="114.1543020"><ele>131.8</ele></trkpt>
      <trkpt lat="22.2565251" lon="114.1543087"><ele>131.4</ele></trkpt>
      <trkpt lat="22.2565426" lon="114.1543094"><ele>131.2</ele></trkpt>
      <trkpt lat="22.2565564" lon="114.1542983"><ele>131.0</ele></trkpt>
      <trkpt lat="22.2565706" lon="114.1542754"><ele>130.8</ele></trkpt>
      <trkpt lat="22.2565922" lon="114.1542483"><ele>130.7</ele></trkpt>
      <trkpt lat="22.2566170" lon="114.1542090"><ele>130.5</ele></trkpt>
      <trkpt lat="22.2566300" lon="114.1541960"><ele>130.5</ele></trkpt>
      <trkpt lat="22.2566492" lon="114.1541906"><ele>130.5</ele></trkpt>
      <trkpt lat="22.2566803" lon="114.1541915"><ele>130.6</ele></trkpt>
      <trkpt lat="22.2567089" lon="114.1541941"><ele>130.8</ele></trkpt>
      <trkpt lat="22.2567411" lon="114.1541998"><ele>130.9</ele></trkpt>
      <trkpt lat="22.2567764" lon="114.1542149"><ele>131.0</ele></trkpt>
      <trkpt lat="22.2568600" lon="114.1542600"><ele>131.5</ele></trkpt>
      <trkpt lat="22.2569375" lon="114.1543128"><ele>133.9</ele></trkpt>
      <trkpt lat="22.2570200" lon="114.1543690"><ele>136.7</ele></trkpt>
      <trkpt lat="22.2570920" lon="114.1544295"><ele>138.8</ele></trkpt>
      <trkpt lat="22.2571488" lon="114.1544769"><ele>140.1</ele></trkpt>
      <trkpt lat="22.2571850" lon="114.1545160"><ele>140.9</ele></trkpt>
      <trkpt lat="22.2572624" lon="114.1546013"><ele>142.6</ele></trkpt>
      <trkpt lat="22.2572876" lon="114.1546260"><ele>143.1</ele></trkpt>
      <trkpt lat="22.2573200" lon="114.1546510"><ele>143.8</ele></trkpt>
      <trkpt lat="22.2573610" lon="114.1546790"><ele>144.7</ele></trkpt>
      <trkpt lat="22.2574990" lon="114.1547510"><ele>147.4</ele></trkpt>
      <trkpt lat="22.2575380" lon="114.1547800"><ele>148.2</ele></trkpt>
      <trkpt lat="22.2575780" lon="114.1548210"><ele>148.8</ele></trkpt>
      <trkpt lat="22.2576200" lon="114.1548700"><ele>149.4</ele></trkpt>
      <trkpt lat="22.2577000" lon="114.1549730"><ele>150.5</ele></trkpt>
      <trkpt lat="22.2577452" lon="114.1550213"><ele>151.6</ele></trkpt>
      <trkpt lat="22.2577900" lon="114.1550541"><ele>152.5</ele></trkpt>
      <trkpt lat="22.2579944" lon="114.1552020"><ele>156.5</ele></trkpt>
      <trkpt lat="22.2580378" lon="114.1552266"><ele>157.2</ele></trkpt>
      <trkpt lat="22.2580788" lon="114.1552430"><ele>157.9</ele></trkpt>
      <trkpt lat="22.2581200" lon="114.1552520"><ele>158.7</ele></trkpt>
      <trkpt lat="22.2581700" lon="114.1552543"><ele>159.5</ele></trkpt>
      <trkpt lat="22.2582276" lon="114.1552523"><ele>160.5</ele></trkpt>
      <trkpt lat="22.2583100" lon="114.1552440"><ele>161.9</ele></trkpt>
      <trkpt lat="22.2584100" lon="114.1552300"><ele>163.7</ele></trkpt>
      <trkpt lat="22.2585100" lon="114.1552080"><ele>165.5</ele></trkpt>
      <trkpt lat="22.2585616" lon="114.1551939"><ele>166.5</ele></trkpt>
      <trkpt lat="22.2586000" lon="114.1551746"><ele>167.3</ele></trkpt>
      <trkpt lat="22.2586290" lon="114.1551600"><ele>168.0</ele></trkpt>
      <trkpt lat="22.2586600" lon="114.1551550"><ele>168.6</ele></trkpt>
      <trkpt lat="22.2586882" lon="114.1551613"><ele>168.9</ele></trkpt>
      <trkpt lat="22.2587088" lon="114.1551688"><ele>169.1</ele></trkpt>
      <trkpt lat="22.2587507" lon="114.1551853"><ele>169.5</ele></trkpt>
      <trkpt lat="22.2587730" lon="114.1551919"><ele>169.6</ele></trkpt>
      <trkpt lat="22.2588188" lon="114.1552000"><ele>169.8</ele></trkpt>
      <trkpt lat="22.2589206" lon="114.1552059"><ele>170.6</ele></trkpt>
      <trkpt lat="22.2590194" lon="114.1552049"><ele>171.5</ele></trkpt>
      <trkpt lat="22.2591206" lon="114.1551992"><ele>172.7</ele></trkpt>
      <trkpt lat="22.2593006" lon="114.1551717"><ele>175.9</ele></trkpt>
      <trkpt lat="22.2593111" lon="114.1551692"><ele>176.2</ele></trkpt>
      <trkpt lat="22.2593201" lon="114.1551654"><ele>176.4</ele></trkpt>
      <trkpt lat="22.2593289" lon="114.1551588"><ele>176.6</ele></trkpt>
      <trkpt lat="22.2593328" lon="114.1551504"><ele>176.9</ele></trkpt>
      <trkpt lat="22.2593338" lon="114.1551407"><ele>177.1</ele></trkpt>
      <trkpt lat="22.2593311" lon="114.1551316"><ele>177.2</ele></trkpt>
      <trkpt lat="22.2593261" lon="114.1551237"><ele>177.3</ele></trkpt>
      <trkpt lat="22.2593192" lon="114.1551175"><ele>177.4</ele></trkpt>
      <trkpt lat="22.2593114" lon="114.1551130"><ele>177.3</ele></trkpt>
      <trkpt lat="22.2593017" lon="114.1551096"><ele>177.3</ele></trkpt>
      <trkpt lat="22.2592022" lon="114.1550830"><ele>176.5</ele></trkpt>
      <trkpt lat="22.2591782" lon="114.1550782"><ele>176.3</ele></trkpt>
      <trkpt lat="22.2591584" lon="114.1550760"><ele>176.1</ele></trkpt>
      <trkpt lat="22.2590824" lon="114.1550728"><ele>175.1</ele></trkpt>
      <trkpt lat="22.2590620" lon="114.1550708"><ele>174.9</ele></trkpt>
      <trkpt lat="22.2590424" lon="114.1550668"><ele>174.8</ele></trkpt>
      <trkpt lat="22.2590202" lon="114.1550597"><ele>174.7</ele></trkpt>
      <trkpt lat="22.2589890" lon="114.1550472"><ele>174.6</ele></trkpt>
      <trkpt lat="22.2589698" lon="114.1550377"><ele>174.6</ele></trkpt>
      <trkpt lat="22.2589571" lon="114.1550285"><ele>174.7</ele></trkpt>
      <trkpt lat="22.2589398" lon="114.1550116"><ele>174.8</ele></trkpt>
      <trkpt lat="22.2589257" lon="114.1549951"><ele>175.0</ele></trkpt>
      <trkpt lat="22.2589124" lon="114.1549764"><ele>175.3</ele></trkpt>
      <trkpt lat="22.2589019" lon="114.1549586"><ele>175.7</ele></trkpt>
      <trkpt lat="22.2588948" lon="114.1549430"><ele>176.1</ele></trkpt>
      <trkpt lat="22.2588909" lon="114.1549287"><ele>176.5</ele></trkpt>
      <trkpt lat="22.2588883" lon="114.1549126"><ele>176.9</ele></trkpt>
      <trkpt lat="22.2588865" lon="114.1548877"><ele>177.6</ele></trkpt>
      <trkpt lat="22.2588859" lon="114.1548623"><ele>178.4</ele></trkpt>
      <trkpt lat="22.2588867" lon="114.1547824"><ele>180.8</ele></trkpt>
      <trkpt lat="22.2588859" lon="114.1547680"><ele>181.2</ele></trkpt>
      <trkpt lat="22.2588836" lon="114.1547526"><ele>181.6</ele></trkpt>
      <trkpt lat="22.2588784" lon="114.1547311"><ele>182.1</ele></trkpt>
      <trkpt lat="22.2588553" lon="114.1546480"><ele>184.1</ele></trkpt>
      <trkpt lat="22.2588450" lon="114.1546028"><ele>184.8</ele></trkpt>
      <trkpt lat="22.2588283" lon="114.1545160"><ele>186.1</ele></trkpt>
      <trkpt lat="22.2588244" lon="114.1544885"><ele>186.5</ele></trkpt>
      <trkpt lat="22.2589570" lon="114.1546041"><ele>187.4</ele></trkpt>
      <trkpt lat="22.2590151" lon="114.1546965"><ele>186.0</ele></trkpt>
      <trkpt lat="22.2590639" lon="114.1547351"><ele>185.6</ele></trkpt>
      <trkpt lat="22.2591034" lon="114.1547384"><ele>186.1</ele></trkpt>
      <trkpt lat="22.2591354" lon="114.1547289"><ele>187.0</ele></trkpt>
      <trkpt lat="22.2591741" lon="114.1547292"><ele>187.5</ele></trkpt>
      <trkpt lat="22.2593283" lon="114.1547578"><ele>188.8</ele></trkpt>
      <trkpt lat="22.2593798" lon="114.1547588"><ele>189.5</ele></trkpt>
      <trkpt lat="22.2594223" lon="114.1547501"><ele>190.2</ele></trkpt>
      <trkpt lat="22.2594568" lon="114.1547278"><ele>191.4</ele></trkpt>
      <trkpt lat="22.2594802" lon="114.1547127"><ele>192.2</ele></trkpt>
      <trkpt lat="22.2595030" lon="114.1547160"><ele>192.3</ele></trkpt>
      <trkpt lat="22.2595594" lon="114.1547386"><ele>191.9</ele></trkpt>
      <trkpt lat="22.2596296" lon="114.1547356"><ele>192.6</ele></trkpt>
      <trkpt lat="22.2596942" lon="114.1547151"><ele>194.0</ele></trkpt>
      <trkpt lat="22.2598749" lon="114.1547066"><ele>196.2</ele></trkpt>
      <trkpt lat="22.2599918" lon="114.1546754"><ele>198.6</ele></trkpt>
      <trkpt lat="22.2603777" lon="114.1545299"><ele>206.2</ele></trkpt>
      <trkpt lat="22.2604683" lon="114.1544792"><ele>207.8</ele></trkpt>
      <trkpt lat="22.2605656" lon="114.1543960"><ele>209.1</ele></trkpt>
      <trkpt lat="22.2606836" lon="114.1542513"><ele>210.4</ele></trkpt>
      <trkpt lat="22.2607112" lon="114.1542220"><ele>211.3</ele></trkpt>
      <trkpt lat="22.2607351" lon="114.1542077"><ele>211.9</ele></trkpt>
      <trkpt lat="22.2607634" lon="114.1542027"><ele>212.3</ele></trkpt>
      <trkpt lat="22.2607943" lon="114.1542090"><ele>212.7</ele></trkpt>
      <trkpt lat="22.2608141" lon="114.1542304"><ele>212.8</ele></trkpt>
      <trkpt lat="22.2608196" lon="114.1542363"><ele>212.9</ele></trkpt>
      <trkpt lat="22.2608396" lon="114.1542791"><ele>213.0</ele></trkpt>
      <trkpt lat="22.2608587" lon="114.1543365"><ele>213.5</ele></trkpt>
      <trkpt lat="22.2608628" lon="114.1543946"><ele>213.9</ele></trkpt>
      <trkpt lat="22.2608404" lon="114.1545278"><ele>213.8</ele></trkpt>
      <trkpt lat="22.2608161" lon="114.1546050"><ele>213.2</ele></trkpt>
      <trkpt lat="22.2608063" lon="114.1546453"><ele>212.9</ele></trkpt>
      <trkpt lat="22.2608125" lon="114.1546767"><ele>213.1</ele></trkpt>
      <trkpt lat="22.2608745" lon="114.1548949"><ele>215.5</ele></trkpt>
      <trkpt lat="22.2608879" lon="114.1549969"><ele>216.0</ele></trkpt>
      <trkpt lat="22.2608076" lon="114.1552560"><ele>214.8</ele></trkpt>
      <trkpt lat="22.2608576" lon="114.1553102"><ele>217.4</ele></trkpt>
      <trkpt lat="22.2607081" lon="114.1554482"><ele>211.8</ele></trkpt>
      <trkpt lat="22.2604636" lon="114.1555044"><ele>203.1</ele></trkpt>
      <trkpt lat="22.2603862" lon="114.1557296"><ele>201.3</ele></trkpt>
      <trkpt lat="22.2603865" lon="114.1558554"><ele>201.1</ele></trkpt>
      <trkpt lat="22.2604926" lon="114.1560015"><ele>205.1</ele></trkpt>
      <trkpt lat="22.2604080" lon="114.1561483"><ele>200.9</ele></trkpt>
      <trkpt lat="22.2603729" lon="114.1564459"><ele>198.5</ele></trkpt>
      <trkpt lat="22.2605510" lon="114.1569502"><ele>209.4</ele></trkpt>
      <trkpt lat="22.2605300" lon="114.1569908"><ele>209.1</ele></trkpt>
      <trkpt lat="22.2603907" lon="114.1569868"><ele>204.5</ele></trkpt>
      <trkpt lat="22.2601099" lon="114.1572644"><ele>201.2</ele></trkpt>
      <trkpt lat="22.2600705" lon="114.1574154"><ele>202.5</ele></trkpt>
      <trkpt lat="22.2600904" lon="114.1578986"><ele>208.5</ele></trkpt>
      <trkpt lat="22.2599603" lon="114.1580969"><ele>210.9</ele></trkpt>
      <trkpt lat="22.2599104" lon="114.1580939"><ele>211.2</ele></trkpt>
      <trkpt lat="22.2598769" lon="114.1579894"><ele>208.8</ele></trkpt>
      <trkpt lat="22.2596867" lon="114.1578202"><ele>204.0</ele></trkpt>
      <trkpt lat="22.2596228" lon="114.1575830"><ele>198.1</ele></trkpt>
      <trkpt lat="22.2593510" lon="114.1575336"><ele>197.7</ele></trkpt>
      <trkpt lat="22.2592193" lon="114.1576897"><ele>206.0</ele></trkpt>
      <trkpt lat="22.2589996" lon="114.1574556"><ele>201.7</ele></trkpt>
      <trkpt lat="22.2590175" lon="114.1572012"><ele>192.4</ele></trkpt>
      <trkpt lat="22.2588730" lon="114.1571631"><ele>195.9</ele></trkpt>
      <trkpt lat="22.2585645" lon="114.1572021"><ele>209.7</ele></trkpt>
      <trkpt lat="22.2584387" lon="114.1569340"><ele>201.4</ele></trkpt>
      <trkpt lat="22.2581461" lon="114.1567330"><ele>200.6</ele></trkpt>
      <trkpt lat="22.2580276" lon="114.1565286"><ele>195.2</ele></trkpt>
      <trkpt lat="22.2578206" lon="114.1564091"><ele>198.1</ele></trkpt>
      <trkpt lat="22.2577107" lon="114.1562128"><ele>191.1</ele></trkpt>
      <trkpt lat="22.2575716" lon="114.1560875"><ele>187.1</ele></trkpt>
      <trkpt lat="22.2573145" lon="114.1561365"><ele>189.3</ele></trkpt>
      <trkpt lat="22.2568098" lon="114.1566576"><ele>206.4</ele></trkpt>
      <trkpt lat="22.2564667" lon="114.1566190"><ele>210.1</ele></trkpt>
      <trkpt lat="22.2564204" lon="114.1564044"><ele>203.7</ele></trkpt>
      <trkpt lat="22.2562603" lon="114.1562745"><ele>204.5</ele></trkpt>
      <trkpt lat="22.2562160" lon="114.1558378"><ele>185.5</ele></trkpt>
      <trkpt lat="22.2560622" lon="114.1556242"><ele>181.6</ele></trkpt>
      <trkpt lat="22.2558740" lon="114.1555318"><ele>187.0</ele></trkpt>
      <trkpt lat="22.2557777" lon="114.1553840"><ele>188.2</ele></trkpt>
      <trkpt lat="22.2558149" lon="114.1550350"><ele>180.6</ele></trkpt>
      <trkpt lat="22.2556503" lon="114.1548572"><ele>181.4</ele></trkpt>
      <trkpt lat="22.2553771" lon="114.1548412"><ele>189.7</ele></trkpt>
      <trkpt lat="22.2552827" lon="114.1547195"><ele>188.2</ele></trkpt>
      <trkpt lat="22.2551947" lon="114.1545490"><ele>182.3</ele></trkpt>
      <trkpt lat="22.2550032" lon="114.1544640"><ele>180.9</ele></trkpt>
      <trkpt lat="22.2548885" lon="114.1543916"><ele>178.7</ele></trkpt>
      <trkpt lat="22.2548379" lon="114.1543475"><ele>177.0</ele></trkpt>
      <trkpt lat="22.2547187" lon="114.1543506"><ele>177.2</ele></trkpt>
      <trkpt lat="22.2546376" lon="114.1543763"><ele>178.0</ele></trkpt>
      <trkpt lat="22.2546343" lon="114.1543781"><ele>178.0</ele></trkpt>
      <trkpt lat="22.2546209" lon="114.1543857"><ele>178.1</ele></trkpt>
      <trkpt lat="22.2546042" lon="114.1543988"><ele>177.9</ele></trkpt>
      <trkpt lat="22.2545870" lon="114.1544316"><ele>178.2</ele></trkpt>
      <trkpt lat="22.2545639" lon="114.1545673"><ele>181.0</ele></trkpt>
      <trkpt lat="22.2545412" lon="114.1546083"><ele>181.4</ele></trkpt>
      <trkpt lat="22.2545134" lon="114.1546382"><ele>181.3</ele></trkpt>
      <trkpt lat="22.2544239" lon="114.1547012"><ele>180.3</ele></trkpt>
      <trkpt lat="22.2542405" lon="114.1550525"><ele>184.5</ele></trkpt>
      <trkpt lat="22.2539403" lon="114.1552651"><ele>178.0</ele></trkpt>
      <trkpt lat="22.2536294" lon="114.1554201"><ele>164.9</ele></trkpt>
      <trkpt lat="22.2536010" lon="114.1554987"><ele>163.4</ele></trkpt>
      <trkpt lat="22.2536041" lon="114.1555702"><ele>163.2</ele></trkpt>
      <trkpt lat="22.2536941" lon="114.1556547"><ele>167.0</ele></trkpt>
      <trkpt lat="22.2538273" lon="114.1557891"><ele>171.9</ele></trkpt>
      <trkpt lat="22.2538939" lon="114.1560243"><ele>171.8</ele></trkpt>
      <trkpt lat="22.2538074" lon="114.1562829"><ele>162.2</ele></trkpt>
      <trkpt lat="22.2536404" lon="114.1564235"><ele>155.2</ele></trkpt>
      <trkpt lat="22.2536132" lon="114.1566417"><ele>148.5</ele></trkpt>
      <trkpt lat="22.2536910" lon="114.1567478"><ele>147.1</ele></trkpt>
      <trkpt lat="22.2541430" lon="114.1566553"><ele>155.2</ele></trkpt>
      <trkpt lat="22.2544542" lon="114.1565205"><ele>167.1</ele></trkpt>
      <trkpt lat="22.2546121" lon="114.1565822"><ele>169.2</ele></trkpt>
      <trkpt lat="22.2546904" lon="114.1566993"><ele>168.8</ele></trkpt>
      <trkpt lat="22.2548001" lon="114.1571990"><ele>166.0</ele></trkpt>
      <trkpt lat="22.2549041" lon="114.1578765"><ele>156.2</ele></trkpt>
      <trkpt lat="22.2549554" lon="114.1579292"><ele>156.6</ele></trkpt>
      <trkpt lat="22.2551471" lon="114.1578784"><ele>165.4</ele></trkpt>
      <trkpt lat="22.2552919" lon="114.1577706"><ele>174.7</ele></trkpt>
      <trkpt lat="22.2554341" lon="114.1579920"><ele>172.1</ele></trkpt>
      <trkpt lat="22.2555801" lon="114.1581823"><ele>171.1</ele></trkpt>
      <trkpt lat="22.2557298" lon="114.1583533"><ele>172.0</ele></trkpt>
      <trkpt lat="22.2559606" lon="114.1583578"><ele>183.0</ele></trkpt>
      <trkpt lat="22.2560838" lon="114.1584515"><ele>185.6</ele></trkpt>
      <trkpt lat="22.2561287" lon="114.1586282"><ele>180.5</ele></trkpt>
      <trkpt lat="22.2564452" lon="114.1589335"><ele>181.8</ele></trkpt>
      <trkpt lat="22.2566634" lon="114.1589930"><ele>187.4</ele></trkpt>
      <trkpt lat="22.2568649" lon="114.1591743"><ele>186.4</ele></trkpt>
      <trkpt lat="22.2568923" lon="114.1593698"><ele>178.1</ele></trkpt>
      <trkpt lat="22.2571483" lon="114.1595238"><ele>177.4</ele></trkpt>
      <trkpt lat="22.2574207" lon="114.1596073"><ele>178.1</ele></trkpt>
      <trkpt lat="22.2575310" lon="114.1594824"><ele>186.8</ele></trkpt>
      <trkpt lat="22.2576690" lon="114.1594107"><ele>192.6</ele></trkpt>
      <trkpt lat="22.2578394" lon="114.1595164"><ele>188.5</ele></trkpt>
      <trkpt lat="22.2579472" lon="114.1596553"><ele>181.1</ele></trkpt>
      <trkpt lat="22.2581319" lon="114.1597422"><ele>176.8</ele></trkpt>
      <trkpt lat="22.2582481" lon="114.1596778"><ele>179.9</ele></trkpt>
      <trkpt lat="22.2583621" lon="114.1595616"><ele>185.6</ele></trkpt>
      <trkpt lat="22.2584066" lon="114.1593655"><ele>195.7</ele></trkpt>
      <trkpt lat="22.2585508" lon="114.1593662"><ele>194.4</ele></trkpt>
      <trkpt lat="22.2587236" lon="114.1592014"><ele>199.7</ele></trkpt>
      <trkpt lat="22.2588097" lon="114.1592740"><ele>196.5</ele></trkpt>
      <trkpt lat="22.2588929" lon="114.1593701"><ele>193.0</ele></trkpt>
      <trkpt lat="22.2590915" lon="114.1593808"><ele>194.1</ele></trkpt>
      <trkpt lat="22.2592035" lon="114.1594099"><ele>195.8</ele></trkpt>
      <trkpt lat="22.2593194" lon="114.1595496"><ele>193.4</ele></trkpt>
      <trkpt lat="22.2595375" lon="114.1598126"><ele>187.2</ele></trkpt>
      <trkpt lat="22.2595752" lon="114.1598130"><ele>187.7</ele></trkpt>
      <trkpt lat="22.2596195" lon="114.1598134"><ele>188.2</ele></trkpt>
      <trkpt lat="22.2597074" lon="114.1596794"><ele>195.0</ele></trkpt>
      <trkpt lat="22.2598180" lon="114.1595740"><ele>198.9</ele></trkpt>
      <trkpt lat="22.2602051" lon="114.1596075"><ele>190.7</ele></trkpt>
      <trkpt lat="22.2602761" lon="114.1595705"><ele>190.6</ele></trkpt>
      <trkpt lat="22.2605438" lon="114.1593266"><ele>193.7</ele></trkpt>
      <trkpt lat="22.2612259" lon="114.1593022"><ele>187.5</ele></trkpt>
      <trkpt lat="22.2616543" lon="114.1591641"><ele>200.9</ele></trkpt>
      <trkpt lat="22.2617144" lon="114.1591946"><ele>200.6</ele></trkpt>
      <trkpt lat="22.2617483" lon="114.1594403"><ele>188.5</ele></trkpt>
      <trkpt lat="22.2618236" lon="114.1595406"><ele>185.8</ele></trkpt>
      <trkpt lat="22.2622639" lon="114.1595727"><ele>193.5</ele></trkpt>
      <trkpt lat="22.2628606" lon="114.1596042"><ele>201.9</ele></trkpt>
      <trkpt lat="22.2629614" lon="114.1598950"><ele>195.9</ele></trkpt>
      <trkpt lat="22.2631458" lon="114.1598916"><ele>201.3</ele></trkpt>
      <trkpt lat="22.2633169" lon="114.1598252"><ele>204.7</ele></trkpt>
      <trkpt lat="22.2634081" lon="114.1598576"><ele>206.1</ele></trkpt>
      <trkpt lat="22.2634126" lon="114.1599198"><ele>206.0</ele></trkpt>
      <trkpt lat="22.2634158" lon="114.1599647"><ele>206.0</ele></trkpt>
      <trkpt lat="22.2633463" lon="114.1601748"><ele>205.5</ele></trkpt>
      <trkpt lat="22.2632420" lon="114.1602175"><ele>205.3</ele></trkpt>
      <trkpt lat="22.2631051" lon="114.1602756"><ele>203.5</ele></trkpt>
      <trkpt lat="22.2630082" lon="114.1603533"><ele>203.0</ele></trkpt>
      <trkpt lat="22.2627447" lon="114.1603883"><ele>197.8</ele></trkpt>
      <trkpt lat="22.2625821" lon="114.1604242"><ele>195.3</ele></trkpt>
      <trkpt lat="22.2624118" lon="114.1605589"><ele>195.1</ele></trkpt>
      <trkpt lat="22.2622065" lon="114.1607767"><ele>194.0</ele></trkpt>
      <trkpt lat="22.2621485" lon="114.1614154"><ele>196.8</ele></trkpt>
      <trkpt lat="22.2622318" lon="114.1614526"><ele>199.2</ele></trkpt>
      <trkpt lat="22.2622915" lon="114.1614510"><ele>200.7</ele></trkpt>
      <trkpt lat="22.2622766" lon="114.1616674"><ele>202.8</ele></trkpt>
      <trkpt lat="22.2621869" lon="114.1617962"><ele>203.3</ele></trkpt>
      <trkpt lat="22.2621425" lon="114.1618758"><ele>204.0</ele></trkpt>
      <trkpt lat="22.2618877" lon="114.1618527"><ele>201.1</ele></trkpt>
      <trkpt lat="22.2616253" lon="114.1617131"><ele>197.9</ele></trkpt>
      <trkpt lat="22.2616148" lon="114.1615141"><ele>192.1</ele></trkpt>
      <trkpt lat="22.2615320" lon="114.1614220"><ele>189.7</ele></trkpt>
      <trkpt lat="22.2613069" lon="114.1614474"><ele>192.4</ele></trkpt>
      <trkpt lat="22.2610849" lon="114.1615452"><ele>193.8</ele></trkpt>
      <trkpt lat="22.2609815" lon="114.1616655"><ele>195.6</ele></trkpt>
      <trkpt lat="22.2607591" lon="114.1616791"><ele>188.6</ele></trkpt>
      <trkpt lat="22.2606562" lon="114.1617619"><ele>186.9</ele></trkpt>
      <trkpt lat="22.2605606" lon="114.1619288"><ele>185.9</ele></trkpt>
      <trkpt lat="22.2605147" lon="114.1620478"><ele>185.3</ele></trkpt>
      <trkpt lat="22.2604675" lon="114.1622026"><ele>185.0</ele></trkpt>
      <trkpt lat="22.2604990" lon="114.1623215"><ele>184.4</ele></trkpt>
      <trkpt lat="22.2609190" lon="114.1622708"><ele>195.9</ele></trkpt>
      <trkpt lat="22.2610032" lon="114.1623587"><ele>196.1</ele></trkpt>
      <trkpt lat="22.2609977" lon="114.1624714"><ele>193.7</ele></trkpt>
      <trkpt lat="22.2612797" lon="114.1625774"><ele>195.4</ele></trkpt>
      <trkpt lat="22.2614119" lon="114.1629458"><ele>185.1</ele></trkpt>
      <trkpt lat="22.2615162" lon="114.1630728"><ele>182.9</ele></trkpt>
      <trkpt lat="22.2617356" lon="114.1630943"><ele>186.6</ele></trkpt>
      <trkpt lat="22.2618290" lon="114.1629985"><ele>191.1</ele></trkpt>
      <trkpt lat="22.2619611" lon="114.1629710"><ele>194.0</ele></trkpt>
      <trkpt lat="22.2620600" lon="114.1630235"><ele>194.7</ele></trkpt>
      <trkpt lat="22.2619500" lon="114.1633940"><ele>181.0</ele></trkpt>
      <trkpt lat="22.2618032" lon="114.1635184"><ele>174.9</ele></trkpt>
      <trkpt lat="22.2617816" lon="114.1636125"><ele>171.9</ele></trkpt>
      <trkpt lat="22.2619901" lon="114.1637802"><ele>169.0</ele></trkpt>
      <trkpt lat="22.2622256" lon="114.1636529"><ele>177.2</ele></trkpt>
      <trkpt lat="22.2623730" lon="114.1636606"><ele>180.7</ele></trkpt>
      <trkpt lat="22.2624901" lon="114.1639490"><ele>172.4</ele></trkpt>
      <trkpt lat="22.2628624" lon="114.1642038"><ele>182.2</ele></trkpt>
      <trkpt lat="22.2629079" lon="114.1642609"><ele>182.9</ele></trkpt>
      <trkpt lat="22.2629111" lon="114.1643515"><ele>181.7</ele></trkpt>
      <trkpt lat="22.2629151" lon="114.1644671"><ele>180.2</ele></trkpt>
      <trkpt lat="22.2628226" lon="114.1647217"><ele>171.4</ele></trkpt>
      <trkpt lat="22.2630507" lon="114.1650175"><ele>174.5</ele></trkpt>
      <trkpt lat="22.2634146" lon="114.1651310"><ele>188.3</ele></trkpt>
      <trkpt lat="22.2635971" lon="114.1654621"><ele>185.5</ele></trkpt>
      <trkpt lat="22.2635698" lon="114.1656288"><ele>178.0</ele></trkpt>
      <trkpt lat="22.2636272" lon="114.1656819"><ele>177.1</ele></trkpt>
      <trkpt lat="22.2639177" lon="114.1657546"><ele>183.6</ele></trkpt>
      <trkpt lat="22.2639682" lon="114.1659190"><ele>176.0</ele></trkpt>
      <trkpt lat="22.2641408" lon="114.1658435"><ele>184.6</ele></trkpt>
      <trkpt lat="22.2641920" lon="114.1657969"><ele>187.4</ele></trkpt>
      <trkpt lat="22.2642364" lon="114.1657824"><ele>188.2</ele></trkpt>
      <trkpt lat="22.2642890" lon="114.1657912"><ele>188.1</ele></trkpt>
      <trkpt lat="22.2643192" lon="114.1658132"><ele>187.3</ele></trkpt>
      <trkpt lat="22.2643417" lon="114.1658495"><ele>186.1</ele></trkpt>
      <trkpt lat="22.2643928" lon="114.1660193"><ele>180.7</ele></trkpt>
      <trkpt lat="22.2644297" lon="114.1660590"><ele>180.2</ele></trkpt>
      <trkpt lat="22.2644576" lon="114.1660720"><ele>180.4</ele></trkpt>
      <trkpt lat="22.2644966" lon="114.1660662"><ele>181.0</ele></trkpt>
      <trkpt lat="22.2645601" lon="114.1660185"><ele>182.0</ele></trkpt>
      <trkpt lat="22.2646584" lon="114.1659664"><ele>182.6</ele></trkpt>
      <trkpt lat="22.2646378" lon="114.1660408"><ele>181.9</ele></trkpt>
      <trkpt lat="22.2646554" lon="114.1660419"><ele>182.0</ele></trkpt>
      <trkpt lat="22.2646712" lon="114.1660458"><ele>182.0</ele></trkpt>
      <trkpt lat="22.2646886" lon="114.1660523"><ele>182.0</ele></trkpt>
      <trkpt lat="22.2647341" lon="114.1660739"><ele>182.2</ele></trkpt>
      <trkpt lat="22.2647546" lon="114.1660863"><ele>182.4</ele></trkpt>
      <trkpt lat="22.2647888" lon="114.1661196"><ele>182.8</ele></trkpt>
    </trkseg>
  </trk>
</gpx>