<?xml version='1.0' encoding='UTF-8'?>
<gpx xmlns="http://www.topografix.com/GPX/1/1" version="1.1" creator="HillGPX import_gpx.py">
  <metadata>
    <name>Southern Ridges Walk</name>
    <desc>Imported from https://www.openstreetmap.org/relation/5993965 · ODbL © OpenStreetMap contributors</desc>
  </metadata>
  <trk>
    <name>Southern Ridges Walk</name>
    <trkseg>
      <trkpt lat="1.2987944" lon="103.7627233"><ele>17.1</ele></trkpt>
      <trkpt lat="1.2988272" lon="103.7627874"><ele>17.5</ele></trkpt>
      <trkpt lat="1.2988164" lon="103.7627951"><ele>17.5</ele></trkpt>
      <trkpt lat="1.2988079" lon="103.7628144"><ele>17.5</ele></trkpt>
      <trkpt lat="1.2988079" lon="103.7628359"><ele>17.6</ele></trkpt>
      <trkpt lat="1.2988164" lon="103.7628667"><ele>17.7</ele></trkpt>
      <trkpt lat="1.2988562" lon="103.7629455"><ele>17.9</ele></trkpt>
      <trkpt lat="1.2989471" lon="103.7631302"><ele>16.0</ele></trkpt>
      <trkpt lat="1.2990065" lon="103.7632530"><ele>14.8</ele></trkpt>
      <trkpt lat="1.2990443" lon="103.7633312"><ele>13.9</ele></trkpt>
      <trkpt lat="1.2990946" lon="103.7634465"><ele>12.1</ele></trkpt>
      <trkpt lat="1.2991241" lon="103.7635234"><ele>10.9</ele></trkpt>
      <trkpt lat="1.2990722" lon="103.7636095"><ele>10.4</ele></trkpt>
      <trkpt lat="1.2990809" lon="103.7636514"><ele>9.9</ele></trkpt>
      <trkpt lat="1.2992372" lon="103.7640322"><ele>7.2</ele></trkpt>
      <trkpt lat="1.2994154" lon="103.7646337"><ele>12.7</ele></trkpt>
      <trkpt lat="1.2994272" lon="103.7646800"><ele>13.0</ele></trkpt>
      <trkpt lat="1.2994385" lon="103.7647243"><ele>13.0</ele></trkpt>
      <trkpt lat="1.2994846" lon="103.7649052"><ele>12.9</ele></trkpt>
      <trkpt lat="1.2994959" lon="103.7649497"><ele>12.9</ele></trkpt>
      <trkpt lat="1.2995125" lon="103.7650092"><ele>12.9</ele></trkpt>
      <trkpt lat="1.2996677" lon="103.7656643"><ele>13.6</ele></trkpt>
      <trkpt lat="1.2998559" lon="103.7664036"><ele>12.2</ele></trkpt>
      <trkpt lat="1.2998394" lon="103.7664446"><ele>12.4</ele></trkpt>
      <trkpt lat="1.2998517" lon="103.7664541"><ele>12.4</ele></trkpt>
      <trkpt lat="1.2998461" lon="103.7664877"><ele>12.6</ele></trkpt>
      <trkpt lat="1.2998585" lon="103.7665265"><ele>12.8</ele></trkpt>
      <trkpt lat="1.2999002" lon="103.7666383"><ele>13.6</ele></trkpt>
      <trkpt lat="1.2999193" lon="103.7666810"><ele>13.9</ele></trkpt>
      <trkpt lat="1.2998554" lon="103.7667249"><ele>13.8</ele></trkpt>
      <trkpt lat="1.2998087" lon="103.7667494"><ele>13.7</ele></trkpt>
      <trkpt lat="1.2992797" lon="103.7669688"><ele>9.6</ele></trkpt>
      <trkpt lat="1.2991830" lon="103.7670046"><ele>8.4</ele></trkpt>
      <trkpt lat="1.2990871" lon="103.7670401"><ele>8.0</ele></trkpt>
      <trkpt lat="1.2989279" lon="103.7671125"><ele>7.4</ele></trkpt>
      <trkpt lat="1.2988721" lon="103.7671364"><ele>7.3</ele></trkpt>
      <trkpt lat="1.2988900" lon="103.7671604"><ele>7.4</ele></trkpt>
      <trkpt lat="1.2989033" lon="103.7671794"><ele>7.6</ele></trkpt>
      <trkpt lat="1.2989495" lon="103.7672410"><ele>8.1</ele></trkpt>
      <trkpt lat="1.2989423" lon="103.7672505"><ele>8.1</ele></trkpt>
      <trkpt lat="1.2989371" lon="103.7672594"><ele>8.1</ele></trkpt>
      <trkpt lat="1.2989295" lon="103.7672744"><ele>8.1</ele></trkpt>
      <trkpt lat="1.2989265" lon="103.7672874"><ele>8.1</ele></trkpt>
      <trkpt lat="1.2989250" lon="103.7673005"><ele>8.2</ele></trkpt>
      <trkpt lat="1.2989255" lon="103.7673185"><ele>8.3</ele></trkpt>
      <trkpt lat="1.2989272" lon="103.7673378"><ele>8.3</ele></trkpt>
      <trkpt lat="1.2989348" lon="103.7674047"><ele>8.7</ele></trkpt>
      <trkpt lat="1.2988809" lon="103.7674184"><ele>8.4</ele></trkpt>
      <trkpt lat="1.2988359" lon="103.7674343"><ele>8.5</ele></trkpt>
      <trkpt lat="1.2986198" lon="103.7675066"><ele>11.0</ele></trkpt>
      <trkpt lat="1.2985487" lon="103.7675200"><ele>11.6</ele></trkpt>
      <trkpt lat="1.2985104" lon="103.7675343"><ele>12.1</ele></trkpt>
      <trkpt lat="1.2984803" lon="103.7675562"><ele>12.8</ele></trkpt>
      <trkpt lat="1.2984401" lon="103.7676072"><ele>14.2</ele></trkpt>
      <trkpt lat="1.2984026" lon="103.7676796"><ele>15.9</ele></trkpt>
      <trkpt lat="1.2983648" lon="103.7677496"><ele>17.5</ele></trkpt>
      <trkpt lat="1.2983416" lon="103.7677903"><ele>18.4</ele></trkpt>
      <trkpt lat="1.2982930" lon="103.7678286"><ele>19.4</ele></trkpt>
      <trkpt lat="1.2982640" lon="103.7678499"><ele>20.0</ele></trkpt>
      <trkpt lat="1.2982029" lon="103.7678870"><ele>20.8</ele></trkpt>
      <trkpt lat="1.2981499" lon="103.7679147"><ele>21.4</ele></trkpt>
      <trkpt lat="1.2980734" lon="103.7679461"><ele>21.9</ele></trkpt>
      <trkpt lat="1.2980331" lon="103.7679565"><ele>22.1</ele></trkpt>
      <trkpt lat="1.2979338" lon="103.7679668"><ele>22.4</ele></trkpt>
      <trkpt lat="1.2978292" lon="103.7679601"><ele>22.6</ele></trkpt>
      <trkpt lat="1.2977778" lon="103.7679768"><ele>22.3</ele></trkpt>
      <trkpt lat="1.2977539" lon="103.7680074"><ele>22.2</ele></trkpt>
      <trkpt lat="1.2976497" lon="103.7680378"><ele>21.4</ele></trkpt>
      <trkpt lat="1.2976135" lon="103.7680753"><ele>21.2</ele></trkpt>
      <trkpt lat="1.2975947" lon="103.7681169"><ele>21.0</ele></trkpt>
      <trkpt lat="1.2975552" lon="103.7682602"><ele>20.2</ele></trkpt>
      <trkpt lat="1.2975123" lon="103.7683328"><ele>19.6</ele></trkpt>
      <trkpt lat="1.2974633" lon="103.7683824"><ele>19.0</ele></trkpt>
      <trkpt lat="1.2974171" lon="103.7684012"><ele>18.4</ele></trkpt>
      <trkpt lat="1.2973474" lon="103.7684219"><ele>17.5</ele></trkpt>
      <trkpt lat="1.2973406" lon="103.7685268"><ele>17.8</ele></trkpt>
      <trkpt lat="1.2973453" lon="103.7685912"><ele>18.2</ele></trkpt>
      <trkpt lat="1.2973601" lon="103.7686448"><ele>18.6</ele></trkpt>
      <trkpt lat="1.2973783" lon="103.7686876"><ele>19.1</ele></trkpt>
      <trkpt lat="1.2974580" lon="103.7687732"><ele>20.6</ele></trkpt>
      <trkpt lat="1.2976551" lon="103.7689067"><ele>23.4</ele></trkpt>
      <trkpt lat="1.2976993" lon="103.7689627"><ele>24.2</ele></trkpt>
      <trkpt lat="1.2977610" lon="103.7690458"><ele>25.5</ele></trkpt>
      <trkpt lat="1.2978292" lon="103.7691456"><ele>27.2</ele></trkpt>
      <trkpt lat="1.2978857" lon="103.7692174"><ele>28.4</ele></trkpt>
      <trkpt lat="1.2979748" lon="103.7693610"><ele>30.7</ele></trkpt>
      <trkpt lat="1.2979882" lon="103.7694046"><ele>31.1</ele></trkpt>
      <trkpt lat="1.2979902" lon="103.7694435"><ele>31.3</ele></trkpt>
      <trkpt lat="1.2979825" lon="103.7694811"><ele>31.3</ele></trkpt>
      <trkpt lat="1.2979794" lon="103.7694964"><ele>31.2</ele></trkpt>
      <trkpt lat="1.2980309" lon="103.7695002"><ele>32.3</ele></trkpt>
      <trkpt lat="1.2980272" lon="103.7695386"><ele>32.2</ele></trkpt>
      <trkpt lat="1.2979832" lon="103.7699943"><ele>32.4</ele></trkpt>
      <trkpt lat="1.2979781" lon="103.7700191"><ele>32.5</ele></trkpt>
      <trkpt lat="1.2979415" lon="103.7700163"><ele>32.1</ele></trkpt>
      <trkpt lat="1.2979351" lon="103.7701443"><ele>32.9</ele></trkpt>
      <trkpt lat="1.2979327" lon="103.7701919"><ele>33.6</ele></trkpt>
      <trkpt lat="1.2978959" lon="103.7701994"><ele>33.4</ele></trkpt>
      <trkpt lat="1.2977855" lon="103.7702123"><ele>32.8</ele></trkpt>
      <trkpt lat="1.2977171" lon="103.7702095"><ele>32.4</ele></trkpt>
      <trkpt lat="1.2975563" lon="103.7701891"><ele>31.0</ele></trkpt>
      <trkpt lat="1.2974627" lon="103.7701778"><ele>30.2</ele></trkpt>
      <trkpt lat="1.2972676" lon="103.7701429"><ele>27.9</ele></trkpt>
      <trkpt lat="1.2971986" lon="103.7701298"><ele>27.1</ele></trkpt>
      <trkpt lat="1.2971191" lon="103.7701522"><ele>26.7</ele></trkpt>
      <trkpt lat="1.2970679" lon="103.7702178"><ele>27.6</ele></trkpt>
      <trkpt lat="1.2970375" lon="103.7702952"><ele>28.8</ele></trkpt>
      <trkpt lat="1.2970270" lon="103.7703253"><ele>29.3</ele></trkpt>
      <trkpt lat="1.2970074" lon="103.7703814"><ele>30.2</ele></trkpt>
      <trkpt lat="1.2969805" lon="103.7704583"><ele>31.3</ele></trkpt>
      <trkpt lat="1.2968981" lon="103.7705925"><ele>32.4</ele></trkpt>
      <trkpt lat="1.2968176" lon="103.7707236"><ele>33.4</ele></trkpt>
      <trkpt lat="1.2967484" lon="103.7708363"><ele>34.6</ele></trkpt>
      <trkpt lat="1.2967080" lon="103.7708931"><ele>34.7</ele></trkpt>
      <trkpt lat="1.2966392" lon="103.7709277"><ele>34.6</ele></trkpt>
      <trkpt lat="1.2965533" lon="103.7709328"><ele>34.2</ele></trkpt>
      <trkpt lat="1.2964522" lon="103.7709389"><ele>33.8</ele></trkpt>
      <trkpt lat="1.2964003" lon="103.7709395"><ele>33.6</ele></trkpt>
      <trkpt lat="1.2963965" lon="103.7710110"><ele>34.2</ele></trkpt>
      <trkpt lat="1.2963935" lon="103.7710675"><ele>34.7</ele></trkpt>
      <trkpt lat="1.2963649" lon="103.7716068"><ele>35.3</ele></trkpt>
      <trkpt lat="1.2963730" lon="103.7717781"><ele>36.0</ele></trkpt>
      <trkpt lat="1.2963975" lon="103.7719508"><ele>37.2</ele></trkpt>
      <trkpt lat="1.2964347" lon="103.7720462"><ele>38.1</ele></trkpt>
      <trkpt lat="1.2964918" lon="103.7721359"><ele>39.1</ele></trkpt>
      <trkpt lat="1.2965589" lon="103.7722223"><ele>40.3</ele></trkpt>
      <trkpt lat="1.2965798" lon="103.7722460"><ele>40.5</ele></trkpt>
      <trkpt lat="1.2966245" lon="103.7722844"><ele>40.9</ele></trkpt>
      <trkpt lat="1.2966731" lon="103.7723171"><ele>41.2</ele></trkpt>
      <trkpt lat="1.2967224" lon="103.7723501"><ele>41.6</ele></trkpt>
      <trkpt lat="1.2968255" lon="103.7724290"><ele>42.6</ele></trkpt>
      <trkpt lat="1.2969011" lon="103.7725025"><ele>43.7</ele></trkpt>
      <trkpt lat="1.2969746" lon="103.7725699"><ele>44.6</ele></trkpt>
      <trkpt lat="1.2969975" lon="103.7725463"><ele>44.7</ele></trkpt>
      <trkpt lat="1.2969746" lon="103.7725699"><ele>44.6</ele></trkpt>
      <trkpt lat="1.2968477" lon="103.7727008"><ele>43.4</ele></trkpt>
      <trkpt lat="1.2968210" lon="103.7727374"><ele>43.2</ele></trkpt>
      <trkpt lat="1.2969240" lon="103.7727973"><ele>43.9</ele></trkpt>
      <trkpt lat="1.2971131" lon="103.7728826"><ele>44.9</ele></trkpt>
      <trkpt lat="1.2971775" lon="103.7730012"><ele>45.8</ele></trkpt>
      <trkpt lat="1.2972700" lon="103.7730169"><ele>46.9</ele></trkpt>
      <trkpt lat="1.2972700" lon="103.7731177"><ele>47.2</ele></trkpt>
      <trkpt lat="1.2973219" lon="103.7731476"><ele>47.9</ele></trkpt>
      <trkpt lat="1.2973435" lon="103.7733257"><ele>50.1</ele></trkpt>
      <trkpt lat="1.2973692" lon="103.7733724"><ele>51.4</ele></trkpt>
      <trkpt lat="1.2973236" lon="103.7735599"><ele>55.3</ele></trkpt>
      <trkpt lat="1.2973780" lon="103.7735970"><ele>56.5</ele></trkpt>
      <trkpt lat="1.2972830" lon="103.7738215"><ele>63.2</ele></trkpt>
      <trkpt lat="1.2972459" lon="103.7739090"><ele>66.1</ele></trkpt>
      <trkpt lat="1.2972210" lon="103.7739766"><ele>67.6</ele></trkpt>
      <trkpt lat="1.2972101" lon="103.7740454"><ele>68.6</ele></trkpt>
      <trkpt lat="1.2972228" lon="103.7741699"><ele>70.4</ele></trkpt>
      <trkpt lat="1.2972710" lon="103.7743966"><ele>71.5</ele></trkpt>
      <trkpt lat="1.2972667" lon="103.7744707"><ele>71.2</ele></trkpt>
      <trkpt lat="1.2972482" lon="103.7745390"><ele>71.0</ele></trkpt>
      <trkpt lat="1.2970752" lon="103.7747377"><ele>69.6</ele></trkpt>
      <trkpt lat="1.2969583" lon="103.7749113"><ele>68.1</ele></trkpt>
      <trkpt lat="1.2969020" lon="103.7751119"><ele>68.9</ele></trkpt>
      <trkpt lat="1.2968890" lon="103.7751622"><ele>69.4</ele></trkpt>
      <trkpt lat="1.2968581" lon="103.7752200"><ele>69.9</ele></trkpt>
      <trkpt lat="1.2968197" lon="103.7752751"><ele>70.5</ele></trkpt>
      <trkpt lat="1.2966249" lon="103.7754355"><ele>67.7</ele></trkpt>
      <trkpt lat="1.2965129" lon="103.7755144"><ele>66.6</ele></trkpt>
      <trkpt lat="1.2964624" lon="103.7755520"><ele>66.4</ele></trkpt>
      <trkpt lat="1.2963661" lon="103.7756186"><ele>66.0</ele></trkpt>
      <trkpt lat="1.2962971" lon="103.7756698"><ele>66.0</ele></trkpt>
      <trkpt lat="1.2960064" lon="103.7759374"><ele>68.6</ele></trkpt>
      <trkpt lat="1.2958762" lon="103.7760409"><ele>68.8</ele></trkpt>
      <trkpt lat="1.2957405" lon="103.7761328"><ele>69.0</ele></trkpt>
      <trkpt lat="1.2952882" lon="103.7764134"><ele>69.8</ele></trkpt>
      <trkpt lat="1.2952301" lon="103.7764864"><ele>71.0</ele></trkpt>
      <trkpt lat="1.2951834" lon="103.7765859"><ele>73.3</ele></trkpt>
      <trkpt lat="1.2951576" lon="103.7766845"><ele>75.9</ele></trkpt>
      <trkpt lat="1.2951586" lon="103.7767858"><ele>76.4</ele></trkpt>
      <trkpt lat="1.2951671" lon="103.7769150"><ele>77.1</ele></trkpt>
      <trkpt lat="1.2951945" lon="103.7770347"><ele>77.9</ele></trkpt>
      <trkpt lat="1.2952044" lon="103.7771887"><ele>74.7</ele></trkpt>
      <trkpt lat="1.2951939" lon="103.7772920"><ele>72.4</ele></trkpt>
      <trkpt lat="1.2951743" lon="103.7773763"><ele>70.4</ele></trkpt>
      <trkpt lat="1.2951540" lon="103.7774532"><ele>68.7</ele></trkpt>
      <trkpt lat="1.2950936" lon="103.7775783"><ele>66.3</ele></trkpt>
      <trkpt lat="1.2950065" lon="103.7777133"><ele>63.4</ele></trkpt>
      <trkpt lat="1.2948776" lon="103.7779193"><ele>62.5</ele></trkpt>
      <trkpt lat="1.2948150" lon="103.7780657"><ele>63.4</ele></trkpt>
      <trkpt lat="1.2948218" lon="103.7782936"><ele>66.4</ele></trkpt>
      <trkpt lat="1.2948380" lon="103.7786267"><ele>70.0</ele></trkpt>
      <trkpt lat="1.2948504" lon="103.7790390"><ele>65.9</ele></trkpt>
      <trkpt lat="1.2948180" lon="103.7792888"><ele>59.0</ele></trkpt>
      <trkpt lat="1.2947499" lon="103.7797093"><ele>53.9</ele></trkpt>
      <trkpt lat="1.2947159" lon="103.7798142"><ele>54.9</ele></trkpt>
      <trkpt lat="1.2946721" lon="103.7799066"><ele>57.0</ele></trkpt>
      <trkpt lat="1.2946323" lon="103.7799608"><ele>58.6</ele></trkpt>
      <trkpt lat="1.2945913" lon="103.7800058"><ele>60.1</ele></trkpt>
      <trkpt lat="1.2944799" lon="103.7800978"><ele>63.6</ele></trkpt>
      <trkpt lat="1.2941452" lon="103.7803652"><ele>64.7</ele></trkpt>
      <trkpt lat="1.2940021" lon="103.7805000"><ele>65.1</ele></trkpt>
      <trkpt lat="1.2938920" lon="103.7806185"><ele>66.1</ele></trkpt>
      <trkpt lat="1.2937728" lon="103.7807774"><ele>68.5</ele></trkpt>
      <trkpt lat="1.2936545" lon="103.7809262"><ele>69.2</ele></trkpt>
      <trkpt lat="1.2935927" lon="103.7809843"><ele>69.1</ele></trkpt>
      <trkpt lat="1.2935302" lon="103.7810360"><ele>69.2</ele></trkpt>
      <trkpt lat="1.2934599" lon="103.7810766"><ele>69.3</ele></trkpt>
      <trkpt lat="1.2934025" lon="103.7811002"><ele>69.4</ele></trkpt>
      <trkpt lat="1.2933744" lon="103.7811118"><ele>69.4</ele></trkpt>
      <trkpt lat="1.2932306" lon="103.7811630"><ele>67.3</ele></trkpt>
      <trkpt lat="1.2929789" lon="103.7812525"><ele>63.5</ele></trkpt>
      <trkpt lat="1.2929605" lon="103.7812611"><ele>63.3</ele></trkpt>
      <trkpt lat="1.2928996" lon="103.7812895"><ele>62.5</ele></trkpt>
      <trkpt lat="1.2928286" lon="103.7813521"><ele>62.3</ele></trkpt>
      <trkpt lat="1.2927989" lon="103.7813947"><ele>62.7</ele></trkpt>
      <trkpt lat="1.2927832" lon="103.7814172"><ele>62.9</ele></trkpt>
      <trkpt lat="1.2927521" lon="103.7814932"><ele>63.9</ele></trkpt>
      <trkpt lat="1.2926191" lon="103.7819058"><ele>62.7</ele></trkpt>
      <trkpt lat="1.2924875" lon="103.7822460"><ele>59.0</ele></trkpt>
      <trkpt lat="1.2924668" lon="103.7823174"><ele>58.7</ele></trkpt>
      <trkpt lat="1.2924537" lon="103.7823907"><ele>58.4</ele></trkpt>
      <trkpt lat="1.2924453" lon="103.7825786"><ele>57.4</ele></trkpt>
      <trkpt lat="1.2924329" lon="103.7826443"><ele>57.4</ele></trkpt>
      <trkpt lat="1.2924045" lon="103.7827460"><ele>57.7</ele></trkpt>
      <trkpt lat="1.2923587" lon="103.7828302"><ele>58.4</ele></trkpt>
      <trkpt lat="1.2923222" lon="103.7828973"><ele>58.7</ele></trkpt>
      <trkpt lat="1.2922324" lon="103.7829995"><ele>57.3</ele></trkpt>
      <trkpt lat="1.2921481" lon="103.7830616"><ele>56.6</ele></trkpt>
      <trkpt lat="1.2921365" lon="103.7830702"><ele>56.5</ele></trkpt>
      <trkpt lat="1.2920273" lon="103.7831270"><ele>56.1</ele></trkpt>
      <trkpt lat="1.2919561" lon="103.7831786"><ele>55.4</ele></trkpt>
      <trkpt lat="1.2918209" lon="103.7832791"><ele>53.6</ele></trkpt>
      <trkpt lat="1.2916445" lon="103.7834792"><ele>54.0</ele></trkpt>
      <trkpt lat="1.2916004" lon="103.7835284"><ele>54.8</ele></trkpt>
      <trkpt lat="1.2915262" lon="103.7835979"><ele>55.2</ele></trkpt>
      <trkpt lat="1.2915948" lon="103.7836723"><ele>55.0</ele></trkpt>
      <trkpt lat="1.2918774" lon="103.7839829"><ele>53.0</ele></trkpt>
      <trkpt lat="1.2918909" lon="103.7840353"><ele>52.2</ele></trkpt>
      <trkpt lat="1.2919028" lon="103.7841317"><ele>50.8</ele></trkpt>
      <trkpt lat="1.2919060" lon="103.7841904"><ele>49.9</ele></trkpt>
      <trkpt lat="1.2918965" lon="103.7842734"><ele>49.0</ele></trkpt>
      <trkpt lat="1.2918870" lon="103.7844004"><ele>48.2</ele></trkpt>
      <trkpt lat="1.2918272" lon="103.7844672"><ele>47.8</ele></trkpt>
      <trkpt lat="1.2915977" lon="103.7847145"><ele>47.5</ele></trkpt>
      <trkpt lat="1.2915667" lon="103.7847471"><ele>47.6</ele></trkpt>
      <trkpt lat="1.2913824" lon="103.7849412"><ele>48.0</ele></trkpt>
      <trkpt lat="1.2913459" lon="103.7849781"><ele>48.0</ele></trkpt>
      <trkpt lat="1.2912647" lon="103.7850619"><ele>48.2</ele></trkpt>
      <trkpt lat="1.2910953" lon="103.7852338"><ele>49.2</ele></trkpt>
      <trkpt lat="1.2908705" lon="103.7854895"><ele>50.4</ele></trkpt>
      <trkpt lat="1.2908004" lon="103.7855807"><ele>51.3</ele></trkpt>
      <trkpt lat="1.2907432" lon="103.7856911"><ele>51.6</ele></trkpt>
      <trkpt lat="1.2906960" lon="103.7858132"><ele>51.3</ele></trkpt>
      <trkpt lat="1.2906717" lon="103.7859332"><ele>50.6</ele></trkpt>
      <trkpt lat="1.2906700" lon="103.7859853"><ele>50.3</ele></trkpt>
      <trkpt lat="1.2906696" lon="103.7861092"><ele>49.6</ele></trkpt>
      <trkpt lat="1.2906789" lon="103.7862175"><ele>48.9</ele></trkpt>
      <trkpt lat="1.2907257" lon="103.7865509"><ele>47.0</ele></trkpt>
      <trkpt lat="1.2907542" lon="103.7867627"><ele>46.1</ele></trkpt>
      <trkpt lat="1.2908681" lon="103.7875317"><ele>47.2</ele></trkpt>
      <trkpt lat="1.2908241" lon="103.7875327"><ele>47.6</ele></trkpt>
      <trkpt lat="1.2907991" lon="103.7875333"><ele>47.9</ele></trkpt>
      <trkpt lat="1.2892507" lon="103.7881455"><ele>51.8</ele></trkpt>
      <trkpt lat="1.2892049" lon="103.7880953"><ele>51.5</ele></trkpt>
      <trkpt lat="1.2892144" lon="103.7879875"><ele>50.8</ele></trkpt>
      <trkpt lat="1.2891983" lon="103.7877977"><ele>48.9</ele></trkpt>
      <trkpt lat="1.2891982" lon="103.7877764"><ele>48.7</ele></trkpt>
      <trkpt lat="1.2891918" lon="103.7877561"><ele>48.6</ele></trkpt>
      <trkpt lat="1.2891798" lon="103.7877386"><ele>48.5</ele></trkpt>
      <trkpt lat="1.2891631" lon="103.7877254"><ele>48.6</ele></trkpt>
      <trkpt lat="1.2891433" lon="103.7877177"><ele>48.8</ele></trkpt>
      <trkpt lat="1.2891225" lon="103.7877162"><ele>49.1</ele></trkpt>
      <trkpt lat="1.2891024" lon="103.7877218"><ele>49.4</ele></trkpt>
      <trkpt lat="1.2890854" lon="103.7877339"><ele>49.7</ele></trkpt>
      <trkpt lat="1.2890766" lon="103.7877222"><ele>49.7</ele></trkpt>
      <trkpt lat="1.2890697" lon="103.7877130"><ele>49.7</ele></trkpt>
      <trkpt lat="1.2890629" lon="103.7877040"><ele>49.8</ele></trkpt>
      <trkpt lat="1.2889764" lon="103.7878103"><ele>51.2</ele></trkpt>
      <trkpt lat="1.2888449" lon="103.7880127"><ele>52.5</ele></trkpt>
      <trkpt lat="1.2887584" lon="103.7881461"><ele>52.7</ele></trkpt>
      <trkpt lat="1.2886297" lon="103.7883379"><ele>52.1</ele></trkpt>
      <trkpt lat="1.2885090" lon="103.7885190"><ele>51.2</ele></trkpt>
      <trkpt lat="1.2884837" lon="103.7885414"><ele>51.1</ele></trkpt>
      <trkpt lat="1.2884627" lon="103.7885371"><ele>51.2</ele></trkpt>
      <trkpt lat="1.2884435" lon="103.7885367"><ele>51.2</ele></trkpt>
      <trkpt lat="1.2884232" lon="103.7885444"><ele>51.2</ele></trkpt>
      <trkpt lat="1.2883191" lon="103.7886675"><ele>49.8</ele></trkpt>
      <trkpt lat="1.2882822" lon="103.7886320"><ele>50.2</ele></trkpt>
      <trkpt lat="1.2882662" lon="103.7885923"><ele>50.8</ele></trkpt>
      <trkpt lat="1.2882448" lon="103.7885379"><ele>51.7</ele></trkpt>
      <trkpt lat="1.2882473" lon="103.7884868"><ele>52.6</ele></trkpt>
      <trkpt lat="1.2883393" lon="103.7882766"><ele>55.2</ele></trkpt>
      <trkpt lat="1.2883519" lon="103.7882355"><ele>55.6</ele></trkpt>
      <trkpt lat="1.2883506" lon="103.7881926"><ele>56.3</ele></trkpt>
      <trkpt lat="1.2883354" lon="103.7881524"><ele>57.2</ele></trkpt>
      <trkpt lat="1.2883080" lon="103.7881194"><ele>58.2</ele></trkpt>
      <trkpt lat="1.2883118" lon="103.7880904"><ele>58.6</ele></trkpt>
      <trkpt lat="1.2883074" lon="103.7880616"><ele>59.2</ele></trkpt>
      <trkpt lat="1.2882952" lon="103.7880351"><ele>59.9</ele></trkpt>
      <trkpt lat="1.2882760" lon="103.7880131"><ele>60.7</ele></trkpt>
      <trkpt lat="1.2882417" lon="103.7879886"><ele>61.6</ele></trkpt>
      <trkpt lat="1.2882017" lon="103.7879749"><ele>62.6</ele></trkpt>
      <trkpt lat="1.2881595" lon="103.7879734"><ele>63.2</ele></trkpt>
      <trkpt lat="1.2881187" lon="103.7879840"><ele>63.7</ele></trkpt>
      <trkpt lat="1.2877631" lon="103.7881194"><ele>66.0</ele></trkpt>
      <trkpt lat="1.2875252" lon="103.7881697"><ele>68.3</ele></trkpt>
      <trkpt lat="1.2872306" lon="103.7881645"><ele>70.5</ele></trkpt>
      <trkpt lat="1.2869452" lon="103.7881534"><ele>68.8</ele></trkpt>
      <trkpt lat="1.2868364" lon="103.7881473"><ele>67.8</ele></trkpt>
      <trkpt lat="1.2866369" lon="103.7882524"><ele>63.5</ele></trkpt>
      <trkpt lat="1.2866299" lon="103.7882561"><ele>63.3</ele></trkpt>
      <trkpt lat="1.2865089" lon="103.7883417"><ele>61.2</ele></trkpt>
      <trkpt lat="1.2863615" lon="103.7884247"><ele>58.5</ele></trkpt>
      <trkpt lat="1.2863057" lon="103.7884464"><ele>57.6</ele></trkpt>
      <trkpt lat="1.2862432" lon="103.7885210"><ele>57.2</ele></trkpt>
      <trkpt lat="1.2862047" lon="103.7885530"><ele>56.9</ele></trkpt>
      <trkpt lat="1.2861618" lon="103.7885887"><ele>56.8</ele></trkpt>
      <trkpt lat="1.2860911" lon="103.7886526"><ele>56.3</ele></trkpt>
      <trkpt lat="1.2860579" lon="103.7886825"><ele>56.1</ele></trkpt>
      <trkpt lat="1.2860264" lon="103.7887074"><ele>56.0</ele></trkpt>
      <trkpt lat="1.2859956" lon="103.7887346"><ele>56.0</ele></trkpt>
      <trkpt lat="1.2859002" lon="103.7888189"><ele>56.6</ele></trkpt>
      <trkpt lat="1.2858289" lon="103.7888758"><ele>57.3</ele></trkpt>
      <trkpt lat="1.2857675" lon="103.7889183"><ele>58.0</ele></trkpt>
      <trkpt lat="1.2856305" lon="103.7890026"><ele>59.5</ele></trkpt>
      <trkpt lat="1.2856186" lon="103.7890100"><ele>59.7</ele></trkpt>
      <trkpt lat="1.2856469" lon="103.7890265"><ele>60.5</ele></trkpt>
      <trkpt lat="1.2856763" lon="103.7890587"><ele>61.6</ele></trkpt>
      <trkpt lat="1.2856862" lon="103.7891154"><ele>62.9</ele></trkpt>
      <trkpt lat="1.2856868" lon="103.7891559"><ele>63.9</ele></trkpt>
      <trkpt lat="1.2856735" lon="103.7891941"><ele>64.8</ele></trkpt>
      <trkpt lat="1.2856480" lon="103.7892255"><ele>65.7</ele></trkpt>
      <trkpt lat="1.2856133" lon="103.7892463"><ele>66.5</ele></trkpt>
      <trkpt lat="1.2849586" lon="103.7896512"><ele>77.4</ele></trkpt>
      <trkpt lat="1.2848247" lon="103.7897700"><ele>75.6</ele></trkpt>
      <trkpt lat="1.2847393" lon="103.7898608"><ele>73.2</ele></trkpt>
      <trkpt lat="1.2846874" lon="103.7897907"><ele>70.2</ele></trkpt>
      <trkpt lat="1.2846276" lon="103.7897889"><ele>67.4</ele></trkpt>
      <trkpt lat="1.2843968" lon="103.7899292"><ele>61.2</ele></trkpt>
      <trkpt lat="1.2841276" lon="103.7901119"><ele>59.7</ele></trkpt>
      <trkpt lat="1.2839936" lon="103.7901859"><ele>59.6</ele></trkpt>
      <trkpt lat="1.2838114" lon="103.7903119"><ele>60.9</ele></trkpt>
      <trkpt lat="1.2838712" lon="103.7903849"><ele>63.3</ele></trkpt>
      <trkpt lat="1.2837953" lon="103.7904317"><ele>63.5</ele></trkpt>
      <trkpt lat="1.2837704" lon="103.7904470"><ele>63.3</ele></trkpt>
      <trkpt lat="1.2835306" lon="103.7904836"><ele>61.4</ele></trkpt>
      <trkpt lat="1.2834511" lon="103.7904993"><ele>61.0</ele></trkpt>
      <trkpt lat="1.2833760" lon="103.7905397"><ele>61.4</ele></trkpt>
      <trkpt lat="1.2834018" lon="103.7905753"><ele>62.2</ele></trkpt>
      <trkpt lat="1.2833144" lon="103.7906400"><ele>63.2</ele></trkpt>
      <trkpt lat="1.2836000" lon="103.7910138"><ele>62.0</ele></trkpt>
      <trkpt lat="1.2836107" lon="103.7910463"><ele>61.5</ele></trkpt>
      <trkpt lat="1.2835855" lon="103.7911032"><ele>61.3</ele></trkpt>
      <trkpt lat="1.2835596" lon="103.7911258"><ele>61.5</ele></trkpt>
      <trkpt lat="1.2833563" lon="103.7914319"><ele>62.0</ele></trkpt>
      <trkpt lat="1.2832327" lon="103.7914876"><ele>63.1</ele></trkpt>
      <trkpt lat="1.2830879" lon="103.7915825"><ele>63.7</ele></trkpt>
      <trkpt lat="1.2828667" lon="103.7917991"><ele>64.4</ele></trkpt>
      <trkpt lat="1.2826194" lon="103.7919255"><ele>70.0</ele></trkpt>
      <trkpt lat="1.2825050" lon="103.7920807"><ele>73.7</ele></trkpt>
      <trkpt lat="1.2823653" lon="103.7921855"><ele>77.0</ele></trkpt>
      <trkpt lat="1.2821922" lon="103.7922688"><ele>76.3</ele></trkpt>
      <trkpt lat="1.2820612" lon="103.7923456"><ele>75.5</ele></trkpt>
      <trkpt lat="1.2818944" lon="103.7924856"><ele>72.3</ele></trkpt>
      <trkpt lat="1.2817227" lon="103.7926715"><ele>66.7</ele></trkpt>
      <trkpt lat="1.2816524" lon="103.7927549"><ele>64.7</ele></trkpt>
      <trkpt lat="1.2815770" lon="103.7928544"><ele>62.9</ele></trkpt>
      <trkpt lat="1.2815024" lon="103.7929118"><ele>62.6</ele></trkpt>
      <trkpt lat="1.2815327" lon="103.7930107"><ele>61.4</ele></trkpt>
      <trkpt lat="1.2815291" lon="103.7930703"><ele>60.8</ele></trkpt>
      <trkpt lat="1.2814928" lon="103.7931465"><ele>60.4</ele></trkpt>
      <trkpt lat="1.2814052" lon="103.7931963"><ele>60.2</ele></trkpt>
      <trkpt lat="1.2812018" lon="103.7933375"><ele>55.9</ele></trkpt>
      <trkpt lat="1.2811727" lon="103.7933580"><ele>55.3</ele></trkpt>
      <trkpt lat="1.2811383" lon="103.7933702"><ele>54.9</ele></trkpt>
      <trkpt lat="1.2809987" lon="103.7934330"><ele>53.2</ele></trkpt>
      <trkpt lat="1.2809277" lon="103.7934833"><ele>52.3</ele></trkpt>
      <trkpt lat="1.2808617" lon="103.7935265"><ele>51.5</ele></trkpt>
      <trkpt lat="1.2808291" lon="103.7935970"><ele>49.2</ele></trkpt>
      <trkpt lat="1.2807595" lon="103.7936617"><ele>48.1</ele></trkpt>
      <trkpt lat="1.2806951" lon="103.7937392"><ele>47.1</ele></trkpt>
      <trkpt lat="1.2806057" lon="103.7938135"><ele>46.9</ele></trkpt>
      <trkpt lat="1.2805284" lon="103.7938754"><ele>47.0</ele></trkpt>
      <trkpt lat="1.2804734" lon="103.7939767"><ele>45.7</ele></trkpt>
      <trkpt lat="1.2803807" lon="103.7940678"><ele>45.5</ele></trkpt>
      <trkpt lat="1.2803013" lon="103.7941126"><ele>46.1</ele></trkpt>
      <trkpt lat="1.2802347" lon="103.7941623"><ele>46.0</ele></trkpt>
      <trkpt lat="1.2801521" lon="103.7942201"><ele>46.4</ele></trkpt>
      <trkpt lat="1.2800886" lon="103.7942204"><ele>47.5</ele></trkpt>
      <trkpt lat="1.2800297" lon="103.7941979"><ele>48.9</ele></trkpt>
      <trkpt lat="1.2799925" lon="103.7941638"><ele>49.9</ele></trkpt>
      <trkpt lat="1.2799842" lon="103.7941153"><ele>50.5</ele></trkpt>
      <trkpt lat="1.2799629" lon="103.7940709"><ele>51.1</ele></trkpt>
      <trkpt lat="1.2799386" lon="103.7940165"><ele>51.4</ele></trkpt>
      <trkpt lat="1.2799076" lon="103.7939867"><ele>51.5</ele></trkpt>
      <trkpt lat="1.2799347" lon="103.7939311"><ele>52.0</ele></trkpt>
      <trkpt lat="1.2800014" lon="103.7939626"><ele>51.8</ele></trkpt>
      <trkpt lat="1.2800636" lon="103.7939948"><ele>50.9</ele></trkpt>
      <trkpt lat="1.2801297" lon="103.7940140"><ele>50.0</ele></trkpt>
      <trkpt lat="1.2802154" lon="103.7940325"><ele>48.8</ele></trkpt>
      <trkpt lat="1.2802914" lon="103.7940046"><ele>48.6</ele></trkpt>
      <trkpt lat="1.2803245" lon="103.7939773"><ele>48.8</ele></trkpt>
      <trkpt lat="1.2803394" lon="103.7939650"><ele>48.8</ele></trkpt>
      <trkpt lat="1.2804517" lon="103.7938726"><ele>48.7</ele></trkpt>
      <trkpt lat="1.2804637" lon="103.7938966"><ele>47.8</ele></trkpt>
      <trkpt lat="1.2804682" lon="103.7939230"><ele>47.1</ele></trkpt>
      <trkpt lat="1.2804647" lon="103.7939496"><ele>46.5</ele></trkpt>
      <trkpt lat="1.2804537" lon="103.7939740"><ele>46.1</ele></trkpt>
      <trkpt lat="1.2804273" lon="103.7940361"><ele>45.2</ele></trkpt>
      <trkpt lat="1.2803907" lon="103.7940928"><ele>44.7</ele></trkpt>
      <trkpt lat="1.2803511" lon="103.7941391"><ele>44.5</ele></trkpt>
      <trkpt lat="1.2803515" lon="103.7941476"><ele>44.2</ele></trkpt>
      <trkpt lat="1.2803545" lon="103.7941556"><ele>44.0</ele></trkpt>
      <trkpt lat="1.2803599" lon="103.7941623"><ele>43.7</ele></trkpt>
      <trkpt lat="1.2803671" lon="103.7941669"><ele>43.4</ele></trkpt>
      <trkpt lat="1.2803754" lon="103.7941691"><ele>43.2</ele></trkpt>
      <trkpt lat="1.2803839" lon="103.7941686"><ele>43.0</ele></trkpt>
      <trkpt lat="1.2804461" lon="103.7941011"><ele>43.2</ele></trkpt>
      <trkpt lat="1.2804797" lon="103.7940519"><ele>43.7</ele></trkpt>
      <trkpt lat="1.2804999" lon="103.7940044"><ele>44.4</ele></trkpt>
      <trkpt lat="1.2805045" lon="103.7939979"><ele>44.5</ele></trkpt>
      <trkpt lat="1.2805110" lon="103.7939933"><ele>44.4</ele></trkpt>
      <trkpt lat="1.2805186" lon="103.7939911"><ele>44.3</ele></trkpt>
      <trkpt lat="1.2805265" lon="103.7939916"><ele>44.1</ele></trkpt>
      <trkpt lat="1.2805338" lon="103.7939947"><ele>43.9</ele></trkpt>
      <trkpt lat="1.2805397" lon="103.7940000"><ele>43.6</ele></trkpt>
      <trkpt lat="1.2805435" lon="103.7940070"><ele>43.4</ele></trkpt>
      <trkpt lat="1.2805448" lon="103.7940148"><ele>43.2</ele></trkpt>
      <trkpt lat="1.2805434" lon="103.7940226"><ele>43.0</ele></trkpt>
      <trkpt lat="1.2805225" lon="103.7940706"><ele>42.3</ele></trkpt>
      <trkpt lat="1.2804799" lon="103.7941490"><ele>41.3</ele></trkpt>
      <trkpt lat="1.2804457" lon="103.7942161"><ele>40.5</ele></trkpt>
      <trkpt lat="1.2804146" lon="103.7943079"><ele>39.1</ele></trkpt>
      <trkpt lat="1.2803559" lon="103.7943850"><ele>38.7</ele></trkpt>
      <trkpt lat="1.2803063" lon="103.7944219"><ele>38.9</ele></trkpt>
      <trkpt lat="1.2803012" lon="103.7944247"><ele>39.0</ele></trkpt>
      <trkpt lat="1.2802974" lon="103.7944289"><ele>39.0</ele></trkpt>
      <trkpt lat="1.2802950" lon="103.7944341"><ele>38.9</ele></trkpt>
      <trkpt lat="1.2802945" lon="103.7944398"><ele>38.8</ele></trkpt>
      <trkpt lat="1.2802957" lon="103.7944454"><ele>38.6</ele></trkpt>
      <trkpt lat="1.2802987" lon="103.7944503"><ele>38.5</ele></trkpt>
      <trkpt lat="1.2803031" lon="103.7944540"><ele>38.3</ele></trkpt>
      <trkpt lat="1.2803084" lon="103.7944560"><ele>38.1</ele></trkpt>
      <trkpt lat="1.2803142" lon="103.7944563"><ele>37.9</ele></trkpt>
      <trkpt lat="1.2803197" lon="103.7944548"><ele>37.8</ele></trkpt>
      <trkpt lat="1.2804552" lon="103.7943931"><ele>36.3</ele></trkpt>
      <trkpt lat="1.2804656" lon="103.7943963"><ele>36.0</ele></trkpt>
      <trkpt lat="1.2804744" lon="103.7944026"><ele>35.7</ele></trkpt>
      <trkpt lat="1.2804807" lon="103.7944115"><ele>35.4</ele></trkpt>
      <trkpt lat="1.2804838" lon="103.7944219"><ele>35.1</ele></trkpt>
      <trkpt lat="1.2804833" lon="103.7944328"><ele>34.9</ele></trkpt>
      <trkpt lat="1.2804793" lon="103.7944429"><ele>34.7</ele></trkpt>
      <trkpt lat="1.2804471" lon="103.7944641"><ele>34.9</ele></trkpt>
      <trkpt lat="1.2803472" lon="103.7945299"><ele>35.5</ele></trkpt>
      <trkpt lat="1.2803405" lon="103.7945367"><ele>35.5</ele></trkpt>
      <trkpt lat="1.2803362" lon="103.7945452"><ele>35.5</ele></trkpt>
      <trkpt lat="1.2803348" lon="103.7945547"><ele>35.4</ele></trkpt>
      <trkpt lat="1.2803364" lon="103.7945641"><ele>35.3</ele></trkpt>
      <trkpt lat="1.2803409" lon="103.7945725"><ele>35.2</ele></trkpt>
      <trkpt lat="1.2803477" lon="103.7945792"><ele>35.0</ele></trkpt>
      <trkpt lat="1.2803563" lon="103.7945834"><ele>34.7</ele></trkpt>
      <trkpt lat="1.2803657" lon="103.7945847"><ele>34.5</ele></trkpt>
      <trkpt lat="1.2803751" lon="103.7945831"><ele>34.3</ele></trkpt>
      <trkpt lat="1.2804702" lon="103.7945332"><ele>32.9</ele></trkpt>
      <trkpt lat="1.2804896" lon="103.7945230"><ele>32.7</ele></trkpt>
      <trkpt lat="1.2805029" lon="103.7945219"><ele>32.5</ele></trkpt>
      <trkpt lat="1.2805157" lon="103.7945254"><ele>32.2</ele></trkpt>
      <trkpt lat="1.2805267" lon="103.7945330"><ele>31.8</ele></trkpt>
      <trkpt lat="1.2805344" lon="103.7945439"><ele>31.4</ele></trkpt>
      <trkpt lat="1.2805379" lon="103.7945567"><ele>31.2</ele></trkpt>
      <trkpt lat="1.2805369" lon="103.7945700"><ele>31.1</ele></trkpt>
      <trkpt lat="1.2805315" lon="103.7945822"><ele>31.0</ele></trkpt>
      <trkpt lat="1.2805223" lon="103.7945918"><ele>31.1</ele></trkpt>
      <trkpt lat="1.2804243" lon="103.7946660"><ele>32.4</ele></trkpt>
      <trkpt lat="1.2804191" lon="103.7946750"><ele>32.4</ele></trkpt>
      <trkpt lat="1.2804172" lon="103.7946852"><ele>32.4</ele></trkpt>
      <trkpt lat="1.2804187" lon="103.7946954"><ele>32.2</ele></trkpt>
      <trkpt lat="1.2804234" lon="103.7947046"><ele>32.0</ele></trkpt>
      <trkpt lat="1.2804310" lon="103.7947117"><ele>31.8</ele></trkpt>
      <trkpt lat="1.2804404" lon="103.7947160"><ele>31.5</ele></trkpt>
      <trkpt lat="1.2804507" lon="103.7947169"><ele>31.3</ele></trkpt>
      <trkpt lat="1.2805618" lon="103.7946502"><ele>29.5</ele></trkpt>
      <trkpt lat="1.2805778" lon="103.7946485"><ele>29.2</ele></trkpt>
      <trkpt lat="1.2805936" lon="103.7946518"><ele>28.8</ele></trkpt>
      <trkpt lat="1.2806076" lon="103.7946598"><ele>28.4</ele></trkpt>
      <trkpt lat="1.2806186" lon="103.7946716"><ele>27.9</ele></trkpt>
      <trkpt lat="1.2806247" lon="103.7946845"><ele>27.6</ele></trkpt>
      <trkpt lat="1.2806272" lon="103.7946985"><ele>27.4</ele></trkpt>
      <trkpt lat="1.2806256" lon="103.7947126"><ele>27.2</ele></trkpt>
      <trkpt lat="1.2806202" lon="103.7947258"><ele>27.2</ele></trkpt>
      <trkpt lat="1.2803456" lon="103.7949148"><ele>32.0</ele></trkpt>
      <trkpt lat="1.2801936" lon="103.7950129"><ele>35.9</ele></trkpt>
      <trkpt lat="1.2797991" lon="103.7954519"><ele>31.3</ele></trkpt>
      <trkpt lat="1.2795206" lon="103.7957586"><ele>16.7</ele></trkpt>
      <trkpt lat="1.2794631" lon="103.7958342"><ele>14.0</ele></trkpt>
      <trkpt lat="1.2794389" lon="103.7959095"><ele>11.3</ele></trkpt>
      <trkpt lat="1.2794629" lon="103.7959622"><ele>10.0</ele></trkpt>
      <trkpt lat="1.2794861" lon="103.7960811"><ele>7.4</ele></trkpt>
      <trkpt lat="1.2795217" lon="103.7961492"><ele>5.4</ele></trkpt>
      <trkpt lat="1.2795533" lon="103.7962096"><ele>3.6</ele></trkpt>
      <trkpt lat="1.2795849" lon="103.7962699"><ele>2.3</ele></trkpt>
      <trkpt lat="1.2795985" lon="103.7962960"><ele>2.4</ele></trkpt>
      <trkpt lat="1.2795903" lon="103.7963141"><ele>2.8</ele></trkpt>
      <trkpt lat="1.2794975" lon="103.7965201"><ele>6.0</ele></trkpt>
      <trkpt lat="1.2793938" lon="103.7967520"><ele>7.6</ele></trkpt>
      <trkpt lat="1.2793551" lon="103.7968489"><ele>7.8</ele></trkpt>
      <trkpt lat="1.2792966" lon="103.7969956"><ele>7.4</ele></trkpt>
      <trkpt lat="1.2792349" lon="103.7971499"><ele>7.3</ele></trkpt>
      <trkpt lat="1.2791820" lon="103.7972825"><ele>7.4</ele></trkpt>
      <trkpt lat="1.2789807" lon="103.7978253"><ele>8.3</ele></trkpt>
      <trkpt lat="1.2789480" lon="103.7979820"><ele>9.0</ele></trkpt>
      <trkpt lat="1.2790038" lon="103.7980681"><ele>9.0</ele></trkpt>
      <trkpt lat="1.2790549" lon="103.7980886"><ele>9.0</ele></trkpt>
      <trkpt lat="1.2791968" lon="103.7981453"><ele>9.0</ele></trkpt>
      <trkpt lat="1.2792783" lon="103.7981779"><ele>9.0</ele></trkpt>
      <trkpt lat="1.2793205" lon="103.7982180"><ele>9.6</ele></trkpt>
      <trkpt lat="1.2793522" lon="103.7981932"><ele>10.1</ele></trkpt>
      <trkpt lat="1.2793584" lon="103.7986751"><ele>16.4</ele></trkpt>
      <trkpt lat="1.2793605" lon="103.7991167"><ele>27.2</ele></trkpt>
      <trkpt lat="1.2793621" lon="103.7992978"><ele>31.1</ele></trkpt>
      <trkpt lat="1.2793445" lon="103.7993244"><ele>31.4</ele></trkpt>
      <trkpt lat="1.2792366" lon="103.7993713"><ele>29.8</ele></trkpt>
      <trkpt lat="1.2792087" lon="103.7994017"><ele>29.3</ele></trkpt>
      <trkpt lat="1.2792011" lon="103.7994199"><ele>29.3</ele></trkpt>
      <trkpt lat="1.2791850" lon="103.7994585"><ele>29.2</ele></trkpt>
      <trkpt lat="1.2791529" lon="103.7994944"><ele>28.6</ele></trkpt>
      <trkpt lat="1.2791225" lon="103.7995283"><ele>28.1</ele></trkpt>
      <trkpt lat="1.2791178" lon="103.7995565"><ele>28.3</ele></trkpt>
      <trkpt lat="1.2791185" lon="103.7995787"><ele>28.5</ele></trkpt>
      <trkpt lat="1.2791192" lon="103.7995997"><ele>28.7</ele></trkpt>
      <trkpt lat="1.2791072" lon="103.7996292"><ele>28.7</ele></trkpt>
      <trkpt lat="1.2790736" lon="103.7996594"><ele>28.1</ele></trkpt>
      <trkpt lat="1.2790435" lon="103.7996911"><ele>27.7</ele></trkpt>
      <trkpt lat="1.2790416" lon="103.7997429"><ele>27.9</ele></trkpt>
      <trkpt lat="1.2790464" lon="103.7998623"><ele>28.6</ele></trkpt>
      <trkpt lat="1.2790532" lon="103.8000279"><ele>29.6</ele></trkpt>
      <trkpt lat="1.2790337" lon="103.8001295"><ele>29.8</ele></trkpt>
      <trkpt lat="1.2789993" lon="103.8001660"><ele>29.3</ele></trkpt>
      <trkpt lat="1.2789646" lon="103.8002016"><ele>28.9</ele></trkpt>
      <trkpt lat="1.2788967" lon="103.8002690"><ele>28.3</ele></trkpt>
      <trkpt lat="1.2789557" lon="103.8003267"><ele>29.8</ele></trkpt>
      <trkpt lat="1.2789759" lon="103.8003602"><ele>30.4</ele></trkpt>
      <trkpt lat="1.2790048" lon="103.8003802"><ele>30.9</ele></trkpt>
      <trkpt lat="1.2790327" lon="103.8003887"><ele>31.3</ele></trkpt>
      <trkpt lat="1.2790804" lon="103.8004259"><ele>32.0</ele></trkpt>
      <trkpt lat="1.2790925" lon="103.8004641"><ele>32.1</ele></trkpt>
      <trkpt lat="1.2791072" lon="103.8004890"><ele>32.2</ele></trkpt>
      <trkpt lat="1.2791153" lon="103.8005292"><ele>32.3</ele></trkpt>
      <trkpt lat="1.2791200" lon="103.8005775"><ele>32.3</ele></trkpt>
      <trkpt lat="1.2791615" lon="103.8006339"><ele>32.5</ele></trkpt>
      <trkpt lat="1.2791542" lon="103.8006942"><ele>32.3</ele></trkpt>
      <trkpt lat="1.2790406" lon="103.8010047"><ele>28.5</ele></trkpt>
      <trkpt lat="1.2791550" lon="103.8010509"><ele>28.9</ele></trkpt>
      <trkpt lat="1.2791269" lon="103.8011330"><ele>27.9</ele></trkpt>
      <trkpt lat="1.2790821" lon="103.8012692"><ele>25.9</ele></trkpt>
      <trkpt lat="1.2790795" lon="103.8012771"><ele>25.8</ele></trkpt>
      <trkpt lat="1.2790694" lon="103.8013068"><ele>25.3</ele></trkpt>
      <trkpt lat="1.2790724" lon="103.8013862"><ele>24.5</ele></trkpt>
      <trkpt lat="1.2790188" lon="103.8015109"><ele>23.9</ele></trkpt>
      <trkpt lat="1.2789606" lon="103.8016936"><ele>24.0</ele></trkpt>
      <trkpt lat="1.2789767" lon="103.8017615"><ele>24.9</ele></trkpt>
      <trkpt lat="1.2789869" lon="103.8018132"><ele>26.3</ele></trkpt>
      <trkpt lat="1.2790160" lon="103.8019949"><ele>30.8</ele></trkpt>
      <trkpt lat="1.2791898" lon="103.8021849"><ele>32.4</ele></trkpt>
      <trkpt lat="1.2793985" lon="103.8023062"><ele>32.4</ele></trkpt>
      <trkpt lat="1.2796454" lon="103.8023299"><ele>35.0</ele></trkpt>
      <trkpt lat="1.2797926" lon="103.8023389"><ele>36.1</ele></trkpt>
      <trkpt lat="1.2798765" lon="103.8022520"><ele>37.4</ele></trkpt>
      <trkpt lat="1.2801186" lon="103.8022328"><ele>36.8</ele></trkpt>
      <trkpt lat="1.2801069" lon="103.8022978"><ele>36.3</ele></trkpt>
      <trkpt lat="1.2800848" lon="103.8023689"><ele>35.9</ele></trkpt>
      <trkpt lat="1.2801936" lon="103.8023146"><ele>35.1</ele></trkpt>
      <trkpt lat="1.2802764" lon="103.8023026"><ele>34.3</ele></trkpt>
      <trkpt lat="1.2802202" lon="103.8024040"><ele>33.7</ele></trkpt>
      <trkpt lat="1.2801417" lon="103.8025131"><ele>33.8</ele></trkpt>
      <trkpt lat="1.2800582" lon="103.8026838"><ele>33.6</ele></trkpt>
      <trkpt lat="1.2800114" lon="103.8028662"><ele>33.3</ele></trkpt>
      <trkpt lat="1.2800013" lon="103.8029057"><ele>33.3</ele></trkpt>
      <trkpt lat="1.2799918" lon="103.8031039"><ele>32.9</ele></trkpt>
      <trkpt lat="1.2799124" lon="103.8031835"><ele>32.7</ele></trkpt>
      <trkpt lat="1.2800347" lon="103.8034129"><ele>33.1</ele></trkpt>
      <trkpt lat="1.2799519" lon="103.8034804"><ele>33.0</ele></trkpt>
      <trkpt lat="1.2799972" lon="103.8037793"><ele>33.3</ele></trkpt>
      <trkpt lat="1.2800856" lon="103.8038292"><ele>34.4</ele></trkpt>
      <trkpt lat="1.2801199" lon="103.8039028"><ele>35.0</ele></trkpt>
      <trkpt lat="1.2801421" lon="103.8040108"><ele>35.6</ele></trkpt>
      <trkpt lat="1.2801709" lon="103.8042140"><ele>36.8</ele></trkpt>
      <trkpt lat="1.2802111" lon="103.8044366"><ele>38.8</ele></trkpt>
      <trkpt lat="1.2802419" lon="103.8045668"><ele>41.3</ele></trkpt>
      <trkpt lat="1.2802373" lon="103.8046856"><ele>44.6</ele></trkpt>
      <trkpt lat="1.2800537" lon="103.8048385"><ele>48.3</ele></trkpt>
      <trkpt lat="1.2798913" lon="103.8049783"><ele>48.6</ele></trkpt>
      <trkpt lat="1.2797129" lon="103.8052844"><ele>48.9</ele></trkpt>
      <trkpt lat="1.2796149" lon="103.8057325"><ele>54.8</ele></trkpt>
      <trkpt lat="1.2796134" lon="103.8060060"><ele>57.9</ele></trkpt>
      <trkpt lat="1.2796128" lon="103.8061167"><ele>58.8</ele></trkpt>
      <trkpt lat="1.2795914" lon="103.8063949"><ele>61.1</ele></trkpt>
      <trkpt lat="1.2794918" lon="103.8064364"><ele>58.8</ele></trkpt>
      <trkpt lat="1.2794600" lon="103.8065802"><ele>59.7</ele></trkpt>
      <trkpt lat="1.2792900" lon="103.8066508"><ele>56.4</ele></trkpt>
      <trkpt lat="1.2792224" lon="103.8070888"><ele>63.6</ele></trkpt>
      <trkpt lat="1.2792131" lon="103.8072361"><ele>66.0</ele></trkpt>
      <trkpt lat="1.2792058" lon="103.8074165"><ele>66.6</ele></trkpt>
      <trkpt lat="1.2791905" lon="103.8075763"><ele>66.8</ele></trkpt>
      <trkpt lat="1.2791603" lon="103.8077423"><ele>65.8</ele></trkpt>
      <trkpt lat="1.2790756" lon="103.8077615"><ele>62.4</ele></trkpt>
      <trkpt lat="1.2790619" lon="103.8078241"><ele>62.1</ele></trkpt>
      <trkpt lat="1.2787806" lon="103.8078588"><ele>52.0</ele></trkpt>
      <trkpt lat="1.2787359" lon="103.8079568"><ele>52.1</ele></trkpt>
      <trkpt lat="1.2786645" lon="103.8079696"><ele>50.2</ele></trkpt>
      <trkpt lat="1.2786080" lon="103.8080351"><ele>50.1</ele></trkpt>
      <trkpt lat="1.2785855" lon="103.8081092"><ele>51.5</ele></trkpt>
      <trkpt lat="1.2785602" lon="103.8083267"><ele>55.8</ele></trkpt>
      <trkpt lat="1.2785795" lon="103.8084237"><ele>57.6</ele></trkpt>
      <trkpt lat="1.2785691" lon="103.8085099"><ele>58.5</ele></trkpt>
      <trkpt lat="1.2786421" lon="103.8086638"><ele>62.6</ele></trkpt>
      <trkpt lat="1.2785484" lon="103.8089199"><ele>61.5</ele></trkpt>
      <trkpt lat="1.2786832" lon="103.8090708"><ele>69.0</ele></trkpt>
      <trkpt lat="1.2787785" lon="103.8091981"><ele>73.9</ele></trkpt>
      <trkpt lat="1.2787622" lon="103.8092570"><ele>74.6</ele></trkpt>
      <trkpt lat="1.2787570" lon="103.8092746"><ele>74.8</ele></trkpt>
      <trkpt lat="1.2784357" lon="103.8092557"><ele>65.1</ele></trkpt>
      <trkpt lat="1.2782613" lon="103.8095091"><ele>65.0</ele></trkpt>
      <trkpt lat="1.2783009" lon="103.8095612"><ele>67.4</ele></trkpt>
      <trkpt lat="1.2783637" lon="103.8095051"><ele>68.0</ele></trkpt>
      <trkpt lat="1.2784689" lon="103.8093332"><ele>68.0</ele></trkpt>
      <trkpt lat="1.2787744" lon="103.8093605"><ele>76.4</ele></trkpt>
      <trkpt lat="1.2787924" lon="103.8094282"><ele>77.6</ele></trkpt>
      <trkpt lat="1.2784277" lon="103.8095975"><ele>71.6</ele></trkpt>
      <trkpt lat="1.2784278" lon="103.8096528"><ele>72.5</ele></trkpt>
      <trkpt lat="1.2784683" lon="103.8096849"><ele>73.7</ele></trkpt>
      <trkpt lat="1.2786772" lon="103.8095690"><ele>77.3</ele></trkpt>
      <trkpt lat="1.2789601" lon="103.8094499"><ele>80.7</ele></trkpt>
      <trkpt lat="1.2790340" lon="103.8094966"><ele>81.3</ele></trkpt>
      <trkpt lat="1.2790557" lon="103.8095261"><ele>81.7</ele></trkpt>
      <trkpt lat="1.2791178" lon="103.8096018"><ele>82.9</ele></trkpt>
      <trkpt lat="1.2790619" lon="103.8095581"><ele>82.2</ele></trkpt>
      <trkpt lat="1.2790090" lon="103.8095613"><ele>82.2</ele></trkpt>
      <trkpt lat="1.2789166" lon="103.8095830"><ele>81.8</ele></trkpt>
      <trkpt lat="1.2788318" lon="103.8096024"><ele>80.6</ele></trkpt>
      <trkpt lat="1.2787802" lon="103.8096184"><ele>79.8</ele></trkpt>
      <trkpt lat="1.2787630" lon="103.8098117"><ele>81.1</ele></trkpt>
      <trkpt lat="1.2787821" lon="103.8099358"><ele>82.4</ele></trkpt>
      <trkpt lat="1.2788174" lon="103.8100406"><ele>84.6</ele></trkpt>
      <trkpt lat="1.2788471" lon="103.8101759"><ele>87.3</ele></trkpt>
      <trkpt lat="1.2788375" lon="103.8102533"><ele>88.3</ele></trkpt>
      <trkpt lat="1.2788323" lon="103.8103663"><ele>89.6</ele></trkpt>
      <trkpt lat="1.2788198" lon="103.8104671"><ele>90.1</ele></trkpt>
      <trkpt lat="1.2788833" lon="103.8104742"><ele>90.6</ele></trkpt>
      <trkpt lat="1.2788817" lon="103.8105159"><ele>90.7</ele></trkpt>
      <trkpt lat="1.2788767" lon="103.8106418"><ele>91.1</ele></trkpt>
      <trkpt lat="1.2788842" lon="103.8108130"><ele>89.0</ele></trkpt>
      <trkpt lat="1.2789022" lon="103.8109427"><ele>86.8</ele></trkpt>
      <trkpt lat="1.2789035" lon="103.8109801"><ele>86.2</ele></trkpt>
      <trkpt lat="1.2789206" lon="103.8110276"><ele>85.1</ele></trkpt>
      <trkpt lat="1.2789691" lon="103.8110955"><ele>83.0</ele></trkpt>
      <trkpt lat="1.2789908" lon="103.8112405"><ele>80.7</ele></trkpt>
      <trkpt lat="1.2790728" lon="103.8113174"><ele>78.4</ele></trkpt>
      <trkpt lat="1.2788805" lon="103.8117540"><ele>77.6</ele></trkpt>
      <trkpt lat="1.2788983" lon="103.8117673"><ele>77.5</ele></trkpt>
      <trkpt lat="1.2789226" lon="103.8117854"><ele>77.5</ele></trkpt>
      <trkpt lat="1.2788091" lon="103.8119003"><ele>76.9</ele></trkpt>
      <trkpt lat="1.2787383" lon="103.8119675"><ele>76.8</ele></trkpt>
      <trkpt lat="1.2787287" lon="103.8119802"><ele>76.8</ele></trkpt>
      <trkpt lat="1.2785450" lon="103.8122222"><ele>77.8</ele></trkpt>
      <trkpt lat="1.2785003" lon="103.8122811"><ele>78.0</ele></trkpt>
      <trkpt lat="1.2784730" lon="103.8123190"><ele>78.1</ele></trkpt>
      <trkpt lat="1.2783747" lon="103.8124558"><ele>78.2</ele></trkpt>
      <trkpt lat="1.2782502" lon="103.8126568"><ele>78.0</ele></trkpt>
      <trkpt lat="1.2781959" lon="103.8127681"><ele>78.4</ele></trkpt>
      <trkpt lat="1.2781445" lon="103.8128706"><ele>79.2</ele></trkpt>
      <trkpt lat="1.2780980" lon="103.8129634"><ele>79.8</ele></trkpt>
      <trkpt lat="1.2781385" lon="103.8132217"><ele>80.7</ele></trkpt>
      <trkpt lat="1.2780594" lon="103.8131709"><ele>80.0</ele></trkpt>
      <trkpt lat="1.2780075" lon="103.8131391"><ele>79.6</ele></trkpt>
      <trkpt lat="1.2780980" lon="103.8129634"><ele>79.8</ele></trkpt>
      <trkpt lat="1.2781445" lon="103.8128706"><ele>79.2</ele></trkpt>
      <trkpt lat="1.2781637" lon="103.8129029"><ele>79.6</ele></trkpt>
      <trkpt lat="1.2781496" lon="103.8129775"><ele>80.2</ele></trkpt>
      <trkpt lat="1.2781355" lon="103.8130521"><ele>80.7</ele></trkpt>
      <trkpt lat="1.2781360" lon="103.8130764"><ele>80.9</ele></trkpt>
      <trkpt lat="1.2781377" lon="103.8131769"><ele>80.8</ele></trkpt>
      <trkpt lat="1.2781385" lon="103.8132217"><ele>80.7</ele></trkpt>
      <trkpt lat="1.2781493" lon="103.8134526"><ele>79.8</ele></trkpt>
      <trkpt lat="1.2780473" lon="103.8135321"><ele>77.5</ele></trkpt>
      <trkpt lat="1.2780182" lon="103.8135548"><ele>77.0</ele></trkpt>
      <trkpt lat="1.2778117" lon="103.8136929"><ele>74.2</ele></trkpt>
      <trkpt lat="1.2777025" lon="103.8137721"><ele>73.1</ele></trkpt>
      <trkpt lat="1.2775349" lon="103.8140416"><ele>73.4</ele></trkpt>
      <trkpt lat="1.2774073" lon="103.8142138"><ele>73.3</ele></trkpt>
      <trkpt lat="1.2773934" lon="103.8142325"><ele>73.3</ele></trkpt>
      <trkpt lat="1.2773365" lon="103.8143729"><ele>74.2</ele></trkpt>
      <trkpt lat="1.2772854" lon="103.8144763"><ele>75.4</ele></trkpt>
      <trkpt lat="1.2772700" lon="103.8145033"><ele>75.6</ele></trkpt>
      <trkpt lat="1.2772478" lon="103.8145108"><ele>76.1</ele></trkpt>
      <trkpt lat="1.2772223" lon="103.8145038"><ele>76.7</ele></trkpt>
      <trkpt lat="1.2772051" lon="103.8144533"><ele>77.0</ele></trkpt>
      <trkpt lat="1.2771887" lon="103.8143917"><ele>76.4</ele></trkpt>
      <trkpt lat="1.2771414" lon="103.8143487"><ele>75.9</ele></trkpt>
      <trkpt lat="1.2770800" lon="103.8143236"><ele>75.5</ele></trkpt>
      <trkpt lat="1.2770522" lon="103.8143252"><ele>75.5</ele></trkpt>
      <trkpt lat="1.2770224" lon="103.8143418"><ele>75.8</ele></trkpt>
      <trkpt lat="1.2769986" lon="103.8143662"><ele>76.2</ele></trkpt>
      <trkpt lat="1.2767919" lon="103.8145537"><ele>77.5</ele></trkpt>
      <trkpt lat="1.2767613" lon="103.8145821"><ele>77.3</ele></trkpt>
      <trkpt lat="1.2764868" lon="103.8148558"><ele>75.5</ele></trkpt>
      <trkpt lat="1.2763255" lon="103.8150273"><ele>70.0</ele></trkpt>
      <trkpt lat="1.2761445" lon="103.8152767"><ele>57.9</ele></trkpt>
      <trkpt lat="1.2759729" lon="103.8156469"><ele>45.9</ele></trkpt>
      <trkpt lat="1.2757334" lon="103.8163392"><ele>61.6</ele></trkpt>
      <trkpt lat="1.2756592" lon="103.8163825"><ele>62.7</ele></trkpt>
      <trkpt lat="1.2756404" lon="103.8164020"><ele>63.1</ele></trkpt>
      <trkpt lat="1.2756196" lon="103.8164295"><ele>63.5</ele></trkpt>
      <trkpt lat="1.2756033" lon="103.8164633"><ele>64.0</ele></trkpt>
      <trkpt lat="1.2755345" lon="103.8164905"><ele>64.7</ele></trkpt>
      <trkpt lat="1.2754151" lon="103.8164958"><ele>66.0</ele></trkpt>
      <trkpt lat="1.2753226" lon="103.8164757"><ele>66.8</ele></trkpt>
      <trkpt lat="1.2752180" lon="103.8164529"><ele>67.6</ele></trkpt>
      <trkpt lat="1.2752470" lon="103.8161248"><ele>62.3</ele></trkpt>
      <trkpt lat="1.2752167" lon="103.8161261"><ele>62.5</ele></trkpt>
      <trkpt lat="1.2751000" lon="103.8161581"><ele>65.5</ele></trkpt>
      <trkpt lat="1.2749568" lon="103.8162890"><ele>70.9</ele></trkpt>
      <trkpt lat="1.2748025" lon="103.8163109"><ele>75.0</ele></trkpt>
      <trkpt lat="1.2745887" lon="103.8163208"><ele>82.8</ele></trkpt>
      <trkpt lat="1.2745135" lon="103.8164650"><ele>84.5</ele></trkpt>
      <trkpt lat="1.2744753" lon="103.8165515"><ele>84.4</ele></trkpt>
      <trkpt lat="1.2744796" lon="103.8166370"><ele>83.1</ele></trkpt>
      <trkpt lat="1.2744769" lon="103.8166793"><ele>82.5</ele></trkpt>
      <trkpt lat="1.2744615" lon="103.8167189"><ele>82.0</ele></trkpt>
      <trkpt lat="1.2744350" lon="103.8167520"><ele>81.7</ele></trkpt>
      <trkpt lat="1.2743791" lon="103.8168073"><ele>81.0</ele></trkpt>
      <trkpt lat="1.2743115" lon="103.8168601"><ele>80.5</ele></trkpt>
      <trkpt lat="1.2742620" lon="103.8169345"><ele>80.9</ele></trkpt>
      <trkpt lat="1.2741858" lon="103.8170025"><ele>81.6</ele></trkpt>
      <trkpt lat="1.2741307" lon="103.8170859"><ele>82.3</ele></trkpt>
      <trkpt lat="1.2740833" lon="103.8171824"><ele>82.9</ele></trkpt>
      <trkpt lat="1.2740058" lon="103.8172569"><ele>82.8</ele></trkpt>
      <trkpt lat="1.2738554" lon="103.8173128"><ele>83.2</ele></trkpt>
      <trkpt lat="1.2738089" lon="103.8173394"><ele>83.4</ele></trkpt>
      <trkpt lat="1.2737718" lon="103.8173781"><ele>83.4</ele></trkpt>
      <trkpt lat="1.2737271" lon="103.8174638"><ele>83.8</ele></trkpt>
      <trkpt lat="1.2737760" lon="103.8175178"><ele>84.0</ele></trkpt>
      <trkpt lat="1.2737982" lon="103.8175687"><ele>84.0</ele></trkpt>
      <trkpt lat="1.2738035" lon="103.8176143"><ele>83.9</ele></trkpt>
      <trkpt lat="1.2737799" lon="103.8176572"><ele>84.1</ele></trkpt>
      <trkpt lat="1.2737607" lon="103.8176726"><ele>84.3</ele></trkpt>
      <trkpt lat="1.2737512" lon="103.8176802"><ele>84.4</ele></trkpt>
      <trkpt lat="1.2737169" lon="103.8176934"><ele>84.7</ele></trkpt>
      <trkpt lat="1.2736802" lon="103.8176954"><ele>85.1</ele></trkpt>
      <trkpt lat="1.2736426" lon="103.8176894"><ele>85.4</ele></trkpt>
      <trkpt lat="1.2735618" lon="103.8177376"><ele>86.6</ele></trkpt>
      <trkpt lat="1.2735333" lon="103.8178355"><ele>88.0</ele></trkpt>
      <trkpt lat="1.2735309" lon="103.8178675"><ele>88.4</ele></trkpt>
      <trkpt lat="1.2735383" lon="103.8179036"><ele>88.7</ele></trkpt>
      <trkpt lat="1.2735365" lon="103.8179347"><ele>89.2</ele></trkpt>
      <trkpt lat="1.2735260" lon="103.8179641"><ele>89.8</ele></trkpt>
      <trkpt lat="1.2735077" lon="103.8179894"><ele>90.5</ele></trkpt>
      <trkpt lat="1.2734745" lon="103.8180173"><ele>91.5</ele></trkpt>
      <trkpt lat="1.2734496" lon="103.8180529"><ele>92.5</ele></trkpt>
      <trkpt lat="1.2734315" lon="103.8180820"><ele>93.1</ele></trkpt>
      <trkpt lat="1.2733401" lon="103.8182291"><ele>95.9</ele></trkpt>
      <trkpt lat="1.2732686" lon="103.8183032"><ele>95.3</ele></trkpt>
      <trkpt lat="1.2730085" lon="103.8185766"><ele>90.3</ele></trkpt>
      <trkpt lat="1.2729786" lon="103.8186082"><ele>88.8</ele></trkpt>
      <trkpt lat="1.2729984" lon="103.8186812"><ele>86.3</ele></trkpt>
      <trkpt lat="1.2729836" lon="103.8187475"><ele>83.9</ele></trkpt>
      <trkpt lat="1.2729083" lon="103.8187765"><ele>82.8</ele></trkpt>
      <trkpt lat="1.2727195" lon="103.8188571"><ele>80.6</ele></trkpt>
      <trkpt lat="1.2727091" lon="103.8188553"><ele>80.5</ele></trkpt>
      <trkpt lat="1.2726444" lon="103.8188441"><ele>79.8</ele></trkpt>
      <trkpt lat="1.2726331" lon="103.8187981"><ele>80.2</ele></trkpt>
      <trkpt lat="1.2726308" lon="103.8187886"><ele>80.2</ele></trkpt>
      <trkpt lat="1.2724830" lon="103.8188372"><ele>77.6</ele></trkpt>
      <trkpt lat="1.2723555" lon="103.8189024"><ele>76.6</ele></trkpt>
      <trkpt lat="1.2722699" lon="103.8189150"><ele>76.1</ele></trkpt>
      <trkpt lat="1.2723157" lon="103.8189828"><ele>76.1</ele></trkpt>
      <trkpt lat="1.2722370" lon="103.8190242"><ele>75.8</ele></trkpt>
      <trkpt lat="1.2721792" lon="103.8190364"><ele>75.8</ele></trkpt>
      <trkpt lat="1.2718891" lon="103.8190976"><ele>78.9</ele></trkpt>
      <trkpt lat="1.2718079" lon="103.8191103"><ele>80.2</ele></trkpt>
      <trkpt lat="1.2716744" lon="103.8191900"><ele>82.8</ele></trkpt>
      <trkpt lat="1.2716016" lon="103.8192719"><ele>83.8</ele></trkpt>
      <trkpt lat="1.2715495" lon="103.8193261"><ele>83.3</ele></trkpt>
      <trkpt lat="1.2714413" lon="103.8194573"><ele>82.4</ele></trkpt>
      <trkpt lat="1.2713889" lon="103.8195423"><ele>81.8</ele></trkpt>
      <trkpt lat="1.2713608" lon="103.8195948"><ele>81.1</ele></trkpt>
      <trkpt lat="1.2712879" lon="103.8197655"><ele>78.5</ele></trkpt>
      <trkpt lat="1.2712238" lon="103.8200715"><ele>74.8</ele></trkpt>
      <trkpt lat="1.2712174" lon="103.8200977"><ele>74.5</ele></trkpt>
      <trkpt lat="1.2711546" lon="103.8200805"><ele>77.5</ele></trkpt>
      <trkpt lat="1.2711377" lon="103.8200756"><ele>78.3</ele></trkpt>
      <trkpt lat="1.2709939" lon="103.8200377"><ele>82.5</ele></trkpt>
      <trkpt lat="1.2709745" lon="103.8200364"><ele>82.5</ele></trkpt>
      <trkpt lat="1.2709558" lon="103.8200417"><ele>82.4</ele></trkpt>
      <trkpt lat="1.2709399" lon="103.8200529"><ele>82.3</ele></trkpt>
      <trkpt lat="1.2709287" lon="103.8200687"><ele>82.1</ele></trkpt>
      <trkpt lat="1.2709233" lon="103.8200874"><ele>82.0</ele></trkpt>
      <trkpt lat="1.2708834" lon="103.8202028"><ele>81.7</ele></trkpt>
      <trkpt lat="1.2708220" lon="103.8203067"><ele>82.0</ele></trkpt>
      <trkpt lat="1.2707212" lon="103.8204390"><ele>82.7</ele></trkpt>
      <trkpt lat="1.2706481" lon="103.8205807"><ele>81.7</ele></trkpt>
      <trkpt lat="1.2706198" lon="103.8207357"><ele>80.3</ele></trkpt>
      <trkpt lat="1.2705592" lon="103.8208451"><ele>78.8</ele></trkpt>
      <trkpt lat="1.2704972" lon="103.8210677"><ele>75.1</ele></trkpt>
      <trkpt lat="1.2704930" lon="103.8211434"><ele>73.5</ele></trkpt>
      <trkpt lat="1.2705359" lon="103.8211010"><ele>74.7</ele></trkpt>
      <trkpt lat="1.2704930" lon="103.8211434"><ele>73.5</ele></trkpt>
      <trkpt lat="1.2704345" lon="103.8211734"><ele>72.4</ele></trkpt>
      <trkpt lat="1.2704274" lon="103.8212304"><ele>71.2</ele></trkpt>
      <trkpt lat="1.2704109" lon="103.8212831"><ele>70.0</ele></trkpt>
      <trkpt lat="1.2701993" lon="103.8214348"><ele>67.7</ele></trkpt>
      <trkpt lat="1.2700031" lon="103.8215709"><ele>68.6</ele></trkpt>
      <trkpt lat="1.2699662" lon="103.8215614"><ele>68.7</ele></trkpt>
      <trkpt lat="1.2699086" lon="103.8215625"><ele>68.9</ele></trkpt>
      <trkpt lat="1.2698149" lon="103.8215904"><ele>69.2</ele></trkpt>
      <trkpt lat="1.2697633" lon="103.8215860"><ele>69.4</ele></trkpt>
      <trkpt lat="1.2697141" lon="103.8215544"><ele>69.6</ele></trkpt>
      <trkpt lat="1.2696448" lon="103.8215363"><ele>69.3</ele></trkpt>
      <trkpt lat="1.2695731" lon="103.8215378"><ele>68.6</ele></trkpt>
      <trkpt lat="1.2692558" lon="103.8215690"><ele>64.7</ele></trkpt>
      <trkpt lat="1.2692260" lon="103.8215605"><ele>64.2</ele></trkpt>
      <trkpt lat="1.2692000" lon="103.8215434"><ele>63.8</ele></trkpt>
      <trkpt lat="1.2691806" lon="103.8215192"><ele>63.5</ele></trkpt>
      <trkpt lat="1.2691568" lon="103.8213892"><ele>63.3</ele></trkpt>
      <trkpt lat="1.2691532" lon="103.8213550"><ele>63.3</ele></trkpt>
      <trkpt lat="1.2691404" lon="103.8213231"><ele>63.2</ele></trkpt>
      <trkpt lat="1.2691194" lon="103.8212960"><ele>62.7</ele></trkpt>
      <trkpt lat="1.2690917" lon="103.8212757"><ele>62.1</ele></trkpt>
      <trkpt lat="1.2690452" lon="103.8212540"><ele>61.3</ele></trkpt>
      <trkpt lat="1.2690050" lon="103.8212221"><ele>60.4</ele></trkpt>
      <trkpt lat="1.2689734" lon="103.8211817"><ele>59.5</ele></trkpt>
      <trkpt lat="1.2689605" lon="103.8211673"><ele>59.2</ele></trkpt>
      <trkpt lat="1.2689441" lon="103.8211572"><ele>58.8</ele></trkpt>
      <trkpt lat="1.2689254" lon="103.8211522"><ele>58.5</ele></trkpt>
      <trkpt lat="1.2689062" lon="103.8211529"><ele>58.1</ele></trkpt>
      <trkpt lat="1.2688879" lon="103.8211591"><ele>57.8</ele></trkpt>
      <trkpt lat="1.2688722" lon="103.8211703"><ele>57.6</ele></trkpt>
      <trkpt lat="1.2688416" lon="103.8211935"><ele>57.2</ele></trkpt>
      <trkpt lat="1.2688063" lon="103.8212087"><ele>56.7</ele></trkpt>
      <trkpt lat="1.2687683" lon="103.8212150"><ele>56.0</ele></trkpt>
      <trkpt lat="1.2687126" lon="103.8212192"><ele>55.0</ele></trkpt>
      <trkpt lat="1.2686238" lon="103.8212004"><ele>53.1</ele></trkpt>
      <trkpt lat="1.2685782" lon="103.8211970"><ele>51.9</ele></trkpt>
      <trkpt lat="1.2685538" lon="103.8212004"><ele>51.3</ele></trkpt>
      <trkpt lat="1.2685210" lon="103.8212049"><ele>50.4</ele></trkpt>
      <trkpt lat="1.2684675" lon="103.8212266"><ele>49.0</ele></trkpt>
      <trkpt lat="1.2684334" lon="103.8212429"><ele>48.0</ele></trkpt>
      <trkpt lat="1.2683959" lon="103.8212474"><ele>47.0</ele></trkpt>
      <trkpt lat="1.2683589" lon="103.8212398"><ele>46.0</ele></trkpt>
      <trkpt lat="1.2683263" lon="103.8212208"><ele>45.2</ele></trkpt>
      <trkpt lat="1.2682777" lon="103.8211880"><ele>44.4</ele></trkpt>
      <trkpt lat="1.2682674" lon="103.8211784"><ele>44.3</ele></trkpt>
      <trkpt lat="1.2682546" lon="103.8211724"><ele>44.2</ele></trkpt>
      <trkpt lat="1.2682406" lon="103.8211707"><ele>44.0</ele></trkpt>
      <trkpt lat="1.2682268" lon="103.8211735"><ele>43.8</ele></trkpt>
      <trkpt lat="1.2682145" lon="103.8211804"><ele>43.6</ele></trkpt>
      <trkpt lat="1.2682050" lon="103.8211907"><ele>43.4</ele></trkpt>
      <trkpt lat="1.2681991" lon="103.8212036"><ele>43.2</ele></trkpt>
      <trkpt lat="1.2681975" lon="103.8212176"><ele>43.1</ele></trkpt>
      <trkpt lat="1.2681687" lon="103.8212525"><ele>42.5</ele></trkpt>
      <trkpt lat="1.2681287" lon="103.8213190"><ele>41.4</ele></trkpt>
      <trkpt lat="1.2680684" lon="103.8213679"><ele>40.0</ele></trkpt>
      <trkpt lat="1.2679952" lon="103.8213935"><ele>38.6</ele></trkpt>
      <trkpt lat="1.2678446" lon="103.8213547"><ele>37.3</ele></trkpt>
      <trkpt lat="1.2677027" lon="103.8213151"><ele>36.0</ele></trkpt>
      <trkpt lat="1.2673794" lon="103.8212597"><ele>30.5</ele></trkpt>
      <trkpt lat="1.2672000" lon="103.8212297"><ele>25.9</ele></trkpt>
      <trkpt lat="1.2670522" lon="103.8212040"><ele>20.7</ele></trkpt>
      <trkpt lat="1.2669286" lon="103.8212058"><ele>16.3</ele></trkpt>
      <trkpt lat="1.2667414" lon="103.8211691"><ele>9.9</ele></trkpt>
      <trkpt lat="1.2666892" lon="103.8212014"><ele>7.9</ele></trkpt>
      <trkpt lat="1.2666568" lon="103.8212403"><ele>6.7</ele></trkpt>
      <trkpt lat="1.2666165" lon="103.8212464"><ele>5.3</ele></trkpt>
      <trkpt lat="1.2665272" lon="103.8213130"><ele>4.2</ele></trkpt>
      <trkpt lat="1.2664544" lon="103.8213319"><ele>4.8</ele></trkpt>
      <trkpt lat="1.2663938" lon="103.8213181"><ele>4.6</ele></trkpt>
      <trkpt lat="1.2663197" lon="103.8213064"><ele>4.7</ele></trkpt>
      <trkpt lat="1.2662712" lon="103.8213131"><ele>4.9</ele></trkpt>
      <trkpt lat="1.2662167" lon="103.8213381"><ele>5.7</ele></trkpt>
      <trkpt lat="1.2661021" lon="103.8214406"><ele>8.3</ele></trkpt>
      <trkpt lat="1.2660135" lon="103.8215152"><ele>9.9</ele></trkpt>
      <trkpt lat="1.2659206" lon="103.8215403"><ele>10.6</ele></trkpt>
      <trkpt lat="1.2659067" lon="103.8215437"><ele>10.6</ele></trkpt>
      <trkpt lat="1.2658900" lon="103.8215456"><ele>10.6</ele></trkpt>
      <trkpt lat="1.2658290" lon="103.8215513"><ele>9.8</ele></trkpt>
    </trkseg>
  </trk>
</gpx>